{
"type": "FeatureCollection",
"name": "sg_chinese_schools_points",
"crs": { "type": "name", "properties": { "name": "urn:ogc:def:crs:OGC:1.3:CRS84" } },
"features": [
{ "type": "Feature", "properties": { "OID": 1, "Name": "Shut Yung School", "FolderPath": "SG Chinese Schools (cleaned)", "SymbolID": 0, "AltMode": -1, "Base": 0.0, "Snippet": "", "PopupInfo": "拼音: Shíyòng Xuéxiào<br>Address R3: 10 Shan Road<br>Country: Singapore<br>创办时间公元 Opened Date: 1929", "HasLabel": -1, "LabelID": 0 }, "geometry": { "type": "Point", "coordinates": [ 103.846006400000078, 1.325518600000066, 0.0 ] } },
{ "type": "Feature", "properties": { "OID": 2, "Name": "San Shan School", "FolderPath": "SG Chinese Schools (cleaned)", "SymbolID": 0, "AltMode": -1, "Base": 0.0, "Snippet": "", "PopupInfo": "拼音: Sānshān Xuéxiào<br>Address R3: 107-A, Sophia Road<br>Country: Singapore<br>创办时间公元 Opened Date:", "HasLabel": -1, "LabelID": 0 }, "geometry": { "type": "Point", "coordinates": [ 103.845741, 1.302179900000056, 0.0 ] } },
{ "type": "Feature", "properties": { "OID": 3, "Name": "Mountbatten Govt. Ch. Pr. School", "FolderPath": "SG Chinese Schools (cleaned)", "SymbolID": 0, "AltMode": -1, "Base": 0.0, "Snippet": "", "PopupInfo": "拼音: Méng Bā Dēng Zhèngfǔ Huáwén Xiǎoxué<br>Address R3: 11 Jalan Enam, Kallang<br>Country: Singapore<br>创办时间公元 Opened Date:", "HasLabel": -1, "LabelID": 0 }, "geometry": { "type": "Point", "coordinates": [ 103.885783, 1.306954700000063, 0.0 ] } },
{ "type": "Feature", "properties": { "OID": 4, "Name": "River Vally Govt. Ch. Pr. School", "FolderPath": "SG Chinese Schools (cleaned)", "SymbolID": 0, "AltMode": -1, "Base": 0.0, "Snippet": "", "PopupInfo": "拼音: Chéng Bǎo Zhèngfǔ Huáwén Xiǎoxué<br>Address R3: 11, Jalan Kuala<br>Country: Singapore<br>创办时间公元 Opened Date:", "HasLabel": -1, "LabelID": 0 }, "geometry": { "type": "Point", "coordinates": [ 103.835376200000042, 1.295197200000075, 0.0 ] } },
{ "type": "Feature", "properties": { "OID": 5, "Name": "River Vally Govt. Ch. Pr. School", "FolderPath": "SG Chinese Schools (cleaned)", "SymbolID": 0, "AltMode": -1, "Base": 0.0, "Snippet": "", "PopupInfo": "拼音: Chéng Bǎo Zhèngfǔ Huáwén Xiǎoxué<br>Address R3: 11, Jalan Kuala<br>Country: Singapore<br>创办时间公元 Opened Date:", "HasLabel": -1, "LabelID": 0 }, "geometry": { "type": "Point", "coordinates": [ 103.835376200000042, 1.295197200000075, 0.0 ] } },
{ "type": "Feature", "properties": { "OID": 6, "Name": "Sin Sheng School", "FolderPath": "SG Chinese Schools (cleaned)", "SymbolID": 0, "AltMode": -1, "Base": 0.0, "Snippet": "", "PopupInfo": "拼音: Xīnshēng Xuéxiào<br>Address R3: 115 Jalan Eunos<br>Country: Singapore<br>创办时间公元 Opened Date: 1937", "HasLabel": -1, "LabelID": 0 }, "geometry": { "type": "Point", "coordinates": [ 103.905452900000057, 1.324119, 0.0 ] } },
{ "type": "Feature", "properties": { "OID": 7, "Name": "Seletar Chinese School", "FolderPath": "SG Chinese Schools (cleaned)", "SymbolID": 0, "AltMode": -1, "Base": 0.0, "Snippet": "", "PopupInfo": "拼音: <br>Address R3: 1151-A & B, Sembawang Road<br>Country: Singapore<br>创办时间公元 Opened Date:", "HasLabel": -1, "LabelID": 0 }, "geometry": { "type": "Point", "coordinates": [ 103.826511, 1.428272900000024, 0.0 ] } },
{ "type": "Feature", "properties": { "OID": 8, "Name": "Dji Chen School", "FolderPath": "SG Chinese Schools (cleaned)", "SymbolID": 0, "AltMode": -1, "Base": 0.0, "Snippet": "", "PopupInfo": "拼音: Zhì Chéng Xuéxiào<br>Address R3: 116 Potong Pasir<br>Country: Singapore<br>创办时间公元 Opened Date:", "HasLabel": -1, "LabelID": 0 }, "geometry": { "type": "Point", "coordinates": [ 103.86260610000005, 1.336794300000065, 0.0 ] } },
{ "type": "Feature", "properties": { "OID": 9, "Name": "Pei Tong School", "FolderPath": "SG Chinese Schools (cleaned)", "SymbolID": 0, "AltMode": -1, "Base": 0.0, "Snippet": "", "PopupInfo": "拼音: Péi Tóng Xuéxiào <br>Address R3: 117-A Ulu Pandan, off Clementi Road<br>Country: Singapore<br>创办时间公元 Opened Date:", "HasLabel": -1, "LabelID": 0 }, "geometry": { "type": "Point", "coordinates": [ 103.771032400000081, 1.319182700000056, 0.0 ] } },
{ "type": "Feature", "properties": { "OID": 10, "Name": "Beng Lun School", "FolderPath": "SG Chinese Schools (cleaned)", "SymbolID": 0, "AltMode": -1, "Base": 0.0, "Snippet": "", "PopupInfo": "拼音: Míng Lún Xuéxiào<br>Address R3: 118 Tampenis Road<br>Country: Singapore<br>创办时间公元 Opened Date: 1929", "HasLabel": -1, "LabelID": 0 }, "geometry": { "type": "Point", "coordinates": [ 103.892299500000036, 1.361329, 0.0 ] } },
{ "type": "Feature", "properties": { "OID": 11, "Name": "Hua Kong School", "FolderPath": "SG Chinese Schools (cleaned)", "SymbolID": 0, "AltMode": -1, "Base": 0.0, "Snippet": "", "PopupInfo": "拼音: Huá Guāng Xuéxiào<br>Address R3: 119-3 Alexandra Road<br>Country: Singapore<br>创办时间公元 Opened Date:", "HasLabel": -1, "LabelID": 0 }, "geometry": { "type": "Point", "coordinates": [ 103.81983850000006, 1.291211600000054, 0.0 ] } },
{ "type": "Feature", "properties": { "OID": 12, "Name": "Keu Yui School", "FolderPath": "SG Chinese Schools (cleaned)", "SymbolID": 0, "AltMode": -1, "Base": 0.0, "Snippet": "", "PopupInfo": "拼音: Qiào Ruì Xuéxiào<br>Address R3: 12 Sam Leong Road<br>Country: Singapore<br>创办时间公元 Opened Date:", "HasLabel": -1, "LabelID": 0 }, "geometry": { "type": "Point", "coordinates": [ 103.857172, 1.309059900000022, 0.0 ] } },
{ "type": "Feature", "properties": { "OID": 13, "Name": "Nan Chong School", "FolderPath": "SG Chinese Schools (cleaned)", "SymbolID": 0, "AltMode": -1, "Base": 0.0, "Snippet": "", "PopupInfo": "拼音: Nán Zhōngxuéxiào<br>Address R3: 120-D Macpherson Road<br>Country: Singapore<br>创办时间公元 Opened Date: 1930", "HasLabel": -1, "LabelID": 0 }, "geometry": { "type": "Point", "coordinates": [ 103.872439300000053, 1.329230400000029, 0.0 ] } },
{ "type": "Feature", "properties": { "OID": 14, "Name": "Chin Choon School", "FolderPath": "SG Chinese Schools (cleaned)", "SymbolID": 0, "AltMode": -1, "Base": 0.0, "Snippet": "", "PopupInfo": "拼音: Zhèn Qún Xuéxiào<br>Address R3: 12-18, Viking Road<br>Country: Singapore<br>创办时间公元 Opened Date: 1918", "HasLabel": -1, "LabelID": 0 }, "geometry": { "type": "Point", "coordinates": [ 103.818944400000078, 1.290521200000057, 0.0 ] } },
{ "type": "Feature", "properties": { "OID": 15, "Name": "Kian Hua School", "FolderPath": "SG Chinese Schools (cleaned)", "SymbolID": 0, "AltMode": -1, "Base": 0.0, "Snippet": "", "PopupInfo": "拼音: Jiànhuá Xuéxiào<br>Address R3: 122-126 Prinsep Street<br>Country: Singapore<br>创办时间公元 Opened Date: 1923", "HasLabel": -1, "LabelID": 0 }, "geometry": { "type": "Point", "coordinates": [ 103.851495700000044, 1.301951900000063, 0.0 ] } },
{ "type": "Feature", "properties": { "OID": 16, "Name": "Heng A School", "FolderPath": "SG Chinese Schools (cleaned)", "SymbolID": 0, "AltMode": -1, "Base": 0.0, "Snippet": "", "PopupInfo": "拼音: Xìng Yà Xuéxiào<br>Address R3: 127, Telok Ayer Street<br>Country: Singapore<br>创办时间公元 Opened Date: 1917", "HasLabel": -1, "LabelID": 0 }, "geometry": { "type": "Point", "coordinates": [ 103.847933700000056, 1.281057800000042, 0.0 ] } },
{ "type": "Feature", "properties": { "OID": 17, "Name": "Joo Koon School", "FolderPath": "SG Chinese Schools (cleaned)", "SymbolID": 0, "AltMode": -1, "Base": 0.0, "Snippet": "", "PopupInfo": "拼音: Yù Qún Xuéxiào<br>Address R3: 12-B Jurong Road<br>Country: Singapore<br>创办时间公元 Opened Date: 1935", "HasLabel": -1, "LabelID": 0 }, "geometry": { "type": "Point", "coordinates": [ 103.73484620000005, 1.349620300000026, 0.0 ] } },
{ "type": "Feature", "properties": { "OID": 18, "Name": "Hsin Min School", "FolderPath": "SG Chinese Schools (cleaned)", "SymbolID": 0, "AltMode": -1, "Base": 0.0, "Snippet": "", "PopupInfo": "拼音: Xīnmín Xuéxiào<br>Address R3: 130 Woodlands Road <br>Country: Singapore<br>创办时间公元 Opened Date:", "HasLabel": -1, "LabelID": 0 }, "geometry": { "type": "Point", "coordinates": [ 103.757045100000084, 1.385666100000037, 0.0 ] } },
{ "type": "Feature", "properties": { "OID": 19, "Name": "S'pore Girls' Vocational High Sch.", "FolderPath": "SG Chinese Schools (cleaned)", "SymbolID": 0, "AltMode": -1, "Base": 0.0, "Snippet": "", "PopupInfo": "拼音: <br>Address R3: 13-15, Oxley Road<br>Country: Singapore<br>创办时间公元 Opened Date:", "HasLabel": -1, "LabelID": 0 }, "geometry": { "type": "Point", "coordinates": [ 103.841244800000084, 1.298743800000068, 0.0 ] } },
{ "type": "Feature", "properties": { "OID": 20, "Name": "Sin Min School", "FolderPath": "SG Chinese Schools (cleaned)", "SymbolID": 0, "AltMode": -1, "Base": 0.0, "Snippet": "", "PopupInfo": "拼音: Xīnmín Xuéxiào<br>Address R3: 132-A Elias Road<br>Country: Singapore<br>创办时间公元 Opened Date:", "HasLabel": -1, "LabelID": 0 }, "geometry": { "type": "Point", "coordinates": [ 103.941391, 1.377310900000055, 0.0 ] } },
{ "type": "Feature", "properties": { "OID": 21, "Name": "Tao Khoon School", "FolderPath": "SG Chinese Schools (cleaned)", "SymbolID": 0, "AltMode": -1, "Base": 0.0, "Snippet": "", "PopupInfo": "拼音: Dǎo Qún Xuéxiào<br>Address R3: 133-D Kranji Road<br>Country: Singapore<br>创办时间公元 Opened Date:", "HasLabel": -1, "LabelID": 0 }, "geometry": { "type": "Point", "coordinates": [ 103.755820500000084, 1.430799700000023, 0.0 ] } },
{ "type": "Feature", "properties": { "OID": 22, "Name": "Ai Tong Schoool", "FolderPath": "SG Chinese Schools (cleaned)", "SymbolID": 0, "AltMode": -1, "Base": 0.0, "Snippet": "", "PopupInfo": "拼音: Ài Tóng Xuéxiào<br>Address R3: 137, Telok Ayer Street <br>Country: Singapore<br>创办时间公元 Opened Date: 1912", "HasLabel": -1, "LabelID": 0 }, "geometry": { "type": "Point", "coordinates": [ 103.847948900000063, 1.280876700000022, 0.0 ] } },
{ "type": "Feature", "properties": { "OID": 23, "Name": "Kuang Fook School", "FolderPath": "SG Chinese Schools (cleaned)", "SymbolID": 0, "AltMode": -1, "Base": 0.0, "Snippet": "", "PopupInfo": "拼音: Guǎng Fú Xuéxiào<br>Address R3: 14 Lavender Street<br>Country: Singapore<br>创办时间公元 Opened Date: 1961", "HasLabel": -1, "LabelID": 0 }, "geometry": { "type": "Point", "coordinates": [ 103.863922100000082, 1.309096200000056, 0.0 ] } },
{ "type": "Feature", "properties": { "OID": 24, "Name": "Tong Keng School", "FolderPath": "SG Chinese Schools (cleaned)", "SymbolID": 0, "AltMode": -1, "Base": 0.0, "Snippet": "", "PopupInfo": "拼音: Tóng Jìng Xuéxiào<br>Address R3: 14 Lorong 29, Geylang<br>Country: Singapore<br>创办时间公元 Opened Date:", "HasLabel": -1, "LabelID": 0 }, "geometry": { "type": "Point", "coordinates": [ 103.886113, 1.314794, 0.0 ] } },
{ "type": "Feature", "properties": { "OID": 25, "Name": "Sheng Hua Public School", "FolderPath": "SG Chinese Schools (cleaned)", "SymbolID": 0, "AltMode": -1, "Base": 0.0, "Snippet": "", "PopupInfo": "拼音: Xīng Huá Xuéxiào<br>Address R3: 14 Mugliston Road<br>Country: Singapore<br>创办时间公元 Opened Date: 1926", "HasLabel": -1, "LabelID": 0 }, "geometry": { "type": "Point", "coordinates": [ 103.901115, 1.304391, 0.0 ] } },
{ "type": "Feature", "properties": { "OID": 26, "Name": "Pei Tow School", "FolderPath": "SG Chinese Schools (cleaned)", "SymbolID": 0, "AltMode": -1, "Base": 0.0, "Snippet": "", "PopupInfo": "拼音: Péi Dào Xuéxiào<br>Address R3: 144 Tampenis Road<br>Country: Singapore<br>创办时间公元 Opened Date: 1929", "HasLabel": -1, "LabelID": 0 }, "geometry": { "type": "Point", "coordinates": [ 103.892291400000033, 1.361687, 0.0 ] } },
{ "type": "Feature", "properties": { "OID": 27, "Name": "Yuh Jyh School", "FolderPath": "SG Chinese Schools (cleaned)", "SymbolID": 0, "AltMode": -1, "Base": 0.0, "Snippet": "", "PopupInfo": "拼音: Yù Zhì Xuéxiào<br>Address R3: 149 Paya Lebar Road<br>Country: Singapore<br>创办时间公元 Opened Date:", "HasLabel": -1, "LabelID": 0 }, "geometry": { "type": "Point", "coordinates": [ 103.891073500000061, 1.328203700000074, 0.0 ] } },
{ "type": "Feature", "properties": { "OID": 28, "Name": "Kwang Teck School", "FolderPath": "SG Chinese Schools (cleaned)", "SymbolID": 0, "AltMode": -1, "Base": 0.0, "Snippet": "", "PopupInfo": "拼音: Guǎng Dé Xuéxiào<br>Address R3: 151-H, Seletar Road, 12 1/2 m.s.<br>Country: Singapore<br>创办时间公元 Opened Date:", "HasLabel": -1, "LabelID": 0 }, "geometry": { "type": "Point", "coordinates": [ 103.868818100000055, 1.386061, 0.0 ] } },
{ "type": "Feature", "properties": { "OID": 29, "Name": "Kay Hwa Public School", "FolderPath": "SG Chinese Schools (cleaned)", "SymbolID": 0, "AltMode": -1, "Base": 0.0, "Snippet": "", "PopupInfo": "拼音: Qǐ Huá Xuéxiào<br>Address R3: 15-3 Tampenis Road <br>Country: Singapore<br>创办时间公元 Opened Date:", "HasLabel": -1, "LabelID": 0 }, "geometry": { "type": "Point", "coordinates": [ 103.886946400000056, 1.360770100000025, 0.0 ] } },
{ "type": "Feature", "properties": { "OID": 30, "Name": "Chong Lip School", "FolderPath": "SG Chinese Schools (cleaned)", "SymbolID": 0, "AltMode": -1, "Base": 0.0, "Snippet": "", "PopupInfo": "拼音: Zhōnglì Xuéxiào<br>Address R3: 159 Thomson Road 6 1/2 m.s.<br>Country: Singapore<br>创办时间公元 Opened Date:", "HasLabel": -1, "LabelID": 0 }, "geometry": { "type": "Point", "coordinates": [ 103.843957600000067, 1.318173700000045, 0.0 ] } },
{ "type": "Feature", "properties": { "OID": 31, "Name": "Wen Hsuan School", "FolderPath": "SG Chinese Schools (cleaned)", "SymbolID": 0, "AltMode": -1, "Base": 0.0, "Snippet": "", "PopupInfo": "拼音: Wén Xuǎn Xuéxiào<br>Address R3: 160-162, Neil Road<br>Country: Singapore<br>创办时间公元 Opened Date:", "HasLabel": -1, "LabelID": 0 }, "geometry": { "type": "Point", "coordinates": [ 103.837236, 1.277345, 0.0 ] } },
{ "type": "Feature", "properties": { "OID": 32, "Name": "Chong Hock Girl's School", "FolderPath": "SG Chinese Schools (cleaned)", "SymbolID": 0, "AltMode": -1, "Base": 0.0, "Snippet": "", "PopupInfo": "拼音: Chóng Fú Nǚxiào<br>Address R3: 168, Telok Ayer Street<br>Country: Singapore<br>创办时间公元 Opened Date:", "HasLabel": -1, "LabelID": 0 }, "geometry": { "type": "Point", "coordinates": [ 103.847591400000056, 1.280785, 0.0 ] } },
{ "type": "Feature", "properties": { "OID": 33, "Name": "Chung Yee School", "FolderPath": "SG Chinese Schools (cleaned)", "SymbolID": 0, "AltMode": -1, "Base": 0.0, "Snippet": "", "PopupInfo": "拼音: Zhōng Yù Xuéxiào<br>Address R3: 168-79, Jalan Ulu Sembawang<br>Country: Singapore<br>创办时间公元 Opened Date:", "HasLabel": -1, "LabelID": 0 }, "geometry": { "type": "Point", "coordinates": [ 103.792873, 1.421642, 0.0 ] } },
{ "type": "Feature", "properties": { "OID": 34, "Name": "Si San School", "FolderPath": "SG Chinese Schools (cleaned)", "SymbolID": 0, "AltMode": -1, "Base": 0.0, "Snippet": "", "PopupInfo": "拼音: Xīshān Gōng Xué<br>Address R3: Lim Toh Road<br>Country: Singapore<br>创办时间公元 Opened Date:", "HasLabel": -1, "LabelID": 0 }, "geometry": { "type": "Point", "coordinates": [ 103.742028100000084, 1.321369600000025, 0.0 ] } },
{ "type": "Feature", "properties": { "OID": 35, "Name": "Poi Eng Public School", "FolderPath": "SG Chinese Schools (cleaned)", "SymbolID": 0, "AltMode": -1, "Base": 0.0, "Snippet": "", "PopupInfo": "拼音: Péi Yīng Xuéxiào<br>Address R3: 178-B Upper Thomson Rd.<br>Country: Singapore<br>创办时间公元 Opened Date: 1919", "HasLabel": -1, "LabelID": 0 }, "geometry": { "type": "Point", "coordinates": [ 103.835942800000055, 1.350666100000069, 0.0 ] } },
{ "type": "Feature", "properties": { "OID": 36, "Name": "Cheng Hwa School", "FolderPath": "SG Chinese Schools (cleaned)", "SymbolID": 0, "AltMode": -1, "Base": 0.0, "Snippet": "", "PopupInfo": "拼音: Zhèng Huá Xuéxiào<br>Address R3: 181  Bukit Timah Rd.<br>Country: Singapore<br>创办时间公元 Opened Date:", "HasLabel": -1, "LabelID": 0 }, "geometry": { "type": "Point", "coordinates": [ 103.842458200000067, 1.311419500000056, 0.0 ] } },
{ "type": "Feature", "properties": { "OID": 37, "Name": "Yook Kwan School", "FolderPath": "SG Chinese Schools (cleaned)", "SymbolID": 0, "AltMode": -1, "Base": 0.0, "Snippet": "", "PopupInfo": "拼音: Yù Qún Xuéxiào<br>Address R3: 182, Telok Blangah Road<br>Country: Singapore<br>创办时间公元 Opened Date: 1912", "HasLabel": -1, "LabelID": 0 }, "geometry": { "type": "Point", "coordinates": [ 103.821518100000048, 1.265536800000064, 0.0 ] } },
{ "type": "Feature", "properties": { "OID": 38, "Name": "Serangoon School", "FolderPath": "SG Chinese Schools (cleaned)", "SymbolID": 0, "AltMode": -1, "Base": 0.0, "Snippet": "", "PopupInfo": "拼音: <br>Address R3: 1848-A Brighton Avenue<br>Country: Singapore<br>创办时间公元 Opened Date:", "HasLabel": -1, "LabelID": 0 }, "geometry": { "type": "Point", "coordinates": [ 103.872612100000083, 1.360882100000026, 0.0 ] } },
{ "type": "Feature", "properties": { "OID": 39, "Name": "Leong Khay School", "FolderPath": "SG Chinese Schools (cleaned)", "SymbolID": 0, "AltMode": -1, "Base": 0.0, "Snippet": "", "PopupInfo": "拼音: Lóng Xī Xuéxiào<br>Address R3: 19 St. Michael's Road<br>Country: Singapore<br>创办时间公元 Opened Date:", "HasLabel": -1, "LabelID": 0 }, "geometry": { "type": "Point", "coordinates": [ 103.863062300000081, 1.326544500000068, 0.0 ] } },
{ "type": "Feature", "properties": { "OID": 40, "Name": "Chung Hwa Girls' High School", "FolderPath": "SG Chinese Schools (cleaned)", "SymbolID": 0, "AltMode": -1, "Base": 0.0, "Snippet": "", "PopupInfo": "拼音: <br>Address R3: 191 Bartley Road<br>Country: Singapore<br>创办时间公元 Opened Date:", "HasLabel": -1, "LabelID": 0 }, "geometry": { "type": "Point", "coordinates": [ 103.873131, 1.343846, 0.0 ] } },
{ "type": "Feature", "properties": { "OID": 41, "Name": "Chong Hua School", "FolderPath": "SG Chinese Schools (cleaned)", "SymbolID": 0, "AltMode": -1, "Base": 0.0, "Snippet": "", "PopupInfo": "拼音: Zhōnghuá Xuéxiào<br>Address R3: 2 Changi Road 6 3/4 m.s.<br>Country: Singapore<br>创办时间公元 Opened Date:", "HasLabel": -1, "LabelID": 0 }, "geometry": { "type": "Point", "coordinates": [ 103.898578900000075, 1.316368400000044, 0.0 ] } },
{ "type": "Feature", "properties": { "OID": 42, "Name": "Hong Wen School", "FolderPath": "SG Chinese Schools (cleaned)", "SymbolID": 0, "AltMode": -1, "Base": 0.0, "Snippet": "", "PopupInfo": "拼音: Hóngwén Xuéxiào<br>Address R3: 2 Dickson Road <br>Country: Singapore<br>创办时间公元 Opened Date: 1921", "HasLabel": -1, "LabelID": 0 }, "geometry": { "type": "Point", "coordinates": [ 103.854841400000055, 1.304796, 0.0 ] } },
{ "type": "Feature", "properties": { "OID": 43, "Name": "Nan Hwa Girls' High School", "FolderPath": "SG Chinese Schools (cleaned)", "SymbolID": 0, "AltMode": -1, "Base": 0.0, "Snippet": "", "PopupInfo": "拼音: Nánhuá Nǚzǐ Zhōngxué<br>Address R3: 2, Adis Road<br>Country: Singapore<br>创办时间公元 Opened Date:", "HasLabel": -1, "LabelID": 0 }, "geometry": { "type": "Point", "coordinates": [ 103.847379, 1.301933500000075, 0.0 ] } },
{ "type": "Feature", "properties": { "OID": 44, "Name": "Yoke See School", "FolderPath": "SG Chinese Schools (cleaned)", "SymbolID": 0, "AltMode": -1, "Base": 0.0, "Snippet": "", "PopupInfo": "拼音: Yù Sì Xuéxiào<br>Address R3: 20 Newton Road<br>Country: Singapore<br>创办时间公元 Opened Date: 1930", "HasLabel": -1, "LabelID": 0 }, "geometry": { "type": "Point", "coordinates": [ 103.841507100000058, 1.314829800000041, 0.0 ] } },
{ "type": "Feature", "properties": { "OID": 45, "Name": "Maris Stella High School", "FolderPath": "SG Chinese Schools (cleaned)", "SymbolID": 0, "AltMode": -1, "Base": 0.0, "Snippet": "", "PopupInfo": "拼音: Hǎixīng Zhōngxué<br>Address R3: 20 Siglap View, Siglap<br>Country: Singapore<br>创办时间公元 Opened Date:", "HasLabel": -1, "LabelID": 0 }, "geometry": { "type": "Point", "coordinates": [ 103.919245, 1.315575, 0.0 ] } },
{ "type": "Feature", "properties": { "OID": 46, "Name": "Yit Chih School", "FolderPath": "SG Chinese Schools (cleaned)", "SymbolID": 0, "AltMode": -1, "Base": 0.0, "Snippet": "", "PopupInfo": "拼音: Yīzhì Xuéxiào<br>Address R3: 20 Veerasamy Road<br>Country: Singapore<br>创办时间公元 Opened Date: 1937", "HasLabel": -1, "LabelID": 0 }, "geometry": { "type": "Point", "coordinates": [ 103.853558, 1.307549, 0.0 ] } },
{ "type": "Feature", "properties": { "OID": 47, "Name": "Eick Kuan School", "FolderPath": "SG Chinese Schools (cleaned)", "SymbolID": 0, "AltMode": -1, "Base": 0.0, "Snippet": "", "PopupInfo": "拼音: Yì Qún Xuéxiào <br>Address R3: 200 Jalan Kampong Chantek<br>Country: Singapore<br>创办时间公元 Opened Date:", "HasLabel": -1, "LabelID": 0 }, "geometry": { "type": "Point", "coordinates": [ 103.788860300000067, 1.344718, 0.0 ] } },
{ "type": "Feature", "properties": { "OID": 48, "Name": "Cheng Hoon School", "FolderPath": "SG Chinese Schools (cleaned)", "SymbolID": 0, "AltMode": -1, "Base": 0.0, "Snippet": "", "PopupInfo": "拼音: Qīngyún Xuéxiào<br>Address R3: 203-B Mandai Rd. 13 m.s.<br>Country: Singapore<br>创办时间公元 Opened Date: 1937", "HasLabel": -1, "LabelID": 0 }, "geometry": { "type": "Point", "coordinates": [ 103.78524230000005, 1.411717400000043, 0.0 ] } },
{ "type": "Feature", "properties": { "OID": 49, "Name": "Ban Lay School", "FolderPath": "SG Chinese Schools (cleaned)", "SymbolID": 0, "AltMode": -1, "Base": 0.0, "Snippet": "", "PopupInfo": "拼音: Wàn Lǐ Xuéxiào<br>Address R3: 219-B Mandai Rd.<br>Country: Singapore<br>创办时间公元 Opened Date:", "HasLabel": -1, "LabelID": 0 }, "geometry": { "type": "Point", "coordinates": [ 103.78524230000005, 1.411717400000043, 0.0 ] } },
{ "type": "Feature", "properties": { "OID": 50, "Name": "Catholic High School", "FolderPath": "SG Chinese Schools (cleaned)", "SymbolID": 0, "AltMode": -1, "Base": 0.0, "Snippet": "", "PopupInfo": "拼音: Gōngjiào Zhōngxué Jì Fùxiǎo<br>Address R3: 222 Queen Street <br>Country: Singapore<br>创办时间公元 Opened Date: 1937", "HasLabel": -1, "LabelID": 0 }, "geometry": { "type": "Point", "coordinates": [ 103.851843200000076, 1.297730700000045, 0.0 ] } },
{ "type": "Feature", "properties": { "OID": 51, "Name": "Sin Ah School", "FolderPath": "SG Chinese Schools (cleaned)", "SymbolID": 0, "AltMode": -1, "Base": 0.0, "Snippet": "", "PopupInfo": "拼音: Xīn Yà Xuéxiào<br>Address R3: 228-1, West Coast Road <br>Country: Singapore<br>创办时间公元 Opened Date:", "HasLabel": -1, "LabelID": 0 }, "geometry": { "type": "Point", "coordinates": [ 103.768088600000056, 1.295375900000067, 0.0 ] } },
{ "type": "Feature", "properties": { "OID": 52, "Name": "Pei Chun School", "FolderPath": "SG Chinese Schools (cleaned)", "SymbolID": 0, "AltMode": -1, "Base": 0.0, "Snippet": "", "PopupInfo": "拼音: Péi Qún Xuéxiào <br>Address R3: 23 Balmoral Road<br>Country: Singapore<br>创办时间公元 Opened Date:", "HasLabel": -1, "LabelID": 0 }, "geometry": { "type": "Point", "coordinates": [ 103.833125900000084, 1.316502, 0.0 ] } },
{ "type": "Feature", "properties": { "OID": 53, "Name": "Sing Hua School", "FolderPath": "SG Chinese Schools (cleaned)", "SymbolID": 0, "AltMode": -1, "Base": 0.0, "Snippet": "", "PopupInfo": "拼音: Xǐng Huá Xuéxiào<br>Address R3: 23 Lim Tua Tow Road <br>Country: Singapore<br>创办时间公元 Opened Date: 1935", "HasLabel": -1, "LabelID": 0 }, "geometry": { "type": "Point", "coordinates": [ 103.875282900000059, 1.355149700000027, 0.0 ] } },
{ "type": "Feature", "properties": { "OID": 54, "Name": "Lik Teck School", "FolderPath": "SG Chinese Schools (cleaned)", "SymbolID": 0, "AltMode": -1, "Base": 0.0, "Snippet": "", "PopupInfo": "拼音: Lì Dé Xuéxiào<br>Address R3: 230-E Lorong 29, Geylang<br>Country: Singapore<br>创办时间公元 Opened Date:", "HasLabel": -1, "LabelID": 0 }, "geometry": { "type": "Point", "coordinates": [ 103.886031800000069, 1.315482, 0.0 ] } },
{ "type": "Feature", "properties": { "OID": 55, "Name": "Ju Eng School", "FolderPath": "SG Chinese Schools (cleaned)", "SymbolID": 0, "AltMode": -1, "Base": 0.0, "Snippet": "", "PopupInfo": "拼音: Jùyīng Xuéxiào<br>Address R3: 231-A Jalan Kayu<br>Country: Singapore<br>创办时间公元 Opened Date: 1932", "HasLabel": -1, "LabelID": 0 }, "geometry": { "type": "Point", "coordinates": [ 103.87300010000007, 1.396138800000074, 0.0 ] } },
{ "type": "Feature", "properties": { "OID": 56, "Name": "Kallang Govt. Chinese Pr. School", "FolderPath": "SG Chinese Schools (cleaned)", "SymbolID": 0, "AltMode": -1, "Base": 0.0, "Snippet": "", "PopupInfo": "拼音: <br>Address R3: 233 Mountbatten Road<br>Country: Singapore<br>创办时间公元 Opened Date:", "HasLabel": -1, "LabelID": 0 }, "geometry": { "type": "Point", "coordinates": [ 103.880915, 1.308097, 0.0 ] } },
{ "type": "Feature", "properties": { "OID": 57, "Name": "Min Chu School", "FolderPath": "SG Chinese Schools (cleaned)", "SymbolID": 0, "AltMode": -1, "Base": 0.0, "Snippet": "", "PopupInfo": "拼音: Mínzhǔ Xuéxiào <br>Address R3: 24 Farrer Road <br>Country: Singapore<br>创办时间公元 Opened Date:", "HasLabel": -1, "LabelID": 0 }, "geometry": { "type": "Point", "coordinates": [ 103.805025, 1.312833, 0.0 ] } },
{ "type": "Feature", "properties": { "OID": 58, "Name": "Loke Yang School", "FolderPath": "SG Chinese Schools (cleaned)", "SymbolID": 0, "AltMode": -1, "Base": 0.0, "Snippet": "", "PopupInfo": "拼音: Luòyáng Xuéxiào<br>Address R3: 24-1 Jurong Road<br>Country: Singapore<br>创办时间公元 Opened Date:", "HasLabel": -1, "LabelID": 0 }, "geometry": { "type": "Point", "coordinates": [ 103.723311400000057, 1.350922800000035, 0.0 ] } },
{ "type": "Feature", "properties": { "OID": 59, "Name": "Soo Teck School", "FolderPath": "SG Chinese Schools (cleaned)", "SymbolID": 0, "AltMode": -1, "Base": 0.0, "Snippet": "", "PopupInfo": "拼音: Shù Dé Xuéxiào<br>Address R3: 253-7 Ponggol Road<br>Country: Singapore<br>创办时间公元 Opened Date: 1935", "HasLabel": -1, "LabelID": 0 }, "geometry": { "type": "Point", "coordinates": [ 103.900703300000032, 1.385007900000062, 0.0 ] } },
{ "type": "Feature", "properties": { "OID": 60, "Name": "Whye Nam School", "FolderPath": "SG Chinese Schools (cleaned)", "SymbolID": 0, "AltMode": -1, "Base": 0.0, "Snippet": "", "PopupInfo": "拼音: Huái Nán Xuéxiào<br>Address R3: 260-C, Day Road, off West Coast Rd<br>Country: Singapore<br>创办时间公元 Opened Date: 1937", "HasLabel": -1, "LabelID": 0 }, "geometry": { "type": "Point", "coordinates": [ 103.758035, 1.311518200000023, 0.0 ] } },
{ "type": "Feature", "properties": { "OID": 61, "Name": "Seak Tiat School", "FolderPath": "SG Chinese Schools (cleaned)", "SymbolID": 0, "AltMode": -1, "Base": 0.0, "Snippet": "", "PopupInfo": "拼音: Zhí Zhé Xuéxiào<br>Address R3: 261, River Valley Road<br>Country: Singapore<br>创办时间公元 Opened Date: 1927", "HasLabel": -1, "LabelID": 0 }, "geometry": { "type": "Point", "coordinates": [ 103.840789, 1.294255, 0.0 ] } },
{ "type": "Feature", "properties": { "OID": 62, "Name": "Chin Chung School", "FolderPath": "SG Chinese Schools (cleaned)", "SymbolID": 0, "AltMode": -1, "Base": 0.0, "Snippet": "", "PopupInfo": "拼音: Zhèn Zhōngxuéxiào <br>Address R3: 261-2 Kheam Hock School<br>Country: Singapore<br>创办时间公元 Opened Date: 1928", "HasLabel": -1, "LabelID": 0 }, "geometry": { "type": "Point", "coordinates": [ 103.820037600000035, 1.329740600000036, 0.0 ] } },
{ "type": "Feature", "properties": { "OID": 63, "Name": "Li Sinn Continuation", "FolderPath": "SG Chinese Schools (cleaned)", "SymbolID": 0, "AltMode": -1, "Base": 0.0, "Snippet": "", "PopupInfo": "拼音: <br>Address R3: 265-B, New Bridge Road, (2)<br>Country: Singapore<br>创办时间公元 Opened Date:", "HasLabel": -1, "LabelID": 0 }, "geometry": { "type": "Point", "coordinates": [ 103.842388, 1.282597900000042, 0.0 ] } },
{ "type": "Feature", "properties": { "OID": 64, "Name": "Tai Cheong School", "FolderPath": "SG Chinese Schools (cleaned)", "SymbolID": 0, "AltMode": -1, "Base": 0.0, "Snippet": "", "PopupInfo": "拼音: Dàzhòng Xuéxiào<br>Address R3: 27 Chua Chu Kang Road<br>Country: Singapore<br>创办时间公元 Opened Date:", "HasLabel": -1, "LabelID": 0 }, "geometry": { "type": "Point", "coordinates": [ 103.757708, 1.378279100000043, 0.0 ] } },
{ "type": "Feature", "properties": { "OID": 65, "Name": "Chin Kang School", "FolderPath": "SG Chinese Schools (cleaned)", "SymbolID": 0, "AltMode": -1, "Base": 0.0, "Snippet": "", "PopupInfo": "拼音: Jìn Jiāng Xuéxiào<br>Address R3: 27, Bukit Pasoh Road<br>Country: Singapore<br>创办时间公元 Opened Date:", "HasLabel": -1, "LabelID": 0 }, "geometry": { "type": "Point", "coordinates": [ 103.840465, 1.279179, 0.0 ] } },
{ "type": "Feature", "properties": { "OID": 66, "Name": "Chong Cheng School", "FolderPath": "SG Chinese Schools (cleaned)", "SymbolID": 0, "AltMode": -1, "Base": 0.0, "Snippet": "", "PopupInfo": "拼音: Chóngzhèng Xuéxiào<br>Address R3: 28 Aliwal Street<br>Country: Singapore<br>创办时间公元 Opened Date: 1905", "HasLabel": -1, "LabelID": 0 }, "geometry": { "type": "Point", "coordinates": [ 103.861058, 1.302407, 0.0 ] } },
{ "type": "Feature", "properties": { "OID": 67, "Name": "Tai Keou School", "FolderPath": "SG Chinese Schools (cleaned)", "SymbolID": 0, "AltMode": -1, "Base": 0.0, "Snippet": "", "PopupInfo": "拼音: Dà Qiáo Xuéxiào<br>Address R3: 288-Q Lorong Tai Seng<br>Country: Singapore<br>创办时间公元 Opened Date: 1936", "HasLabel": -1, "LabelID": 0 }, "geometry": { "type": "Point", "coordinates": [ 103.889404100000036, 1.338283400000023, 0.0 ] } },
{ "type": "Feature", "properties": { "OID": 68, "Name": "Wah Shia School", "FolderPath": "SG Chinese Schools (cleaned)", "SymbolID": 0, "AltMode": -1, "Base": 0.0, "Snippet": "", "PopupInfo": "拼音: Huáxià Xuéxiào<br>Address R3: 28-E, Lorong 101, Changi Road<br>Country: Singapore<br>创办时间公元 Opened Date:", "HasLabel": -1, "LabelID": 0 }, "geometry": { "type": "Point", "coordinates": [ 103.899834100000078, 1.315369600000054, 0.0 ] } },
{ "type": "Feature", "properties": { "OID": 69, "Name": "Ngee Ann Girl's School", "FolderPath": "SG Chinese Schools (cleaned)", "SymbolID": 0, "AltMode": -1, "Base": 0.0, "Snippet": "", "PopupInfo": "拼音: Yì Ān Nǚxiào<br>Address R3: 299 River Valley Road<br>Country: Singapore<br>创办时间公元 Opened Date:", "HasLabel": -1, "LabelID": 0 }, "geometry": { "type": "Point", "coordinates": [ 103.839279800000043, 1.29569390000006, 0.0 ] } },
{ "type": "Feature", "properties": { "OID": 70, "Name": "Tuan Ding School", "FolderPath": "SG Chinese Schools (cleaned)", "SymbolID": 0, "AltMode": -1, "Base": 0.0, "Snippet": "", "PopupInfo": "拼音: Duān Rén Xuéxiào<br>Address R3: 29-C Woodlands Road<br>Country: Singapore<br>创办时间公元 Opened Date: 1945", "HasLabel": -1, "LabelID": 0 }, "geometry": { "type": "Point", "coordinates": [ 103.760535900000036, 1.381420400000025, 0.0 ] } },
{ "type": "Feature", "properties": { "OID": 71, "Name": "Nam Ann School", "FolderPath": "SG Chinese Schools (cleaned)", "SymbolID": 0, "AltMode": -1, "Base": 0.0, "Snippet": "", "PopupInfo": "拼音: Nán'Ān Xuéxiào<br>Address R3: 3 Ah Hood Road<br>Country: Singapore<br>创办时间公元 Opened Date:", "HasLabel": -1, "LabelID": 0 }, "geometry": { "type": "Point", "coordinates": [ 103.844989700000042, 1.327580500000067, 0.0 ] } },
{ "type": "Feature", "properties": { "OID": 72, "Name": "Nan Chiau Girls' High School", "FolderPath": "SG Chinese Schools (cleaned)", "SymbolID": 0, "AltMode": -1, "Base": 0.0, "Snippet": "", "PopupInfo": "拼音: <br>Address R3: 30  KimYamRoad<br>Country: Singapore<br>创办时间公元 Opened Date:", "HasLabel": -1, "LabelID": 0 }, "geometry": { "type": "Point", "coordinates": [ 103.838650900000061, 1.294537300000059, 0.0 ] } },
{ "type": "Feature", "properties": { "OID": 73, "Name": "Khee Fatt School", "FolderPath": "SG Chinese Schools (cleaned)", "SymbolID": 0, "AltMode": -1, "Base": 0.0, "Snippet": "", "PopupInfo": "拼音: Qǐfā Xuéxiào<br>Address R3: 30, Cairnhill Road<br>Country: Singapore<br>创办时间公元 Opened Date: 1906", "HasLabel": -1, "LabelID": 0 }, "geometry": { "type": "Point", "coordinates": [ 103.837480300000038, 1.304085500000042, 0.0 ] } },
{ "type": "Feature", "properties": { "OID": 74, "Name": "Peck Hong School", "FolderPath": "SG Chinese Schools (cleaned)", "SymbolID": 0, "AltMode": -1, "Base": 0.0, "Snippet": "", "PopupInfo": "拼音: Bì Fēng Xuéxiào<br>Address R3: 300-2, Sembawang Hills Drive, Thomson Road<br>Country: Singapore<br>创办时间公元 Opened Date:", "HasLabel": -1, "LabelID": 0 }, "geometry": { "type": "Point", "coordinates": [ 103.828972300000032, 1.372407600000031, 0.0 ] } },
{ "type": "Feature", "properties": { "OID": 75, "Name": "Sin Nan Public School", "FolderPath": "SG Chinese Schools (cleaned)", "SymbolID": 0, "AltMode": -1, "Base": 0.0, "Snippet": "", "PopupInfo": "拼音: Xǐng Nán Xuéxiào<br>Address R3: 30-33 Jurong Road, 12 m.s.<br>Country: Singapore<br>创办时间公元 Opened Date:", "HasLabel": -1, "LabelID": 0 }, "geometry": { "type": "Point", "coordinates": [ 103.741830700000037, 1.32032090000007, 0.0 ] } },
{ "type": "Feature", "properties": { "OID": 76, "Name": "Chong Pun Girls' School", "FolderPath": "SG Chinese Schools (cleaned)", "SymbolID": 0, "AltMode": -1, "Base": 0.0, "Snippet": "", "PopupInfo": "拼音: Chóng Běn Nǚxiào<br>Address R3: 32 Aliwal Street<br>Country: Singapore<br>创办时间公元 Opened Date:", "HasLabel": -1, "LabelID": 0 }, "geometry": { "type": "Point", "coordinates": [ 103.860999, 1.302495, 0.0 ] } },
{ "type": "Feature", "properties": { "OID": 77, "Name": "Chinese Kindergarten 星洲幼稚園學校", "FolderPath": "SG Chinese Schools (cleaned)", "SymbolID": 0, "AltMode": -1, "Base": 0.0, "Snippet": "", "PopupInfo": "拼音: Xīng Zhōu Yòuzhìyuán Jì Fùxiǎo<br>Address R3: 32, Tras Street<br>Country: Singapore<br>创办时间公元 Opened Date: 1921", "HasLabel": -1, "LabelID": 0 }, "geometry": { "type": "Point", "coordinates": [ 103.844453, 1.278666, 0.0 ] } },
{ "type": "Feature", "properties": { "OID": 78, "Name": "Kong Chow School", "FolderPath": "SG Chinese Schools (cleaned)", "SymbolID": 0, "AltMode": -1, "Base": 0.0, "Snippet": "", "PopupInfo": "拼音: Gāng Zhōu Xuéxiào<br>Address R3: 321, New Bridge Road<br>Country: Singapore<br>创办时间公元 Opened Date: 1930", "HasLabel": -1, "LabelID": 0 }, "geometry": { "type": "Point", "coordinates": [ 103.841041, 1.280954, 0.0 ] } },
{ "type": "Feature", "properties": { "OID": 79, "Name": "Lam Thong School", "FolderPath": "SG Chinese Schools (cleaned)", "SymbolID": 0, "AltMode": -1, "Base": 0.0, "Snippet": "", "PopupInfo": "拼音: Nán Tóng Xuéxiào <br>Address R3: 33 Holland Road 7 m.s.<br>Country: Singapore<br>创办时间公元 Opened Date: 1931", "HasLabel": -1, "LabelID": 0 }, "geometry": { "type": "Point", "coordinates": [ 103.802193, 1.311334, 0.0 ] } },
{ "type": "Feature", "properties": { "OID": 80, "Name": "Tuan Mong School (Branch)", "FolderPath": "SG Chinese Schools (cleaned)", "SymbolID": 0, "AltMode": -1, "Base": 0.0, "Snippet": "", "PopupInfo": "拼音: Huà Nán Xuéxiào<br>Address R3: 33 Minto Road<br>Country: Singapore<br>创办时间公元 Opened Date: 1924", "HasLabel": -1, "LabelID": 0 }, "geometry": { "type": "Point", "coordinates": [ 103.861777600000039, 1.302584900000056, 0.0 ] } },
{ "type": "Feature", "properties": { "OID": 81, "Name": "Puay Kee School", "FolderPath": "SG Chinese Schools (cleaned)", "SymbolID": 0, "AltMode": -1, "Base": 0.0, "Snippet": "", "PopupInfo": "拼音: Péi Jī Xuéxiào<br>Address R3: 33 Paya Lebar Crescent<br>Country: Singapore<br>创办时间公元 Opened Date: 1931", "HasLabel": -1, "LabelID": 0 }, "geometry": { "type": "Point", "coordinates": [ 103.882486, 1.35017, 0.0 ] } },
{ "type": "Feature", "properties": { "OID": 82, "Name": "Chuen Min School", "FolderPath": "SG Chinese Schools (cleaned)", "SymbolID": 0, "AltMode": -1, "Base": 0.0, "Snippet": "", "PopupInfo": "拼音: Quán Mín Xuéxiào<br>Address R3: 333, Tiong Bahru Road<br>Country: Singapore<br>创办时间公元 Opened Date: 1930", "HasLabel": -1, "LabelID": 0 }, "geometry": { "type": "Point", "coordinates": [ 103.827316600000074, 1.285978200000045, 0.0 ] } },
{ "type": "Feature", "properties": { "OID": 83, "Name": "Tiong Kok Public School", "FolderPath": "SG Chinese Schools (cleaned)", "SymbolID": 0, "AltMode": -1, "Base": 0.0, "Snippet": "", "PopupInfo": "拼音: Zhōngguó Xuéxiào<br>Address R3: 333-E Tampenis Road 6 m.s.<br>Country: Singapore<br>创办时间公元 Opened Date:", "HasLabel": -1, "LabelID": 0 }, "geometry": { "type": "Point", "coordinates": [ 103.922342, 1.371011, 0.0 ] } },
{ "type": "Feature", "properties": { "OID": 84, "Name": "Chao Yang School", "FolderPath": "SG Chinese Schools (cleaned)", "SymbolID": 0, "AltMode": -1, "Base": 0.0, "Snippet": "", "PopupInfo": "拼音: <br>Address R3: 341, Clemenceau Avenue<br>Country: Singapore<br>创办时间公元 Opened Date:", "HasLabel": -1, "LabelID": 0 }, "geometry": { "type": "Point", "coordinates": [ 103.843787500000076, 1.298099400000069, 0.0 ] } },
{ "type": "Feature", "properties": { "OID": 85, "Name": "Chiao Nan School", "FolderPath": "SG Chinese Schools (cleaned)", "SymbolID": 0, "AltMode": -1, "Base": 0.0, "Snippet": "", "PopupInfo": "拼音: <br>Address R3: 35 Sam Leong Road<br>Country: Singapore<br>创办时间公元 Opened Date:", "HasLabel": -1, "LabelID": 0 }, "geometry": { "type": "Point", "coordinates": [ 103.85658630000006, 1.309582900000066, 0.0 ] } },
{ "type": "Feature", "properties": { "OID": 86, "Name": "Kong Hwa School", "FolderPath": "SG Chinese Schools (cleaned)", "SymbolID": 0, "AltMode": -1, "Base": 0.0, "Snippet": "", "PopupInfo": "拼音: Guānghuá Xuéxiào<br>Address R3: 350 Guillemard Road<br>Country: Singapore<br>创办时间公元 Opened Date: 1928", "HasLabel": -1, "LabelID": 0 }, "geometry": { "type": "Point", "coordinates": [ 103.888173600000073, 1.311117500000023, 0.0 ] } },
{ "type": "Feature", "properties": { "OID": 87, "Name": "The Ch. Industrial & Commercial Continuation School", "FolderPath": "SG Chinese Schools (cleaned)", "SymbolID": 0, "AltMode": -1, "Base": 0.0, "Snippet": "", "PopupInfo": "拼音: Nányáng Gōngshāng Bǔxí Xuéxiào<br>Address R3: 350, Outram Road<br>Country: Singapore<br>创办时间公元 Opened Date: 1920", "HasLabel": -1, "LabelID": 0 }, "geometry": { "type": "Point", "coordinates": [ 103.835106900000085, 1.286973, 0.0 ] } },
{ "type": "Feature", "properties": { "OID": 88, "Name": "Tao Chiao School", "FolderPath": "SG Chinese Schools (cleaned)", "SymbolID": 0, "AltMode": -1, "Base": 0.0, "Snippet": "", "PopupInfo": "拼音: Dǎo Qiáo Xuéxiào<br>Address R3: 353 Kim Chuan Road<br>Country: Singapore<br>创办时间公元 Opened Date: 1937", "HasLabel": -1, "LabelID": 0 }, "geometry": { "type": "Point", "coordinates": [ 103.888927, 1.341113300000075, 0.0 ] } },
{ "type": "Feature", "properties": { "OID": 89, "Name": "Tai Wah Public School", "FolderPath": "SG Chinese Schools (cleaned)", "SymbolID": 0, "AltMode": -1, "Base": 0.0, "Snippet": "", "PopupInfo": "拼音: Dà Huá Xuéxiào<br>Address R3: 373-E, Alexandra Road<br>Country: Singapore<br>创办时间公元 Opened Date:", "HasLabel": -1, "LabelID": 0 }, "geometry": { "type": "Point", "coordinates": [ 103.802120400000035, 1.28494610000007, 0.0 ] } },
{ "type": "Feature", "properties": { "OID": 90, "Name": "Mee Toh School", "FolderPath": "SG Chinese Schools (cleaned)", "SymbolID": 0, "AltMode": -1, "Base": 0.0, "Snippet": "", "PopupInfo": "拼音: Mítuó Xuéxiào<br>Address R3: 375 Race Course Road<br>Country: Singapore<br>创办时间公元 Opened Date:", "HasLabel": -1, "LabelID": 0 }, "geometry": { "type": "Point", "coordinates": [ 103.857001, 1.31509, 0.0 ] } },
{ "type": "Feature", "properties": { "OID": 91, "Name": "Chong Sing School", "FolderPath": "SG Chinese Schools (cleaned)", "SymbolID": 0, "AltMode": -1, "Base": 0.0, "Snippet": "", "PopupInfo": "拼音: Zhōng Xīng Xuéxiào<br>Address R3: 375-25 Changi Road 14m.s.<br>Country: Singapore<br>创办时间公元 Opened Date: 1935", "HasLabel": -1, "LabelID": 0 }, "geometry": { "type": "Point", "coordinates": [ 103.910332400000073, 1.318636800000036, 0.0 ] } },
{ "type": "Feature", "properties": { "OID": 92, "Name": "Yue Nerng School", "FolderPath": "SG Chinese Schools (cleaned)", "SymbolID": 0, "AltMode": -1, "Base": 0.0, "Snippet": "", "PopupInfo": "拼音: Yù Néng Xuéxiào<br>Address R3: 381-G Changi Road 8 3/4 m.s.<br>Country: Singapore<br>创办时间公元 Opened Date: 1932", "HasLabel": -1, "LabelID": 0 }, "geometry": { "type": "Point", "coordinates": [ 103.898578900000075, 1.316368400000044, 0.0 ] } },
{ "type": "Feature", "properties": { "OID": 93, "Name": "Pei Hwa Public School", "FolderPath": "SG Chinese Schools (cleaned)", "SymbolID": 0, "AltMode": -1, "Base": 0.0, "Snippet": "", "PopupInfo": "拼音: Péi Huá Xuéxiào<br>Address R3: 383 Yio Chu Kang Road 10 m.s.<br>Country: Singapore<br>创办时间公元 Opened Date:", "HasLabel": -1, "LabelID": 0 }, "geometry": { "type": "Point", "coordinates": [ 103.877618900000073, 1.354532600000027, 0.0 ] } },
{ "type": "Feature", "properties": { "OID": 94, "Name": "Tao Nan School", "FolderPath": "SG Chinese Schools (cleaned)", "SymbolID": 0, "AltMode": -1, "Base": 0.0, "Snippet": "", "PopupInfo": "拼音: Dào Nán Xuéxiào<br>Address R3: 39 Armenian Street<br>Country: Singapore<br>创办时间公元 Opened Date: 1907", "HasLabel": -1, "LabelID": 0 }, "geometry": { "type": "Point", "coordinates": [ 103.849081500000068, 1.294270500000039, 0.0 ] } },
{ "type": "Feature", "properties": { "OID": 95, "Name": "Changi Public School", "FolderPath": "SG Chinese Schools (cleaned)", "SymbolID": 0, "AltMode": -1, "Base": 0.0, "Snippet": "", "PopupInfo": "拼音: Zhāng Yí Xuéxiào<br>Address R3: 393-A Changi Road， 9 m.s.<br>Country: Singapore<br>创办时间公元 Opened Date:", "HasLabel": -1, "LabelID": 0 }, "geometry": { "type": "Point", "coordinates": [ 103.910526300000072, 1.318745800000045, 0.0 ] } },
{ "type": "Feature", "properties": { "OID": 96, "Name": "Cheong Nam School", "FolderPath": "SG Chinese Schools (cleaned)", "SymbolID": 0, "AltMode": -1, "Base": 0.0, "Snippet": "", "PopupInfo": "拼音: Zhōng Nán Xuéxiào<br>Address R3: 397-A Jalan Tua Kong<br>Country: Singapore<br>创办时间公元 Opened Date: 1931", "HasLabel": -1, "LabelID": 0 }, "geometry": { "type": "Point", "coordinates": [ 103.925780600000053, 1.315610800000059, 0.0 ] } },
{ "type": "Feature", "properties": { "OID": 97, "Name": "Chwei Chiun Public School", "FolderPath": "SG Chinese Schools (cleaned)", "SymbolID": 0, "AltMode": -1, "Base": 0.0, "Snippet": "", "PopupInfo": "拼音: Cuì Qún Xuéxiào<br>Address R3: 398-B Kampong Bahru Road<br>Country: Singapore<br>创办时间公元 Opened Date:", "HasLabel": -1, "LabelID": 0 }, "geometry": { "type": "Point", "coordinates": [ 103.828516300000047, 1.272884100000056, 0.0 ] } },
{ "type": "Feature", "properties": { "OID": 98, "Name": "Tau Eng Chinese School", "FolderPath": "SG Chinese Schools (cleaned)", "SymbolID": 0, "AltMode": -1, "Base": 0.0, "Snippet": "", "PopupInfo": "拼音: Táo Yīng Xuéxiào<br>Address R3: 4, Read  Street <br>Country: Singapore<br>创办时间公元 Opened Date: 1940", "HasLabel": -1, "LabelID": 0 }, "geometry": { "type": "Point", "coordinates": [ 103.844878300000062, 1.288633600000026, 0.0 ] } },
{ "type": "Feature", "properties": { "OID": 99, "Name": "Sheng Hwa School", "FolderPath": "SG Chinese Schools (cleaned)", "SymbolID": 0, "AltMode": -1, "Base": 0.0, "Snippet": "", "PopupInfo": "拼音: Xǐng Huá Xuéxiào<br>Address R3: 40-42 Seah Street<br>Country: Singapore<br>创办时间公元 Opened Date: 1930", "HasLabel": -1, "LabelID": 0 }, "geometry": { "type": "Point", "coordinates": [ 103.85493880000007, 1.295826300000044, 0.0 ] } },
{ "type": "Feature", "properties": { "OID": 100, "Name": "Chung Cheng High School", "FolderPath": "SG Chinese Schools (cleaned)", "SymbolID": 0, "AltMode": -1, "Base": 0.0, "Snippet": "", "PopupInfo": "拼音: Zhōngzhèng Zhòng Xué Zǒng Xiào<br>Address R3: 40-56 Goodman Road<br>Country: Singapore<br>创办时间公元 Opened Date:", "HasLabel": -1, "LabelID": 0 }, "geometry": { "type": "Point", "coordinates": [ 103.891640700000039, 1.304508300000066, 0.0 ] } },
{ "type": "Feature", "properties": { "OID": 101, "Name": "Nong min School", "FolderPath": "SG Chinese Schools (cleaned)", "SymbolID": 0, "AltMode": -1, "Base": 0.0, "Snippet": "", "PopupInfo": "拼音: Nóngmín Gōng Xué<br>Address R3: 406-C Jalan Tiga Ratus, off Changi Road<br>Country: Singapore<br>创办时间公元 Opened Date: 1945", "HasLabel": -1, "LabelID": 0 }, "geometry": { "type": "Point", "coordinates": [ 103.961153600000046, 1.340942600000062, 0.0 ] } },
{ "type": "Feature", "properties": { "OID": 102, "Name": "Lee Hua School", "FolderPath": "SG Chinese Schools (cleaned)", "SymbolID": 0, "AltMode": -1, "Base": 0.0, "Snippet": "", "PopupInfo": "拼音: Lì Huá Xuéxiào<br>Address R3: 406-N Yio Chu Kang Road 7 m.s.<br>Country: Singapore<br>创办时间公元 Opened Date: 1936", "HasLabel": -1, "LabelID": 0 }, "geometry": { "type": "Point", "coordinates": [ 103.867598900000075, 1.388663300000076, 0.0 ] } },
{ "type": "Feature", "properties": { "OID": 103, "Name": "Naval Base Section School", "FolderPath": "SG Chinese Schools (cleaned)", "SymbolID": 0, "AltMode": -1, "Base": 0.0, "Snippet": "", "PopupInfo": "拼音: Mínzhòng Xuéxiào<br>Address R3: 407 Sembawang Rd. 14 1/2 m.s.<br>Country: Singapore<br>创办时间公元 Opened Date:", "HasLabel": -1, "LabelID": 0 }, "geometry": { "type": "Point", "coordinates": [ 103.817030300000056, 1.45332170000006, 0.0 ] } },
{ "type": "Feature", "properties": { "OID": 104, "Name": "Choon Guan School", "FolderPath": "SG Chinese Schools (cleaned)", "SymbolID": 0, "AltMode": -1, "Base": 0.0, "Snippet": "", "PopupInfo": "拼音: Jùn Yuán Xuéxiào<br>Address R3: 42 Koon Seng Road<br>Country: Singapore<br>创办时间公元 Opened Date: 1924", "HasLabel": -1, "LabelID": 0 }, "geometry": { "type": "Point", "coordinates": [ 103.903338100000042, 1.310715200000061, 0.0 ] } },
{ "type": "Feature", "properties": { "OID": 105, "Name": "Nan Shun School", "FolderPath": "SG Chinese Schools (cleaned)", "SymbolID": 0, "AltMode": -1, "Base": 0.0, "Snippet": "", "PopupInfo": "拼音: Nán Shùn Xuéxiào<br>Address R3: 42, North Canal Road<br>Country: Singapore<br>创办时间公元 Opened Date: 1931", "HasLabel": -1, "LabelID": 0 }, "geometry": { "type": "Point", "coordinates": [ 103.846797, 1.287126800000067, 0.0 ] } },
{ "type": "Feature", "properties": { "OID": 106, "Name": "Nanyang Tun Cheow School", "FolderPath": "SG Chinese Schools (cleaned)", "SymbolID": 0, "AltMode": -1, "Base": 0.0, "Snippet": "", "PopupInfo": "拼音: Dān Zhào Xuéxiào<br>Address R3: 43 Lorong 17, Geylang<br>Country: Singapore<br>创办时间公元 Opened Date: 1922", "HasLabel": -1, "LabelID": 0 }, "geometry": { "type": "Point", "coordinates": [ 103.877989, 1.314852, 0.0 ] } },
{ "type": "Feature", "properties": { "OID": 107, "Name": "Khe Bong School", "FolderPath": "SG Chinese Schools (cleaned)", "SymbolID": 0, "AltMode": -1, "Base": 0.0, "Snippet": "", "PopupInfo": "拼音: Qǐméng Xuéxiào<br>Address R3: 43, Stanly Street<br>Country: Singapore<br>创办时间公元 Opened Date: 1921", "HasLabel": -1, "LabelID": 0 }, "geometry": { "type": "Point", "coordinates": [ 103.848460400000079, 1.281006900000023, 0.0 ] } },
{ "type": "Feature", "properties": { "OID": 108, "Name": "Phei Min School", "FolderPath": "SG Chinese Schools (cleaned)", "SymbolID": 0, "AltMode": -1, "Base": 0.0, "Snippet": "", "PopupInfo": "拼音: Péi Mín Xuéxiào<br>Address R3: 436-N Yio Chu Kang Road  6 1/2 m.s.<br>Country: Singapore<br>创办时间公元 Opened Date: 1931", "HasLabel": -1, "LabelID": 0 }, "geometry": { "type": "Point", "coordinates": [ 103.877696900000046, 1.354013700000053, 0.0 ] } },
{ "type": "Feature", "properties": { "OID": 109, "Name": "Fu Hua School", "FolderPath": "SG Chinese Schools (cleaned)", "SymbolID": 0, "AltMode": -1, "Base": 0.0, "Snippet": "", "PopupInfo": "拼音: Fǔ Huá Xuéxiào<br>Address R3: 44 Jurong Road, 15 1/2 m.s.<br>Country: Singapore<br>创办时间公元 Opened Date:", "HasLabel": -1, "LabelID": 0 }, "geometry": { "type": "Point", "coordinates": [ 103.741615300000035, 1.320785700000044, 0.0 ] } },
{ "type": "Feature", "properties": { "OID": 110, "Name": "Meng Sang School", "FolderPath": "SG Chinese Schools (cleaned)", "SymbolID": 0, "AltMode": -1, "Base": 0.0, "Snippet": "", "PopupInfo": "拼音: Mínshēng Xuéxiào<br>Address R3: 442 Balestier Road<br>Country: Singapore<br>创办时间公元 Opened Date:", "HasLabel": -1, "LabelID": 0 }, "geometry": { "type": "Point", "coordinates": [ 103.84286, 1.326458, 0.0 ] } },
{ "type": "Feature", "properties": { "OID": 111, "Name": "Hua Kiau School", "FolderPath": "SG Chinese Schools (cleaned)", "SymbolID": 0, "AltMode": -1, "Base": 0.0, "Snippet": "", "PopupInfo": "拼音: Huáqiáo Xuéxiào<br>Address R3: 450-H, Pasir Panjang Road<br>Country: Singapore<br>创办时间公元 Opened Date: 1923", "HasLabel": -1, "LabelID": 0 }, "geometry": { "type": "Point", "coordinates": [ 103.770210400000053, 1.291626500000064, 0.0 ] } },
{ "type": "Feature", "properties": { "OID": 112, "Name": "Sam Foh School", "FolderPath": "SG Chinese Schools (cleaned)", "SymbolID": 0, "AltMode": -1, "Base": 0.0, "Snippet": "", "PopupInfo": "拼音: Sān Hé Xuéxiào<br>Address R3: 467 Beach Road<br>Country: Singapore<br>创办时间公元 Opened Date:", "HasLabel": -1, "LabelID": 0 }, "geometry": { "type": "Point", "coordinates": [ 103.864016, 1.302734600000065, 0.0 ] } },
{ "type": "Feature", "properties": { "OID": 113, "Name": "Seng Chi School", "FolderPath": "SG Chinese Schools (cleaned)", "SymbolID": 0, "AltMode": -1, "Base": 0.0, "Snippet": "", "PopupInfo": "拼音: Chéngzhì Xuéxiào<br>Address R3: 47 Lorong 27-A, Geylang<br>Country: Singapore<br>创办时间公元 Opened Date: 1934", "HasLabel": -1, "LabelID": 0 }, "geometry": { "type": "Point", "coordinates": [ 103.883743300000049, 1.315442500000074, 0.0 ] } },
{ "type": "Feature", "properties": { "OID": 114, "Name": "Hai Seng Girls' High School", "FolderPath": "SG Chinese Schools (cleaned)", "SymbolID": 0, "AltMode": -1, "Base": 0.0, "Snippet": "", "PopupInfo": "拼音: Hǎixīng Nǚ Zhōng<br>Address R3: 483 Upper Serangoon Road 7 1/4 m.s.<br>Country: Singapore<br>创办时间公元 Opened Date:", "HasLabel": -1, "LabelID": 0 }, "geometry": { "type": "Point", "coordinates": [ 103.869005500000071, 1.337204300000053, 0.0 ] } },
{ "type": "Feature", "properties": { "OID": 115, "Name": "Sam Kiang School", "FolderPath": "SG Chinese Schools (cleaned)", "SymbolID": 0, "AltMode": -1, "Base": 0.0, "Snippet": "", "PopupInfo": "拼音: Sānjiāng Xuéxiào<br>Address R3: 5, St. Thomas Walk<br>Country: Singapore<br>创办时间公元 Opened Date:", "HasLabel": -1, "LabelID": 0 }, "geometry": { "type": "Point", "coordinates": [ 103.835687700000051, 1.297279, 0.0 ] } },
{ "type": "Feature", "properties": { "OID": 116, "Name": "Maha Bodhi School", "FolderPath": "SG Chinese Schools (cleaned)", "SymbolID": 0, "AltMode": -1, "Base": 0.0, "Snippet": "", "PopupInfo": "拼音: Pútí Xuéxiào<br>Address R3: 50 Lorong 34, Geylang<br>Country: Singapore<br>创办时间公元 Opened Date:", "HasLabel": -1, "LabelID": 0 }, "geometry": { "type": "Point", "coordinates": [ 103.888086900000076, 1.311763100000064, 0.0 ] } },
{ "type": "Feature", "properties": { "OID": 117, "Name": "Thomson Govt. Ch. Mid. School", "FolderPath": "SG Chinese Schools (cleaned)", "SymbolID": 0, "AltMode": -1, "Base": 0.0, "Snippet": "", "PopupInfo": "拼音: Dé Xīn Zhèngfǔ Huáwén Zhōngxué<br>Address R3: 500 Thomson Road<br>Country: Singapore<br>创办时间公元 Opened Date:", "HasLabel": -1, "LabelID": 0 }, "geometry": { "type": "Point", "coordinates": [ 103.839840600000059, 1.331472600000041, 0.0 ] } },
{ "type": "Feature", "properties": { "OID": 118, "Name": "Chin Hua School", "FolderPath": "SG Chinese Schools (cleaned)", "SymbolID": 0, "AltMode": -1, "Base": 0.0, "Snippet": "", "PopupInfo": "拼音: Jìnhuà Xuéxiào<br>Address R3: 503-A Changi Road<br>Country: Singapore<br>创办时间公元 Opened Date: 1941", "HasLabel": -1, "LabelID": 0 }, "geometry": { "type": "Point", "coordinates": [ 103.914311, 1.319673, 0.0 ] } },
{ "type": "Feature", "properties": { "OID": 119, "Name": "Chong Hwa School", "FolderPath": "SG Chinese Schools (cleaned)", "SymbolID": 0, "AltMode": -1, "Base": 0.0, "Snippet": "", "PopupInfo": "拼音: Zhōnghuá Gōng Xué<br>Address R3: 507-1 Plantation Avenue<br>Country: Singapore<br>创办时间公元 Opened Date:", "HasLabel": -1, "LabelID": 0 }, "geometry": { "type": "Point", "coordinates": [ 103.873235200000067, 1.359079300000076, 0.0 ] } },
{ "type": "Feature", "properties": { "OID": 120, "Name": "Chung Kuo Kung Hsieh", "FolderPath": "SG Chinese Schools (cleaned)", "SymbolID": 0, "AltMode": -1, "Base": 0.0, "Snippet": "", "PopupInfo": "拼音: Zhōngguó Gōng Xué<br>Address R3: 511 Serangoon Road<br>Country: Singapore<br>创办时间公元 Opened Date: 1945", "HasLabel": -1, "LabelID": 0 }, "geometry": { "type": "Point", "coordinates": [ 103.857339900000056, 1.314623, 0.0 ] } },
{ "type": "Feature", "properties": { "OID": 121, "Name": "Nanyang Girls' High School", "FolderPath": "SG Chinese Schools (cleaned)", "SymbolID": 0, "AltMode": -1, "Base": 0.0, "Snippet": "", "PopupInfo": "拼音: Nányáng Nǚzǐ Zhōng Xiǎoxuéxiào <br>Address R3: 52 King's Road<br>Country: Singapore<br>创办时间公元 Opened Date:", "HasLabel": -1, "LabelID": 0 }, "geometry": { "type": "Point", "coordinates": [ 103.808147, 1.320943, 0.0 ] } },
{ "type": "Feature", "properties": { "OID": 122, "Name": "Ming Sin School", "FolderPath": "SG Chinese Schools (cleaned)", "SymbolID": 0, "AltMode": -1, "Base": 0.0, "Snippet": "", "PopupInfo": "拼音: Míng Xīn Xuéxiào<br>Address R3: 53 Wolskel Road<br>Country: Singapore<br>创办时间公元 Opened Date:", "HasLabel": -1, "LabelID": 0 }, "geometry": { "type": "Point", "coordinates": [ 103.869875, 1.34688710000006, 0.0 ] } },
{ "type": "Feature", "properties": { "OID": 123, "Name": "Li Sun High School", "FolderPath": "SG Chinese Schools (cleaned)", "SymbolID": 0, "AltMode": -1, "Base": 0.0, "Snippet": "", "PopupInfo": "拼音: Lǐ Xùn Xuéxiào<br>Address R3: 53 Wolskel Road<br>Country: Singapore<br>创办时间公元 Opened Date:", "HasLabel": -1, "LabelID": 0 }, "geometry": { "type": "Point", "coordinates": [ 103.869875, 1.34688710000006, 0.0 ] } },
{ "type": "Feature", "properties": { "OID": 124, "Name": "Nan Hwa Girls' High School (Branch)", "FolderPath": "SG Chinese Schools (cleaned)", "SymbolID": 0, "AltMode": -1, "Base": 0.0, "Snippet": "", "PopupInfo": "拼音: Nánhuá Nǚzǐ Zhōngxué Fēnxiào<br>Address R3: 54 Bencoolen Street<br>Country: Singapore<br>创办时间公元 Opened Date:", "HasLabel": -1, "LabelID": 0 }, "geometry": { "type": "Point", "coordinates": [ 103.850690200000088, 1.299290900000074, 0.0 ] } },
{ "type": "Feature", "properties": { "OID": 125, "Name": "Kai Sou School", "FolderPath": "SG Chinese Schools (cleaned)", "SymbolID": 0, "AltMode": -1, "Base": 0.0, "Snippet": "", "PopupInfo": "拼音: Qǐ Xiù Xuéxiào<br>Address R3: 56 Somme Road<br>Country: Singapore<br>创办时间公元 Opened Date: 1932", "HasLabel": -1, "LabelID": 0 }, "geometry": { "type": "Point", "coordinates": [ 103.858286, 1.311193400000036, 0.0 ] } },
{ "type": "Feature", "properties": { "OID": 126, "Name": "Chong Hwa Girls' High Sch. (Brch).", "FolderPath": "SG Chinese Schools (cleaned)", "SymbolID": 0, "AltMode": -1, "Base": 0.0, "Snippet": "", "PopupInfo": "拼音: <br>Address R3: 57 Niven Road<br>Country: Singapore<br>创办时间公元 Opened Date:", "HasLabel": -1, "LabelID": 0 }, "geometry": { "type": "Point", "coordinates": [ 103.849558300000069, 1.303713200000061, 0.0 ] } },
{ "type": "Feature", "properties": { "OID": 127, "Name": "Nan Chiow Public School", "FolderPath": "SG Chinese Schools (cleaned)", "SymbolID": 0, "AltMode": -1, "Base": 0.0, "Snippet": "", "PopupInfo": "拼音: Nán Qiáo Gōng Xué<br>Address R3: 59 Lorong 23, Geylang<br>Country: Singapore<br>创办时间公元 Opened Date: 1946", "HasLabel": -1, "LabelID": 0 }, "geometry": { "type": "Point", "coordinates": [ 103.881244200000083, 1.315451900000028, 0.0 ] } },
{ "type": "Feature", "properties": { "OID": 128, "Name": "Lee Teck School", "FolderPath": "SG Chinese Schools (cleaned)", "SymbolID": 0, "AltMode": -1, "Base": 0.0, "Snippet": "", "PopupInfo": "拼音: Lì Dé Xuéxiào<br>Address R3: 595, Sembawang Rd. 12 m.s.<br>Country: Singapore<br>创办时间公元 Opened Date:", "HasLabel": -1, "LabelID": 0 }, "geometry": { "type": "Point", "coordinates": [ 103.824389900000085, 1.440676, 0.0 ] } },
{ "type": "Feature", "properties": { "OID": 129, "Name": "Chung Cheng High Sch., (Branch)", "FolderPath": "SG Chinese Schools (cleaned)", "SymbolID": 0, "AltMode": -1, "Base": 0.0, "Snippet": "", "PopupInfo": "拼音: Zhōngzhèng Zhòngxué Fēnxiào<br>Address R3: 60, Kim Yam Road<br>Country: Singapore<br>创办时间公元 Opened Date:", "HasLabel": -1, "LabelID": 0 }, "geometry": { "type": "Point", "coordinates": [ 103.839814300000057, 1.292836700000066, 0.0 ] } },
{ "type": "Feature", "properties": { "OID": 130, "Name": "Anglicann High School", "FolderPath": "SG Chinese Schools (cleaned)", "SymbolID": 0, "AltMode": -1, "Base": 0.0, "Snippet": "", "PopupInfo": "拼音: <br>Address R3: 600 Upper Serangoon Road 8 1/4 m.s.<br>Country: Singapore<br>创办时间公元 Opened Date:", "HasLabel": -1, "LabelID": 0 }, "geometry": { "type": "Point", "coordinates": [ 103.873768, 1.349505, 0.0 ] } },
{ "type": "Feature", "properties": { "OID": 131, "Name": "Boo Teck School", "FolderPath": "SG Chinese Schools (cleaned)", "SymbolID": 0, "AltMode": -1, "Base": 0.0, "Snippet": "", "PopupInfo": "拼音: Wǔ Dé Xuéxiào<br>Address R3: 63 Beatty Road<br>Country: Singapore<br>创办时间公元 Opened Date:", "HasLabel": -1, "LabelID": 0 }, "geometry": { "type": "Point", "coordinates": [ 103.858564, 1.313825, 0.0 ] } },
{ "type": "Feature", "properties": { "OID": 132, "Name": "Chiang Teck School", "FolderPath": "SG Chinese Schools (cleaned)", "SymbolID": 0, "AltMode": -1, "Base": 0.0, "Snippet": "", "PopupInfo": "拼音: Zhāng Dé Xuéxiào<br>Address R3: 64, Silat Road<br>Country: Singapore<br>创办时间公元 Opened Date: 1923", "HasLabel": -1, "LabelID": 0 }, "geometry": { "type": "Point", "coordinates": [ 103.82852470000006, 1.276976900000022, 0.0 ] } },
{ "type": "Feature", "properties": { "OID": 133, "Name": "Nong Chong School", "FolderPath": "SG Chinese Schools (cleaned)", "SymbolID": 0, "AltMode": -1, "Base": 0.0, "Snippet": "", "PopupInfo": "拼音: Nóngcūn Xuéxiào<br>Address R3: 644 Yio Chu Kang Road <br>Country: Singapore<br>创办时间公元 Opened Date:", "HasLabel": -1, "LabelID": 0 }, "geometry": { "type": "Point", "coordinates": [ 103.873491900000033, 1.362835200000063, 0.0 ] } },
{ "type": "Feature", "properties": { "OID": 134, "Name": "Yock Eng High School", "FolderPath": "SG Chinese Schools (cleaned)", "SymbolID": 0, "AltMode": -1, "Base": 0.0, "Snippet": "", "PopupInfo": "拼音: Yùyīng Zhōngxué<br>Address R3: 65 Tanjong Katong, Road<br>Country: Singapore<br>创办时间公元 Opened Date: 1910", "HasLabel": -1, "LabelID": 0 }, "geometry": { "type": "Point", "coordinates": [ 103.894529, 1.313584, 0.0 ] } },
{ "type": "Feature", "properties": { "OID": 135, "Name": "Dunman Govt. Ch. Middle School", "FolderPath": "SG Chinese Schools (cleaned)", "SymbolID": 0, "AltMode": -1, "Base": 0.0, "Snippet": "", "PopupInfo": "拼音: Dé Míng Zhèngfǔ Huáwén Zhōngxué<br>Address R3: 650 Dunman Road<br>Country: Singapore<br>创办时间公元 Opened Date:", "HasLabel": -1, "LabelID": 0 }, "geometry": { "type": "Point", "coordinates": [ 103.897925900000075, 1.309509200000036, 0.0 ] } },
{ "type": "Feature", "properties": { "OID": 136, "Name": "Bedok Chong Wah Public School", "FolderPath": "SG Chinese Schools (cleaned)", "SymbolID": 0, "AltMode": -1, "Base": 0.0, "Snippet": "", "PopupInfo": "拼音: Zhōnghuá Gōng Xué<br>Address R3: 655Koh Sek Lim Road <br>Country: Singapore<br>创办时间公元 Opened Date:", "HasLabel": -1, "LabelID": 0 }, "geometry": { "type": "Point", "coordinates": [ 103.956536300000039, 1.328791, 0.0 ] } },
{ "type": "Feature", "properties": { "OID": 137, "Name": "Sing khow School", "FolderPath": "SG Chinese Schools (cleaned)", "SymbolID": 0, "AltMode": -1, "Base": 0.0, "Snippet": "", "PopupInfo": "拼音: Xǐng Qiáo Xuéxiào<br>Address R3: 65-C Thomson Road<br>Country: Singapore<br>创办时间公元 Opened Date:", "HasLabel": -1, "LabelID": 0 }, "geometry": { "type": "Point", "coordinates": [ 103.845063700000082, 1.315561800000069, 0.0 ] } },
{ "type": "Feature", "properties": { "OID": 138, "Name": "Kheng Cheng School", "FolderPath": "SG Chinese Schools (cleaned)", "SymbolID": 0, "AltMode": -1, "Base": 0.0, "Snippet": "", "PopupInfo": "拼音: Qíng Qīng Xuéxiào<br>Address R3: 6-6A Derbyshire Road<br>Country: Singapore<br>创办时间公元 Opened Date: 1928", "HasLabel": -1, "LabelID": 0 }, "geometry": { "type": "Point", "coordinates": [ 103.845819800000072, 1.315973900000074, 0.0 ] } },
{ "type": "Feature", "properties": { "OID": 139, "Name": "Yeung Chin School", "FolderPath": "SG Chinese Schools (cleaned)", "SymbolID": 0, "AltMode": -1, "Base": 0.0, "Snippet": "", "PopupInfo": "拼音: Yǎng Zhèng Xuéxiào<br>Address R3: 67, Club Street<br>Country: Singapore<br>创办时间公元 Opened Date: 1906", "HasLabel": -1, "LabelID": 0 }, "geometry": { "type": "Point", "coordinates": [ 103.846241400000054, 1.28150450000004, 0.0 ] } },
{ "type": "Feature", "properties": { "OID": 140, "Name": "Chinese High School", "FolderPath": "SG Chinese Schools (cleaned)", "SymbolID": 0, "AltMode": -1, "Base": 0.0, "Snippet": "", "PopupInfo": "拼音: Huáqiáo Zhōngxué <br>Address R3: 673 Bukit Timah Road<br>Country: Singapore<br>创办时间公元 Opened Date:", "HasLabel": -1, "LabelID": 0 }, "geometry": { "type": "Point", "coordinates": [ 103.801402, 1.327567, 0.0 ] } },
{ "type": "Feature", "properties": { "OID": 141, "Name": "Happy School", "FolderPath": "SG Chinese Schools (cleaned)", "SymbolID": 0, "AltMode": -1, "Base": 0.0, "Snippet": "", "PopupInfo": "拼音: Kuài Yuè Xuéxiào<br>Address R3: 67-69 Lorong 14, Geylang<br>Country: Singapore<br>创办时间公元 Opened Date:", "HasLabel": -1, "LabelID": 0 }, "geometry": { "type": "Point", "coordinates": [ 103.879475400000047, 1.310132800000076, 0.0 ] } },
{ "type": "Feature", "properties": { "OID": 142, "Name": "Lian Wah School", "FolderPath": "SG Chinese Schools (cleaned)", "SymbolID": 0, "AltMode": -1, "Base": 0.0, "Snippet": "", "PopupInfo": "拼音: Lián Huá Xuéxiào <br>Address R3: 70 Duchess Road<br>Country: Singapore<br>创办时间公元 Opened Date:", "HasLabel": -1, "LabelID": 0 }, "geometry": { "type": "Point", "coordinates": [ 103.80716620000004, 1.323297700000069, 0.0 ] } },
{ "type": "Feature", "properties": { "OID": 143, "Name": "Keng Seng School", "FolderPath": "SG Chinese Schools (cleaned)", "SymbolID": 0, "AltMode": -1, "Base": 0.0, "Snippet": "", "PopupInfo": "拼音: Gēngshēng Xuéxiào<br>Address R3: 71-M, Henderson Road<br>Country: Singapore<br>创办时间公元 Opened Date: 1945", "HasLabel": -1, "LabelID": 0 }, "geometry": { "type": "Point", "coordinates": [ 103.822001500000056, 1.286445800000024, 0.0 ] } },
{ "type": "Feature", "properties": { "OID": 144, "Name": "New Citizen School", "FolderPath": "SG Chinese Schools (cleaned)", "SymbolID": 0, "AltMode": -1, "Base": 0.0, "Snippet": "", "PopupInfo": "拼音: Xīnmín Xuéxiào<br>Address R3: 75 Jalan Eunos<br>Country: Singapore<br>创办时间公元 Opened Date:", "HasLabel": -1, "LabelID": 0 }, "geometry": { "type": "Point", "coordinates": [ 103.905382400000065, 1.322446500000069, 0.0 ] } },
{ "type": "Feature", "properties": { "OID": 145, "Name": "Shin Min School", "FolderPath": "SG Chinese Schools (cleaned)", "SymbolID": 0, "AltMode": -1, "Base": 0.0, "Snippet": "", "PopupInfo": "拼音: Xīnmín Xuéxiào<br>Address R3: 76-1, Thomson Road, 5 1/2 m.s.<br>Country: Singapore<br>创办时间公元 Opened Date: 1945", "HasLabel": -1, "LabelID": 0 }, "geometry": { "type": "Point", "coordinates": [ 103.845062, 1.315566500000045, 0.0 ] } },
{ "type": "Feature", "properties": { "OID": 146, "Name": "Red Swastika School", "FolderPath": "SG Chinese Schools (cleaned)", "SymbolID": 0, "AltMode": -1, "Base": 0.0, "Snippet": "", "PopupInfo": "拼音: Wàn Cí Xuéxiào<br>Address R3: 786-43 Somapah Road<br>Country: Singapore<br>创办时间公元 Opened Date:", "HasLabel": -1, "LabelID": 0 }, "geometry": { "type": "Point", "coordinates": [ 103.96332330000007, 1.339715500000068, 0.0 ] } },
{ "type": "Feature", "properties": { "OID": 147, "Name": "Hong San School", "FolderPath": "SG Chinese Schools (cleaned)", "SymbolID": 0, "AltMode": -1, "Base": 0.0, "Snippet": "", "PopupInfo": "拼音: Fèng Shān Xuéxiào<br>Address R3: 787 Lorong Tai Seng<br>Country: Singapore<br>创办时间公元 Opened Date: 1945", "HasLabel": -1, "LabelID": 0 }, "geometry": { "type": "Point", "coordinates": [ 103.889633200000048, 1.338167100000021, 0.0 ] } },
{ "type": "Feature", "properties": { "OID": 148, "Name": "Tong Chai Chinese-English School", "FolderPath": "SG Chinese Schools (cleaned)", "SymbolID": 0, "AltMode": -1, "Base": 0.0, "Snippet": "", "PopupInfo": "拼音: Dòng Cái Yīnghàn Xuéxiào<br>Address R3: 8 Fowlie Road<br>Country: Singapore<br>创办时间公元 Opened Date:", "HasLabel": -1, "LabelID": 0 }, "geometry": { "type": "Point", "coordinates": [ 103.903004900000042, 1.306873, 0.0 ] } },
{ "type": "Feature", "properties": { "OID": 149, "Name": "St. Teresa's Sino. English School", "FolderPath": "SG Chinese Schools (cleaned)", "SymbolID": 0, "AltMode": -1, "Base": 0.0, "Snippet": "", "PopupInfo": "拼音: Shèng Dé Lēi Sā Huá Yīng Xuéxiào<br>Address R3: 801, Margaret Drive<br>Country: Singapore<br>创办时间公元 Opened Date: 1936", "HasLabel": -1, "LabelID": 0 }, "geometry": { "type": "Point", "coordinates": [ 103.812048100000084, 1.29574180000003, 0.0 ] } },
{ "type": "Feature", "properties": { "OID": 150, "Name": "Kiong Min School", "FolderPath": "SG Chinese Schools (cleaned)", "SymbolID": 0, "AltMode": -1, "Base": 0.0, "Snippet": "", "PopupInfo": "拼音: Gōngmín Xuéxiào<br>Address R3: 812-H Florence Road <br>Country: Singapore<br>创办时间公元 Opened Date:", "HasLabel": -1, "LabelID": 0 }, "geometry": { "type": "Point", "coordinates": [ 103.885843100000045, 1.36569830000002, 0.0 ] } },
{ "type": "Feature", "properties": { "OID": 151, "Name": "Ming Chong School", "FolderPath": "SG Chinese Schools (cleaned)", "SymbolID": 0, "AltMode": -1, "Base": 0.0, "Snippet": "", "PopupInfo": "拼音: Mínzhòng Xuéxiào<br>Address R3: 823 Somepah Road<br>Country: Singapore<br>创办时间公元 Opened Date:", "HasLabel": -1, "LabelID": 0 }, "geometry": { "type": "Point", "coordinates": [ 103.962535200000048, 1.339656900000023, 0.0 ] } },
{ "type": "Feature", "properties": { "OID": 152, "Name": "Mong Yeung School", "FolderPath": "SG Chinese Schools (cleaned)", "SymbolID": 0, "AltMode": -1, "Base": 0.0, "Snippet": "", "PopupInfo": "拼音: <br>Address R3: 853 Lorong 17, Geylang<br>Country: Singapore<br>创办时间公元 Opened Date:", "HasLabel": -1, "LabelID": 0 }, "geometry": { "type": "Point", "coordinates": [ 103.878368200000068, 1.314361100000042, 0.0 ] } },
{ "type": "Feature", "properties": { "OID": 153, "Name": "Tho Mong Public School", "FolderPath": "SG Chinese Schools (cleaned)", "SymbolID": 0, "AltMode": -1, "Base": 0.0, "Snippet": "", "PopupInfo": "拼音: Táo Méng Xuéxiào<br>Address R3: 886 Yio Chu Kang Road<br>Country: Singapore<br>创办时间公元 Opened Date: 1934", "HasLabel": -1, "LabelID": 0 }, "geometry": { "type": "Point", "coordinates": [ 103.877128900000059, 1.354942400000027, 0.0 ] } },
{ "type": "Feature", "properties": { "OID": 154, "Name": "Poi Ching School", "FolderPath": "SG Chinese Schools (cleaned)", "SymbolID": 0, "AltMode": -1, "Base": 0.0, "Snippet": "", "PopupInfo": "拼音: Péi Qīng Xuéxiào<br>Address R3: 89 Queen Street <br>Country: Singapore<br>创办时间公元 Opened Date: 1918", "HasLabel": -1, "LabelID": 0 }, "geometry": { "type": "Point", "coordinates": [ 103.854566400000067, 1.300868, 0.0 ] } },
{ "type": "Feature", "properties": { "OID": 155, "Name": "Yun Fong Public School", "FolderPath": "SG Chinese Schools (cleaned)", "SymbolID": 0, "AltMode": -1, "Base": 0.0, "Snippet": "", "PopupInfo": "拼音: Yún Fēng Xuéxiào<br>Address R3: 895-4 Braddell Road<br>Country: Singapore<br>创办时间公元 Opened Date:", "HasLabel": -1, "LabelID": 0 }, "geometry": { "type": "Point", "coordinates": [ 103.870433200000036, 1.34318630000007, 0.0 ] } },
{ "type": "Feature", "properties": { "OID": 156, "Name": "Tuan Mong High School", "FolderPath": "SG Chinese Schools (cleaned)", "SymbolID": 0, "AltMode": -1, "Base": 0.0, "Snippet": "", "PopupInfo": "拼音: Duān Méng Xuéxiào Fēnxiào<br>Address R3: 90 Tank Road <br>Country: Singapore<br>创办时间公元 Opened Date: 1926", "HasLabel": -1, "LabelID": 0 }, "geometry": { "type": "Point", "coordinates": [ 103.843721, 1.295389800000066, 0.0 ] } },
{ "type": "Feature", "properties": { "OID": 157, "Name": "Thye Chung School", "FolderPath": "SG Chinese Schools (cleaned)", "SymbolID": 0, "AltMode": -1, "Base": 0.0, "Snippet": "", "PopupInfo": "拼音: Dàzhòng Xuéxiào<br>Address R3: 921 Upper Bukit Timah Rd.<br>Country: Singapore<br>创办时间公元 Opened Date:", "HasLabel": -1, "LabelID": 0 }, "geometry": { "type": "Point", "coordinates": [ 103.76234670000008, 1.376605400000074, 0.0 ] } },
{ "type": "Feature", "properties": { "OID": 158, "Name": "Joo Hwa School", "FolderPath": "SG Chinese Schools (cleaned)", "SymbolID": 0, "AltMode": -1, "Base": 0.0, "Snippet": "", "PopupInfo": "拼音: Yù Huá Xuéxiào<br>Address R3: 92-A Jurong Road 10 m.s.<br>Country: Singapore<br>创办时间公元 Opened Date: 1931", "HasLabel": -1, "LabelID": 0 }, "geometry": { "type": "Point", "coordinates": [ 103.68913880000008, 1.331919700000071, 0.0 ] } },
{ "type": "Feature", "properties": { "OID": 159, "Name": "Seh ChuanHigh School", "FolderPath": "SG Chinese Schools (cleaned)", "SymbolID": 0, "AltMode": -1, "Base": 0.0, "Snippet": "", "PopupInfo": "拼音: Shù Qún Zhōng Xiǎoxuéxiào<br>Address R3: 9-3 Jurong Road 12 m.s.<br>Country: Singapore<br>创办时间公元 Opened Date: 1933", "HasLabel": -1, "LabelID": 0 }, "geometry": { "type": "Point", "coordinates": [ 103.745038700000066, 1.32164030000007, 0.0 ] } },
{ "type": "Feature", "properties": { "OID": 160, "Name": "Sin Ming High School", "FolderPath": "SG Chinese Schools (cleaned)", "SymbolID": 0, "AltMode": -1, "Base": 0.0, "Snippet": "", "PopupInfo": "拼音: Xīnmín Zhōngxué<br>Address R3: 930-932 Upper Serangoon Rd.<br>Country: Singapore<br>创办时间公元 Opened Date:", "HasLabel": -1, "LabelID": 0 }, "geometry": { "type": "Point", "coordinates": [ 103.89643250000006, 1.371056700000054, 0.0 ] } },
{ "type": "Feature", "properties": { "OID": 161, "Name": "Yin Sin School", "FolderPath": "SG Chinese Schools (cleaned)", "SymbolID": 0, "AltMode": -1, "Base": 0.0, "Snippet": "", "PopupInfo": "拼音: Yīng Xīn Xuéxiào<br>Address R3: 98, Telok Ayer Street<br>Country: Singapore<br>创办时间公元 Opened Date: 1906", "HasLabel": -1, "LabelID": 0 }, "geometry": { "type": "Point", "coordinates": [ 103.848564600000088, 1.282432500000027, 0.0 ] } },
{ "type": "Feature", "properties": { "OID": 162, "Name": "Kong Yiong High & Pr. School", "FolderPath": "SG Chinese Schools (cleaned)", "SymbolID": 0, "AltMode": -1, "Base": 0.0, "Snippet": "", "PopupInfo": "拼音: Guāngyáng Zhōng Xiǎoxuéxiào<br>Address R3: 993-B Yio Chu Kang Road 9 1/2 m.s.<br>Country: Singapore<br>创办时间公元 Opened Date: 1919", "HasLabel": -1, "LabelID": 0 }, "geometry": { "type": "Point", "coordinates": [ 103.877768, 1.355344, 0.0 ] } },
{ "type": "Feature", "properties": { "OID": 163, "Name": "Sin Hua School", "FolderPath": "SG Chinese Schools (cleaned)", "SymbolID": 0, "AltMode": -1, "Base": 0.0, "Snippet": "", "PopupInfo": "拼音: Xīnhuá Xuéxiào<br>Address R3: A301-6 Koh Sek Lim Road<br>Country: Singapore<br>创办时间公元 Opened Date:", "HasLabel": -1, "LabelID": 0 }, "geometry": { "type": "Point", "coordinates": [ 103.955579300000068, 1.330263900000034, 0.0 ] } },
{ "type": "Feature", "properties": { "OID": 164, "Name": "St. Joseph's Convent School", "FolderPath": "SG Chinese Schools (cleaned)", "SymbolID": 0, "AltMode": -1, "Base": 0.0, "Snippet": "", "PopupInfo": "拼音: <br>Address R3: Aillside Drive<br>Country: Singapore<br>创办时间公元 Opened Date:", "HasLabel": -1, "LabelID": 0 }, "geometry": { "type": "Point", "coordinates": [ 103.877382100000034, 1.357713600000068, 0.0 ] } },
{ "type": "Feature", "properties": { "OID": 165, "Name": "Aljunied Road, Integrated Pr. School", "FolderPath": "SG Chinese Schools (cleaned)", "SymbolID": 0, "AltMode": -1, "Base": 0.0, "Snippet": "", "PopupInfo": "拼音: <br>Address R3: Aljunied Road<br>Country: Singapore<br>创办时间公元 Opened Date:", "HasLabel": -1, "LabelID": 0 }, "geometry": { "type": "Point", "coordinates": [ 103.881453300000032, 1.322239700000068, 0.0 ] } },
{ "type": "Feature", "properties": { "OID": 166, "Name": "Gan Eng Seng School", "FolderPath": "SG Chinese Schools (cleaned)", "SymbolID": 0, "AltMode": -1, "Base": 0.0, "Snippet": "", "PopupInfo": "拼音: <br>Address R3: Anson Road<br>Country: Singapore<br>创办时间公元 Opened Date:", "HasLabel": -1, "LabelID": 0 }, "geometry": { "type": "Point", "coordinates": [ 103.844702100000063, 1.273540600000047, 0.0 ] } },
{ "type": "Feature", "properties": { "OID": 167, "Name": "Onn Hwa School", "FolderPath": "SG Chinese Schools (cleaned)", "SymbolID": 0, "AltMode": -1, "Base": 0.0, "Snippet": "", "PopupInfo": "拼音: Wàng Huá Xuéxiào<br>Address R3: Bah Soon Pah Road<br>Country: Singapore<br>创办时间公元 Opened Date:", "HasLabel": -1, "LabelID": 0 }, "geometry": { "type": "Point", "coordinates": [ 103.827535, 1.419447200000036, 0.0 ] } },
{ "type": "Feature", "properties": { "OID": 168, "Name": "Balestier Hill Primary School", "FolderPath": "SG Chinese Schools (cleaned)", "SymbolID": 0, "AltMode": -1, "Base": 0.0, "Snippet": "", "PopupInfo": "拼音: <br>Address R3: Balestier Road <br>Country: Singapore<br>创办时间公元 Opened Date:", "HasLabel": -1, "LabelID": 0 }, "geometry": { "type": "Point", "coordinates": [ 103.852305400000034, 1.323004, 0.0 ] } },
{ "type": "Feature", "properties": { "OID": 169, "Name": "Balestier Hill West Pr. School", "FolderPath": "SG Chinese Schools (cleaned)", "SymbolID": 0, "AltMode": -1, "Base": 0.0, "Snippet": "", "PopupInfo": "拼音: <br>Address R3: Balestier Road <br>Country: Singapore<br>创办时间公元 Opened Date:", "HasLabel": -1, "LabelID": 0 }, "geometry": { "type": "Point", "coordinates": [ 103.852305400000034, 1.323004, 0.0 ] } },
{ "type": "Feature", "properties": { "OID": 170, "Name": "Elling North Integrated School", "FolderPath": "SG Chinese Schools (cleaned)", "SymbolID": 0, "AltMode": -1, "Base": 0.0, "Snippet": "", "PopupInfo": "拼音: <br>Address R3: Bartley Road<br>Country: Singapore<br>创办时间公元 Opened Date:", "HasLabel": -1, "LabelID": 0 }, "geometry": { "type": "Point", "coordinates": [ 103.87802, 1.343714, 0.0 ] } },
{ "type": "Feature", "properties": { "OID": 171, "Name": "Beatty Integrated School", "FolderPath": "SG Chinese Schools (cleaned)", "SymbolID": 0, "AltMode": -1, "Base": 0.0, "Snippet": "", "PopupInfo": "拼音: <br>Address R3: Beatty Road<br>Country: Singapore<br>创办时间公元 Opened Date:", "HasLabel": -1, "LabelID": 0 }, "geometry": { "type": "Point", "coordinates": [ 103.858982500000081, 1.313587200000029, 0.0 ] } },
{ "type": "Feature", "properties": { "OID": 172, "Name": "Shu Wah School", "FolderPath": "SG Chinese Schools (cleaned)", "SymbolID": 0, "AltMode": -1, "Base": 0.0, "Snippet": "", "PopupInfo": "拼音: Shǔ Huá Xuéxiào<br>Address R3: Bukit Panjang Rd., 10 m.s.<br>Country: Singapore<br>创办时间公元 Opened Date:", "HasLabel": -1, "LabelID": 0 }, "geometry": { "type": "Point", "coordinates": [ 103.761833400000057, 1.379166700000042, 0.0 ] } },
{ "type": "Feature", "properties": { "OID": 173, "Name": "Bukit Panjang Govt. High School", "FolderPath": "SG Chinese Schools (cleaned)", "SymbolID": 0, "AltMode": -1, "Base": 0.0, "Snippet": "", "PopupInfo": "拼音: <br>Address R3: Bukit Panjang Road<br>Country: Singapore<br>创办时间公元 Opened Date:", "HasLabel": -1, "LabelID": 0 }, "geometry": { "type": "Point", "coordinates": [ 103.770891400000039, 1.377925800000071, 0.0 ] } },
{ "type": "Feature", "properties": { "OID": 174, "Name": "Pei Hwa School", "FolderPath": "SG Chinese Schools (cleaned)", "SymbolID": 0, "AltMode": -1, "Base": 0.0, "Snippet": "", "PopupInfo": "拼音: Péi Huá Xuéxiào<br>Address R3: Bukit Timah Road, 7 1/2 m.s.<br>Country: Singapore<br>创办时间公元 Opened Date: 1932", "HasLabel": -1, "LabelID": 0 }, "geometry": { "type": "Point", "coordinates": [ 103.849289900000088, 1.30638330000005, 0.0 ] } },
{ "type": "Feature", "properties": { "OID": 175, "Name": "St. Hoseph's Sino-English School", "FolderPath": "SG Chinese Schools (cleaned)", "SymbolID": 0, "AltMode": -1, "Base": 0.0, "Snippet": "", "PopupInfo": "拼音: Shèng Ruò Sè Huá Yīng Xuéxiào<br>Address R3: Bukit Timah Road, 9 1/2 m.s.<br>Country: Singapore<br>创办时间公元 Opened Date: 1936", "HasLabel": -1, "LabelID": 0 }, "geometry": { "type": "Point", "coordinates": [ 103.849289900000088, 1.30638330000005, 0.0 ] } },
{ "type": "Feature", "properties": { "OID": 176, "Name": "Adult Education Board", "FolderPath": "SG Chinese Schools (cleaned)", "SymbolID": 0, "AltMode": -1, "Base": 0.0, "Snippet": "", "PopupInfo": "拼音: <br>Address R3: Canning Riase<br>Country: Singapore<br>创办时间公元 Opened Date:", "HasLabel": -1, "LabelID": 0 }, "geometry": { "type": "Point", "coordinates": [ 103.848244300000033, 1.294868800000074, 0.0 ] } },
{ "type": "Feature", "properties": { "OID": 177, "Name": "Ping Min Public School", "FolderPath": "SG Chinese Schools (cleaned)", "SymbolID": 0, "AltMode": -1, "Base": 0.0, "Snippet": "", "PopupInfo": "拼音: Píngmín Xuéxiào<br>Address R3: Changi Road 11 1/2 m.s.<br>Country: Singapore<br>创办时间公元 Opened Date:", "HasLabel": -1, "LabelID": 0 }, "geometry": { "type": "Point", "coordinates": [ 103.898578900000075, 1.316368400000044, 0.0 ] } },
{ "type": "Feature", "properties": { "OID": 178, "Name": "Pin Ghee High School", "FolderPath": "SG Chinese Schools (cleaned)", "SymbolID": 0, "AltMode": -1, "Base": 0.0, "Snippet": "", "PopupInfo": "拼音: Píng Yí Xuéxiào<br>Address R3: Changi Road 6 3/4 m.s.<br>Country: Singapore<br>创办时间公元 Opened Date: 1929", "HasLabel": -1, "LabelID": 0 }, "geometry": { "type": "Point", "coordinates": [ 103.898578900000075, 1.316368400000044, 0.0 ] } },
{ "type": "Feature", "properties": { "OID": 179, "Name": "Nam San School", "FolderPath": "SG Chinese Schools (cleaned)", "SymbolID": 0, "AltMode": -1, "Base": 0.0, "Snippet": "", "PopupInfo": "拼音: Nánshān Xuéxiào Zhǔ Xiào<br>Address R3: Chua Chu Kang Rd<br>Country: Singapore<br>创办时间公元 Opened Date:", "HasLabel": -1, "LabelID": 0 }, "geometry": { "type": "Point", "coordinates": [ 103.75715, 1.377967, 0.0 ] } },
{ "type": "Feature", "properties": { "OID": 180, "Name": "Pei Hsin School", "FolderPath": "SG Chinese Schools (cleaned)", "SymbolID": 0, "AltMode": -1, "Base": 0.0, "Snippet": "", "PopupInfo": "拼音: Péi Xīn Xuéxiào<br>Address R3: Chua Chu Kang Rd. 16 m.s.<br>Country: Singapore<br>创办时间公元 Opened Date:", "HasLabel": -1, "LabelID": 0 }, "geometry": { "type": "Point", "coordinates": [ 103.759255900000085, 1.378888800000027, 0.0 ] } },
{ "type": "Feature", "properties": { "OID": 181, "Name": "Tanglin Integrated Technical", "FolderPath": "SG Chinese Schools (cleaned)", "SymbolID": 0, "AltMode": -1, "Base": 0.0, "Snippet": "", "PopupInfo": "拼音: Dōng Líng Zhèngfǔ Gōngyì Zhōngxué<br>Address R3: Commonwealth Avenue<br>Country: Singapore<br>创办时间公元 Opened Date:", "HasLabel": -1, "LabelID": 0 }, "geometry": { "type": "Point", "coordinates": [ 103.79997190000006, 1.300850400000058, 0.0 ] } },
{ "type": "Feature", "properties": { "OID": 182, "Name": "Yin Sin School（Branch）", "FolderPath": "SG Chinese Schools (cleaned)", "SymbolID": 0, "AltMode": -1, "Base": 0.0, "Snippet": "", "PopupInfo": "拼音: Yīng Xīn Xuéxiào Fēnxiào <br>Address R3: Eng Hoe Road<br>Country: Singapore<br>创办时间公元 Opened Date: 1923", "HasLabel": -1, "LabelID": 0 }, "geometry": { "type": "Point", "coordinates": [ 103.853150600000049, 1.308417800000029, 0.0 ] } },
{ "type": "Feature", "properties": { "OID": 183, "Name": "Ho Seng School", "FolderPath": "SG Chinese Schools (cleaned)", "SymbolID": 0, "AltMode": -1, "Base": 0.0, "Snippet": "", "PopupInfo": "拼音: Hé Xīng Xuéxiào<br>Address R3: F-5 Tampenis Road<br>Country: Singapore<br>创办时间公元 Opened Date:", "HasLabel": -1, "LabelID": 0 }, "geometry": { "type": "Point", "coordinates": [ 103.886409400000048, 1.360924200000056, 0.0 ] } },
{ "type": "Feature", "properties": { "OID": 184, "Name": "Guillemard Integrated Pr. School", "FolderPath": "SG Chinese Schools (cleaned)", "SymbolID": 0, "AltMode": -1, "Base": 0.0, "Snippet": "", "PopupInfo": "拼音: <br>Address R3: Guillemard Road<br>Country: Singapore<br>创办时间公元 Opened Date:", "HasLabel": -1, "LabelID": 0 }, "geometry": { "type": "Point", "coordinates": [ 103.885702900000069, 1.31127, 0.0 ] } },
{ "type": "Feature", "properties": { "OID": 185, "Name": "Dunman Secondary School", "FolderPath": "SG Chinese Schools (cleaned)", "SymbolID": 0, "AltMode": -1, "Base": 0.0, "Snippet": "", "PopupInfo": "拼音: <br>Address R3: Haig Road<br>Country: Singapore<br>创办时间公元 Opened Date:", "HasLabel": -1, "LabelID": 0 }, "geometry": { "type": "Point", "coordinates": [ 103.897723500000041, 1.309459600000025, 0.0 ] } },
{ "type": "Feature", "properties": { "OID": 186, "Name": "Keok Ming School School", "FolderPath": "SG Chinese Schools (cleaned)", "SymbolID": 0, "AltMode": -1, "Base": 0.0, "Snippet": "", "PopupInfo": "拼音: Kèmíng Xuéxiào <br>Address R3: Holland Road 5 m.s.<br>Country: Singapore<br>创办时间公元 Opened Date: 1937", "HasLabel": -1, "LabelID": 0 }, "geometry": { "type": "Point", "coordinates": [ 103.810336800000073, 1.307925100000034, 0.0 ] } },
{ "type": "Feature", "properties": { "OID": 187, "Name": "Bukit Ho Swee West Govt. Chinese Primary School", "FolderPath": "SG Chinese Schools (cleaned)", "SymbolID": 0, "AltMode": -1, "Base": 0.0, "Snippet": "", "PopupInfo": "拼音: Héshuǐ Shānxī Zhèngfǔ Huáwén Xiǎoxué<br>Address R3: Jalan Bukit Ho swee<br>Country: Singapore<br>创办时间公元 Opened Date:", "HasLabel": -1, "LabelID": 0 }, "geometry": { "type": "Point", "coordinates": [ 103.829742500000066, 1.287412500000073, 0.0 ] } },
{ "type": "Feature", "properties": { "OID": 188, "Name": "Nanyang University", "FolderPath": "SG Chinese Schools (cleaned)", "SymbolID": 0, "AltMode": -1, "Base": 0.0, "Snippet": "", "PopupInfo": "拼音: Nányáng Dàxué<br>Address R3: Jurong Road <br>Country: Singapore<br>创办时间公元 Opened Date:", "HasLabel": -1, "LabelID": 0 }, "geometry": { "type": "Point", "coordinates": [ 103.708282600000075, 1.350629400000059, 0.0 ] } },
{ "type": "Feature", "properties": { "OID": 189, "Name": "Joo Long Public School", "FolderPath": "SG Chinese Schools (cleaned)", "SymbolID": 0, "AltMode": -1, "Base": 0.0, "Snippet": "", "PopupInfo": "拼音: Rú Láng Xuéxiào<br>Address R3: Jurong Road 13 m.s.<br>Country: Singapore<br>创办时间公元 Opened Date: 1930", "HasLabel": -1, "LabelID": 0 }, "geometry": { "type": "Point", "coordinates": [ 103.73484620000005, 1.349620300000026, 0.0 ] } },
{ "type": "Feature", "properties": { "OID": 190, "Name": "Kong Hwa School", "FolderPath": "SG Chinese Schools (cleaned)", "SymbolID": 0, "AltMode": -1, "Base": 0.0, "Snippet": "", "PopupInfo": "拼音: Guānghuá Xuéxiào<br>Address R3: Jurong Road 17 m.s.<br>Country: Singapore<br>创办时间公元 Opened Date:", "HasLabel": -1, "LabelID": 0 }, "geometry": { "type": "Point", "coordinates": [ 103.73484620000005, 1.349620300000026, 0.0 ] } },
{ "type": "Feature", "properties": { "OID": 191, "Name": "Wei Sin School", "FolderPath": "SG Chinese Schools (cleaned)", "SymbolID": 0, "AltMode": -1, "Base": 0.0, "Snippet": "", "PopupInfo": "拼音: Wéixīn Xuéxiào<br>Address R3: Jurong Road<br>Country: Singapore<br>创办时间公元 Opened Date: 1926", "HasLabel": -1, "LabelID": 0 }, "geometry": { "type": "Point", "coordinates": [ 103.708282600000075, 1.350629400000059, 0.0 ] } },
{ "type": "Feature", "properties": { "OID": 192, "Name": "Kim Keat Integrated Pr. School", "FolderPath": "SG Chinese Schools (cleaned)", "SymbolID": 0, "AltMode": -1, "Base": 0.0, "Snippet": "", "PopupInfo": "拼音: <br>Address R3: Kim Keat Road<br>Country: Singapore<br>创办时间公元 Opened Date:", "HasLabel": -1, "LabelID": 0 }, "geometry": { "type": "Point", "coordinates": [ 103.853690900000061, 1.325194700000054, 0.0 ] } },
{ "type": "Feature", "properties": { "OID": 193, "Name": "Kim Seng West Govt. Ch. Pr. School", "FolderPath": "SG Chinese Schools (cleaned)", "SymbolID": 0, "AltMode": -1, "Base": 0.0, "Snippet": "", "PopupInfo": "拼音: Jīn Shēng Xī Zhèngfǔ Huáwén Xiǎoxué<br>Address R3: Kim Seng Road <br>Country: Singapore<br>创办时间公元 Opened Date:", "HasLabel": -1, "LabelID": 0 }, "geometry": { "type": "Point", "coordinates": [ 103.833283600000073, 1.292599400000029, 0.0 ] } },
{ "type": "Feature", "properties": { "OID": 194, "Name": "Wah Mong School", "FolderPath": "SG Chinese Schools (cleaned)", "SymbolID": 0, "AltMode": -1, "Base": 0.0, "Snippet": "", "PopupInfo": "拼音: Huà Méng Xuéxiào<br>Address R3: Lorong Ah Soo<br>Country: Singapore<br>创办时间公元 Opened Date: 1937", "HasLabel": -1, "LabelID": 0 }, "geometry": { "type": "Point", "coordinates": [ 103.88489670000007, 1.351424200000054, 0.0 ] } },
{ "type": "Feature", "properties": { "OID": 195, "Name": "Sin Hwa School", "FolderPath": "SG Chinese Schools (cleaned)", "SymbolID": 0, "AltMode": -1, "Base": 0.0, "Snippet": "", "PopupInfo": "拼音: Xīnhuá Xuéxiào<br>Address R3: Mandai Road 11 1/2 m.s.<br>Country: Singapore<br>创办时间公元 Opened Date:", "HasLabel": -1, "LabelID": 0 }, "geometry": { "type": "Point", "coordinates": [ 103.8155, 1.402541100000064, 0.0 ] } },
{ "type": "Feature", "properties": { "OID": 196, "Name": "Cheng Chi School", "FolderPath": "SG Chinese Schools (cleaned)", "SymbolID": 0, "AltMode": -1, "Base": 0.0, "Snippet": "", "PopupInfo": "拼音: Zēng Zhì Xuéxiào<br>Address R3: Mandai Road, 13 1/2 m.s.<br>Country: Singapore<br>创办时间公元 Opened Date:", "HasLabel": -1, "LabelID": 0 }, "geometry": { "type": "Point", "coordinates": [ 103.8155, 1.402541100000064, 0.0 ] } },
{ "type": "Feature", "properties": { "OID": 197, "Name": "Mapherson Primary School", "FolderPath": "SG Chinese Schools (cleaned)", "SymbolID": 0, "AltMode": -1, "Base": 0.0, "Snippet": "", "PopupInfo": "拼音: <br>Address R3: Mapherson Road<br>Country: Singapore<br>创办时间公元 Opened Date:", "HasLabel": -1, "LabelID": 0 }, "geometry": { "type": "Point", "coordinates": [ 103.878585300000054, 1.331082, 0.0 ] } },
{ "type": "Feature", "properties": { "OID": 198, "Name": "Nan Chiau School", "FolderPath": "SG Chinese Schools (cleaned)", "SymbolID": 0, "AltMode": -1, "Base": 0.0, "Snippet": "", "PopupInfo": "拼音: <br>Address R3: Marsiling Rd., off Woodlands Rd<br>Country: Singapore<br>创办时间公元 Opened Date:", "HasLabel": -1, "LabelID": 0 }, "geometry": { "type": "Point", "coordinates": [ 103.771412900000087, 1.437075800000059, 0.0 ] } },
{ "type": "Feature", "properties": { "OID": 199, "Name": "Marsiling Integrated Pr. School", "FolderPath": "SG Chinese Schools (cleaned)", "SymbolID": 0, "AltMode": -1, "Base": 0.0, "Snippet": "", "PopupInfo": "拼音: <br>Address R3: Marsiling Road<br>Country: Singapore<br>创办时间公元 Opened Date:", "HasLabel": -1, "LabelID": 0 }, "geometry": { "type": "Point", "coordinates": [ 103.776268800000082, 1.438677400000074, 0.0 ] } },
{ "type": "Feature", "properties": { "OID": 200, "Name": "Mattak East Integrated School", "FolderPath": "SG Chinese Schools (cleaned)", "SymbolID": 0, "AltMode": -1, "Base": 0.0, "Snippet": "", "PopupInfo": "拼音: <br>Address R3: Mattar Road<br>Country: Singapore<br>创办时间公元 Opened Date:", "HasLabel": -1, "LabelID": 0 }, "geometry": { "type": "Point", "coordinates": [ 103.882832600000086, 1.325038100000029, 0.0 ] } },
{ "type": "Feature", "properties": { "OID": 201, "Name": "Norfo IIIntegrated Pr. School", "FolderPath": "SG Chinese Schools (cleaned)", "SymbolID": 0, "AltMode": -1, "Base": 0.0, "Snippet": "", "PopupInfo": "拼音: <br>Address R3: Norfolk Road<br>Country: Singapore<br>创办时间公元 Opened Date:", "HasLabel": -1, "LabelID": 0 }, "geometry": { "type": "Point", "coordinates": [ 103.846986500000071, 1.315766600000075, 0.0 ] } },
{ "type": "Feature", "properties": { "OID": 202, "Name": "Parry Govt. Chinese Pr. School", "FolderPath": "SG Chinese Schools (cleaned)", "SymbolID": 0, "AltMode": -1, "Base": 0.0, "Snippet": "", "PopupInfo": "拼音: <br>Address R3: Parry Avenue<br>Country: Singapore<br>创办时间公元 Opened Date:", "HasLabel": -1, "LabelID": 0 }, "geometry": { "type": "Point", "coordinates": [ 103.878377800000067, 1.36437520000004, 0.0 ] } },
{ "type": "Feature", "properties": { "OID": 203, "Name": "Teachers’ Training College", "FolderPath": "SG Chinese Schools (cleaned)", "SymbolID": 0, "AltMode": -1, "Base": 0.0, "Snippet": "", "PopupInfo": "拼音: <br>Address R3: Paterson Road<br>Country: Singapore<br>创办时间公元 Opened Date:", "HasLabel": -1, "LabelID": 0 }, "geometry": { "type": "Point", "coordinates": [ 103.831282, 1.302229, 0.0 ] } },
{ "type": "Feature", "properties": { "OID": 204, "Name": "Paya Lebar Integrated School", "FolderPath": "SG Chinese Schools (cleaned)", "SymbolID": 0, "AltMode": -1, "Base": 0.0, "Snippet": "", "PopupInfo": "拼音: <br>Address R3: Paya Lebar<br>Country: Singapore<br>创办时间公元 Opened Date:", "HasLabel": -1, "LabelID": 0 }, "geometry": { "type": "Point", "coordinates": [ 103.899516, 1.351608700000043, 0.0 ] } },
{ "type": "Feature", "properties": { "OID": 205, "Name": "Meng Teck School", "FolderPath": "SG Chinese Schools (cleaned)", "SymbolID": 0, "AltMode": -1, "Base": 0.0, "Snippet": "", "PopupInfo": "拼音: <br>Address R3: Ponggol Road 9 m.s.<br>Country: Singapore<br>创办时间公元 Opened Date:", "HasLabel": -1, "LabelID": 0 }, "geometry": { "type": "Point", "coordinates": [ 103.896884, 1.379732400000023, 0.0 ] } },
{ "type": "Feature", "properties": { "OID": 206, "Name": "Bin Kiang School", "FolderPath": "SG Chinese Schools (cleaned)", "SymbolID": 0, "AltMode": -1, "Base": 0.0, "Snippet": "", "PopupInfo": "拼音: Mǐnjiāng Xuéxiào<br>Address R3: Pulao Ubin<br>Country: Singapore<br>创办时间公元 Opened Date:", "HasLabel": -1, "LabelID": 0 }, "geometry": { "type": "Point", "coordinates": [ 103.978942600000039, 1.397369300000037, 0.0 ] } },
{ "type": "Feature", "properties": { "OID": 207, "Name": "Pulau Tekong Int. Pr. School", "FolderPath": "SG Chinese Schools (cleaned)", "SymbolID": 0, "AltMode": -1, "Base": 0.0, "Snippet": "", "PopupInfo": "拼音: <br>Address R3: Pulau Tekong Besar<br>Country: Singapore<br>创办时间公元 Opened Date:", "HasLabel": -1, "LabelID": 0 }, "geometry": { "type": "Point", "coordinates": [ 104.041362400000082, 1.397721, 0.0 ] } },
{ "type": "Feature", "properties": { "OID": 208, "Name": "Tanglin Integrated Secondary Vocotionl School", "FolderPath": "SG Chinese Schools (cleaned)", "SymbolID": 0, "AltMode": -1, "Base": 0.0, "Snippet": "", "PopupInfo": "拼音: <br>Address R3: Queenway Singapore<br>Country: Singapore<br>创办时间公元 Opened Date:", "HasLabel": -1, "LabelID": 0 }, "geometry": { "type": "Point", "coordinates": [ 103.799763100000064, 1.296220700000049, 0.0 ] } },
{ "type": "Feature", "properties": { "OID": 209, "Name": "Min Cheng School", "FolderPath": "SG Chinese Schools (cleaned)", "SymbolID": 0, "AltMode": -1, "Base": 0.0, "Snippet": "", "PopupInfo": "拼音: Mín Zhèng Xuéxiào<br>Address R3: Seletar <br>Country: Singapore<br>创办时间公元 Opened Date:", "HasLabel": -1, "LabelID": 0 }, "geometry": { "type": "Point", "coordinates": [ 103.866341800000043, 1.405163, 0.0 ] } },
{ "type": "Feature", "properties": { "OID": 210, "Name": "Hua Mien School", "FolderPath": "SG Chinese Schools (cleaned)", "SymbolID": 0, "AltMode": -1, "Base": 0.0, "Snippet": "", "PopupInfo": "拼音: <br>Address R3: Seletar <br>Country: Singapore<br>创办时间公元 Opened Date:", "HasLabel": -1, "LabelID": 0 }, "geometry": { "type": "Point", "coordinates": [ 103.866341800000043, 1.405163, 0.0 ] } },
{ "type": "Feature", "properties": { "OID": 211, "Name": "Lee Cheng School", "FolderPath": "SG Chinese Schools (cleaned)", "SymbolID": 0, "AltMode": -1, "Base": 0.0, "Snippet": "", "PopupInfo": "拼音: Lì Zhèng Xuéxiào<br>Address R3: Seletar Road, 12 1/4 m.s.<br>Country: Singapore<br>创办时间公元 Opened Date:", "HasLabel": -1, "LabelID": 0 }, "geometry": { "type": "Point", "coordinates": [ 103.868397, 1.387184900000022, 0.0 ] } },
{ "type": "Feature", "properties": { "OID": 212, "Name": "Hwa Kwang School", "FolderPath": "SG Chinese Schools (cleaned)", "SymbolID": 0, "AltMode": -1, "Base": 0.0, "Snippet": "", "PopupInfo": "拼音: Huá Guāng Xuéxiào<br>Address R3: Sembawang Road 12 1/2 m.s.<br>Country: Singapore<br>创办时间公元 Opened Date:", "HasLabel": -1, "LabelID": 0 }, "geometry": { "type": "Point", "coordinates": [ 103.817690600000049, 1.402757300000076, 0.0 ] } },
{ "type": "Feature", "properties": { "OID": 213, "Name": "Seng Poh Govt. Chinese Pr. School", "FolderPath": "SG Chinese Schools (cleaned)", "SymbolID": 0, "AltMode": -1, "Base": 0.0, "Snippet": "", "PopupInfo": "拼音: Chéng Bǎo Zhèngfǔ Huáwén Xiǎoxué<br>Address R3: Seng Poh Road<br>Country: Singapore<br>创办时间公元 Opened Date:", "HasLabel": -1, "LabelID": 0 }, "geometry": { "type": "Point", "coordinates": [ 103.832900900000084, 1.284826100000032, 0.0 ] } },
{ "type": "Feature", "properties": { "OID": 214, "Name": "Serangoon Garden Govt. High School", "FolderPath": "SG Chinese Schools (cleaned)", "SymbolID": 0, "AltMode": -1, "Base": 0.0, "Snippet": "", "PopupInfo": "拼音: Shí Lóng Gǎng Xuéxiào<br>Address R3: Serangoon Garden Road<br>Country: Singapore<br>创办时间公元 Opened Date:", "HasLabel": -1, "LabelID": 0 }, "geometry": { "type": "Point", "coordinates": [ 103.866380700000036, 1.363707200000022, 0.0 ] } },
{ "type": "Feature", "properties": { "OID": 215, "Name": "Whampoa Secondary School", "FolderPath": "SG Chinese Schools (cleaned)", "SymbolID": 0, "AltMode": -1, "Base": 0.0, "Snippet": "", "PopupInfo": "拼音: Huángbù Zhèngfǔ Huáwén Zhōngxué<br>Address R3: St. George Road<br>Country: Singapore<br>创办时间公元 Opened Date:", "HasLabel": -1, "LabelID": 0 }, "geometry": { "type": "Point", "coordinates": [ 103.86194990000007, 1.323504800000023, 0.0 ] } },
{ "type": "Feature", "properties": { "OID": 216, "Name": "Phay Min School", "FolderPath": "SG Chinese Schools (cleaned)", "SymbolID": 0, "AltMode": -1, "Base": 0.0, "Snippet": "", "PopupInfo": "拼音: Péi Mín Xuéxiào<br>Address R3: Sungel Kadut Road<br>Country: Singapore<br>创办时间公元 Opened Date:", "HasLabel": -1, "LabelID": 0 }, "geometry": { "type": "Point", "coordinates": [ 103.744182900000055, 1.422895500000038, 0.0 ] } },
{ "type": "Feature", "properties": { "OID": 217, "Name": "Ting Ying School", "FolderPath": "SG Chinese Schools (cleaned)", "SymbolID": 0, "AltMode": -1, "Base": 0.0, "Snippet": "", "PopupInfo": "拼音: Dǐng Yīng Xuéxiào<br>Address R3: Tanah Merah Besar, Changi Road<br>Country: Singapore<br>创办时间公元 Opened Date: 1933", "HasLabel": -1, "LabelID": 0 }, "geometry": { "type": "Point", "coordinates": [ 103.972071, 1.360777300000052, 0.0 ] } },
{ "type": "Feature", "properties": { "OID": 218, "Name": "Telok Ayer Integrated Pr. School", "FolderPath": "SG Chinese Schools (cleaned)", "SymbolID": 0, "AltMode": -1, "Base": 0.0, "Snippet": "", "PopupInfo": "拼音: <br>Address R3: Telok Ayer Street <br>Country: Singapore<br>创办时间公元 Opened Date:", "HasLabel": -1, "LabelID": 0 }, "geometry": { "type": "Point", "coordinates": [ 103.848045300000081, 1.281535100000042, 0.0 ] } },
{ "type": "Feature", "properties": { "OID": 219, "Name": "Thomson Govt. Ch. Mid. School", "FolderPath": "SG Chinese Schools (cleaned)", "SymbolID": 0, "AltMode": -1, "Base": 0.0, "Snippet": "", "PopupInfo": "拼音: <br>Address R3: Thomson Road<br>Country: Singapore<br>创办时间公元 Opened Date:", "HasLabel": -1, "LabelID": 0 }, "geometry": { "type": "Point", "coordinates": [ 103.84134540000008, 1.327496300000064, 0.0 ] } },
{ "type": "Feature", "properties": { "OID": 220, "Name": "Thomson Primary School", "FolderPath": "SG Chinese Schools (cleaned)", "SymbolID": 0, "AltMode": -1, "Base": 0.0, "Snippet": "", "PopupInfo": "拼音: <br>Address R3: Thomson Road<br>Country: Singapore<br>创办时间公元 Opened Date:", "HasLabel": -1, "LabelID": 0 }, "geometry": { "type": "Point", "coordinates": [ 103.84134540000008, 1.327496300000064, 0.0 ] } },
{ "type": "Feature", "properties": { "OID": 221, "Name": "Toh Tuck Secondary School", "FolderPath": "SG Chinese Schools (cleaned)", "SymbolID": 0, "AltMode": -1, "Base": 0.0, "Snippet": "", "PopupInfo": "拼音: <br>Address R3: Toh Tuck Road<br>Country: Singapore<br>创办时间公元 Opened Date:", "HasLabel": -1, "LabelID": 0 }, "geometry": { "type": "Point", "coordinates": [ 103.766170500000044, 1.339700300000061, 0.0 ] } },
{ "type": "Feature", "properties": { "OID": 222, "Name": "Holy Innocents' Ch. Girls' School", "FolderPath": "SG Chinese Schools (cleaned)", "SymbolID": 0, "AltMode": -1, "Base": 0.0, "Snippet": "", "PopupInfo": "拼音: Shèng Yīng Nǚxiào<br>Address R3: Upper Serangoon Road 7 1/2 m.s.<br>Country: Singapore<br>创办时间公元 Opened Date:", "HasLabel": -1, "LabelID": 0 }, "geometry": { "type": "Point", "coordinates": [ 103.869005500000071, 1.337204300000053, 0.0 ] } },
{ "type": "Feature", "properties": { "OID": 223, "Name": "Holy Innocents' High School", "FolderPath": "SG Chinese Schools (cleaned)", "SymbolID": 0, "AltMode": -1, "Base": 0.0, "Snippet": "", "PopupInfo": "拼音: Shèng Yīng Huáwén Fēnxiào<br>Address R3: Upper Serangoon Road 7 1/4 m.s.<br>Country: Singapore<br>创办时间公元 Opened Date:", "HasLabel": -1, "LabelID": 0 }, "geometry": { "type": "Point", "coordinates": [ 103.869005500000071, 1.337204300000053, 0.0 ] } },
{ "type": "Feature", "properties": { "OID": 224, "Name": "Heng Toon School", "FolderPath": "SG Chinese Schools (cleaned)", "SymbolID": 0, "AltMode": -1, "Base": 0.0, "Snippet": "", "PopupInfo": "拼音: Xìng Dūn Xuéxiào<br>Address R3: Upper Thomson Rd<br>Country: Singapore<br>创办时间公元 Opened Date:", "HasLabel": -1, "LabelID": 0 }, "geometry": { "type": "Point", "coordinates": [ 103.828508600000077, 1.372933300000057, 0.0 ] } },
{ "type": "Feature", "properties": { "OID": 225, "Name": "Upper Thomson Secondary Sch.", "FolderPath": "SG Chinese Schools (cleaned)", "SymbolID": 0, "AltMode": -1, "Base": 0.0, "Snippet": "", "PopupInfo": "拼音: <br>Address R3: Upper Thomson Road. 10 m.s.<br>Country: Singapore<br>创办时间公元 Opened Date:", "HasLabel": -1, "LabelID": 0 }, "geometry": { "type": "Point", "coordinates": [ 103.838045600000044, 1.347972900000059, 0.0 ] } },
{ "type": "Feature", "properties": { "OID": 226, "Name": "St. Nicholas Grils' High School", "FolderPath": "SG Chinese Schools (cleaned)", "SymbolID": 0, "AltMode": -1, "Base": 0.0, "Snippet": "", "PopupInfo": "拼音: Shèng Ní Gélā Nǚxiào Jì Fùxiǎo<br>Address R3: Victoria Street<br>Country: Singapore<br>创办时间公元 Opened Date:", "HasLabel": -1, "LabelID": 0 }, "geometry": { "type": "Point", "coordinates": [ 103.855872300000044, 1.300503200000037, 0.0 ] } },
{ "type": "Feature", "properties": { "OID": 227, "Name": "Eng Khoon School", "FolderPath": "SG Chinese Schools (cleaned)", "SymbolID": 0, "AltMode": -1, "Base": 0.0, "Snippet": "", "PopupInfo": "拼音: Yīng Qún Xuéxiào<br>Address R3: West Coast Road, 9 m.s.<br>Country: Singapore<br>创办时间公元 Opened Date:", "HasLabel": -1, "LabelID": 0 }, "geometry": { "type": "Point", "coordinates": [ 103.76763, 1.292711200000042, 0.0 ] } },
{ "type": "Feature", "properties": { "OID": 228, "Name": "Willow Avenue Secondary School", "FolderPath": "SG Chinese Schools (cleaned)", "SymbolID": 0, "AltMode": -1, "Base": 0.0, "Snippet": "", "PopupInfo": "拼音: <br>Address R3: Willow Avenue<br>Country: Singapore<br>创办时间公元 Opened Date:", "HasLabel": -1, "LabelID": 0 }, "geometry": { "type": "Point", "coordinates": [ 103.874986600000057, 1.333505600000024, 0.0 ] } },
{ "type": "Feature", "properties": { "OID": 229, "Name": "Yit Min School", "FolderPath": "SG Chinese Schools (cleaned)", "SymbolID": 0, "AltMode": -1, "Base": 0.0, "Snippet": "", "PopupInfo": "拼音: Yì Mín Xuéxiào<br>Address R3: Woodlands Rd. , 14 m.s.<br>Country: Singapore<br>创办时间公元 Opened Date:", "HasLabel": -1, "LabelID": 0 }, "geometry": { "type": "Point", "coordinates": [ 103.761232900000039, 1.380650200000048, 0.0 ] } },
{ "type": "Feature", "properties": { "OID": 230, "Name": "Kwok Min School", "FolderPath": "SG Chinese Schools (cleaned)", "SymbolID": 0, "AltMode": -1, "Base": 0.0, "Snippet": "", "PopupInfo": "拼音: Guómín Xuéxiào<br>Address R3: Woodlands Road, 12 m.s.<br>Country: Singapore<br>创办时间公元 Opened Date:", "HasLabel": -1, "LabelID": 0 }, "geometry": { "type": "Point", "coordinates": [ 103.761266500000033, 1.380585800000063, 0.0 ] } },
{ "type": "Feature", "properties": { "OID": 231, "Name": "Fook Hin Public School", "FolderPath": "SG Chinese Schools (cleaned)", "SymbolID": 0, "AltMode": -1, "Base": 0.0, "Snippet": "", "PopupInfo": "拼音: Fùxīng Xuéxiào<br>Address R3: Yio Chu Kang Rd. 10 3/4 m.s.<br>Country: Singapore<br>创办时间公元 Opened Date:", "HasLabel": -1, "LabelID": 0 }, "geometry": { "type": "Point", "coordinates": [ 103.877618900000073, 1.354532600000027, 0.0 ] } },
{ "type": "Feature", "properties": { "OID": 232, "Name": "Yio Chu Kang Secondary School", "FolderPath": "SG Chinese Schools (cleaned)", "SymbolID": 0, "AltMode": -1, "Base": 0.0, "Snippet": "", "PopupInfo": "拼音: <br>Address R3: Yio Chu Kang Road, 10 m.s.<br>Country: Singapore<br>创办时间公元 Opened Date:", "HasLabel": -1, "LabelID": 0 }, "geometry": { "type": "Point", "coordinates": [ 103.877618900000073, 1.354532600000027, 0.0 ] } }
]
}
