{
"type": "FeatureCollection",
"name": "sg_cemeteries",
"crs": { "type": "name", "properties": { "name": "urn:ogc:def:crs:OGC:1.3:CRS84" } },
"features": [
{ "type": "Feature", "properties": { "OBJECTID": 3, "Id": null, "name": "Chinese Burying Ground (Cantonese - 1860)", "category": null, "cemid": null, "mapyear": 1846, "yearfirst": 1846, "yearlast": 1945, "comments": "1945: cemy" }, "geometry": { "type": "Point", "coordinates": [ 103.831577773426318, 1.287887957689329 ] } },
{ "type": "Feature", "properties": { "OBJECTID": 4, "Id": null, "name": "Chinese Burying Ground", "category": null, "cemid": null, "mapyear": 1846, "yearfirst": 1846, "yearlast": 1860, "comments": null }, "geometry": { "type": "Point", "coordinates": [ 103.834817881671768, 1.277247619116925 ] } },
{ "type": "Feature", "properties": { "OBJECTID": 5, "Id": null, "name": "Chinese Burying Ground", "category": null, "cemid": null, "mapyear": 1846, "yearfirst": 1846, "yearlast": 1860, "comments": null }, "geometry": { "type": "Point", "coordinates": [ 103.844860072774466, 1.28040111128103 ] } },
{ "type": "Feature", "properties": { "OBJECTID": 6, "Id": null, "name": "Parsee Burying Ground", "category": null, "cemid": null, "mapyear": 1846, "yearfirst": 1846, "yearlast": 1913, "comments": null }, "geometry": { "type": "Point", "coordinates": [ 103.84758519663049, 1.274244289648438 ] } },
{ "type": "Feature", "properties": { "OBJECTID": 7, "Id": null, "name": "Christian Burying Ground", "category": null, "cemid": null, "mapyear": 1846, "yearfirst": 1846, "yearlast": 1913, "comments": null }, "geometry": { "type": "Point", "coordinates": [ 103.846115643555493, 1.295321875874087 ] } },
{ "type": "Feature", "properties": { "OBJECTID": 8, "Id": null, "name": "Tombs of Malayan Princes", "category": null, "cemid": null, "mapyear": 1846, "yearfirst": 1846, "yearlast": 1971, "comments": "1932: Moh. Cemetery; 1971: M. Cemy" }, "geometry": { "type": "Point", "coordinates": [ 103.858078296191721, 1.304825178449469 ] } },
{ "type": "Feature", "properties": { "OBJECTID": 9, "Id": null, "name": "Bencoolenese Burying Ground", "category": null, "cemid": null, "mapyear": 1846, "yearfirst": 1846, "yearlast": 1971, "comments": "1913/1932: Malay Burial Ground; 1969/1971: M. Cemy" }, "geometry": { "type": "Point", "coordinates": [ 103.842886263889483, 1.302272376288547 ] } },
{ "type": "Feature", "properties": { "OBJECTID": 10, "Id": null, "name": "Chinese Burying Ground", "category": null, "cemid": null, "mapyear": 1846, "yearfirst": 1846, "yearlast": 1945, "comments": "1860: Tea Chea's; 1932: Chi Cemy; 1945: unnamed" }, "geometry": { "type": "Point", "coordinates": [ 103.832801158469039, 1.302980295705033 ] } },
{ "type": "Feature", "properties": { "OBJECTID": 11, "Id": null, "name": "Malay Burying Ground", "category": null, "cemid": null, "mapyear": 1846, "yearfirst": 1846, "yearlast": 1846, "comments": null }, "geometry": { "type": "Point", "coordinates": [ 103.89185267184871, 1.314424977829312 ] } },
{ "type": "Feature", "properties": { "OBJECTID": 12, "Id": null, "name": "Chinese Burial Ground", "category": null, "cemid": null, "mapyear": 1860, "yearfirst": 1860, "yearlast": 1963, "comments": "1860/1945/1963: cemy; 1913/4: Chinese" }, "geometry": { "type": "Point", "coordinates": [ 103.825187705569107, 1.280697739041048 ] } },
{ "type": "Feature", "properties": { "OBJECTID": 13, "Id": null, "name": "Chinese Burial Ground (1914)", "category": null, "cemid": null, "mapyear": 1860, "yearfirst": 1860, "yearlast": 1971, "comments": "1860: cemy; 1969/1971:Ch. Cemy" }, "geometry": { "type": "Point", "coordinates": [ 103.828588746997696, 1.277318997678934 ] } },
{ "type": "Feature", "properties": { "OBJECTID": 14, "Id": null, "name": "Catholic Burial Ground", "category": null, "cemid": null, "mapyear": 1860, "yearfirst": 1846, "yearlast": 1913, "comments": "1932: Old Cemetery" }, "geometry": { "type": "Point", "coordinates": [ 103.847444701018347, 1.295531052604516 ] } },
{ "type": "Feature", "properties": { "OBJECTID": 15, "Id": null, "name": "Protestant Burial Ground", "category": null, "cemid": null, "mapyear": 1860, "yearfirst": 1846, "yearlast": 1913, "comments": "1932: Old Cemetery" }, "geometry": { "type": "Point", "coordinates": [ 103.847546624768825, 1.295064467427986 ] } },
{ "type": "Feature", "properties": { "OBJECTID": 16, "Id": null, "name": "Arab's Burial Ground", "category": null, "cemid": null, "mapyear": 1860, "yearfirst": 1860, "yearlast": 1971, "comments": "1913/1932: Malay Burial Ground; 1969/1971:M. Cemy" }, "geometry": { "type": "Point", "coordinates": [ 103.830519962263509, 1.298936584823355 ] } },
{ "type": "Feature", "properties": { "OBJECTID": 18, "Id": null, "name": "Sepoy's Burial Ground", "category": null, "cemid": null, "mapyear": 1860, "yearfirst": 1860, "yearlast": 1860, "comments": null }, "geometry": { "type": "Point", "coordinates": [ 103.833566951587486, 1.279640296084481 ] } },
{ "type": "Feature", "properties": { "OBJECTID": 19, "Id": null, "name": "Hindu Burial Ground (1913)", "category": null, "cemid": null, "mapyear": 1846, "yearfirst": 1846, "yearlast": 1971, "comments": "1846: Cemy; 1971: Hin. Cemy" }, "geometry": { "type": "Point", "coordinates": [ 103.873853731270387, 1.311711313291044 ] } },
{ "type": "Feature", "properties": { "OBJECTID": 20, "Id": null, "name": "Unnamed", "category": null, "cemid": null, "mapyear": 1846, "yearfirst": 1846, "yearlast": 1846, "comments": null }, "geometry": { "type": "Point", "coordinates": [ 103.867234039653496, 1.309641189811775 ] } },
{ "type": "Feature", "properties": { "OBJECTID": 21, "Id": null, "name": "Chinese Burial Ground", "category": null, "cemid": null, "mapyear": 1913, "yearfirst": 1913, "yearlast": 1914, "comments": null }, "geometry": { "type": "Point", "coordinates": [ 103.824319305980552, 1.285898977698817 ] } },
{ "type": "Feature", "properties": { "OBJECTID": 22, "Id": null, "name": "Chinese Burial Ground", "category": null, "cemid": null, "mapyear": 1913, "yearfirst": 1913, "yearlast": 1913, "comments": null }, "geometry": { "type": "Point", "coordinates": [ 103.817667427727045, 1.284096986521196 ] } },
{ "type": "Feature", "properties": { "OBJECTID": 23, "Id": null, "name": "Chinese Burial Ground", "category": null, "cemid": null, "mapyear": 1913, "yearfirst": 1913, "yearlast": 1945, "comments": "1945: cemy" }, "geometry": { "type": "Point", "coordinates": [ 103.812968197643698, 1.286757068417074 ] } },
{ "type": "Feature", "properties": { "OBJECTID": 24, "Id": null, "name": "Christian Cemetery", "category": null, "cemid": null, "mapyear": 1913, "yearfirst": 1913, "yearlast": 1932, "comments": "1913: cemy; 1932: Christian Cemetery" }, "geometry": { "type": "Point", "coordinates": [ 103.844151558933447, 1.311384144564946 ] } },
{ "type": "Feature", "properties": { "OBJECTID": 25, "Id": null, "name": "Protestant and Roman Catholic Cemetery", "category": null, "cemid": null, "mapyear": 1913, "yearfirst": 1913, "yearlast": 1932, "comments": "1932: Christian Cemetery" }, "geometry": { "type": "Point", "coordinates": [ 103.846479716367099, 1.311083815818302 ] } },
{ "type": "Feature", "properties": { "OBJECTID": 26, "Id": null, "name": "Burial Ground Hill", "category": null, "cemid": null, "mapyear": 1914, "yearfirst": 1914, "yearlast": 1914, "comments": null }, "geometry": { "type": "Point", "coordinates": [ 103.822905272383409, 1.279148523720312 ] } },
{ "type": "Feature", "properties": { "OBJECTID": 27, "Id": null, "name": "Burial Hill", "category": null, "cemid": null, "mapyear": 1914, "yearfirst": 1914, "yearlast": 1945, "comments": "1945: hospital cemy" }, "geometry": { "type": "Point", "coordinates": [ 103.844395130834556, 1.324144375624732 ] } },
{ "type": "Feature", "properties": { "OBJECTID": 28, "Id": null, "name": "Bedadari Cemetery (1914)", "category": null, "cemid": null, "mapyear": 1914, "yearfirst": 1914, "yearlast": 1993, "comments": "1958/1963/1969/1971:Bidadari cemy; 1987/1993:Cemy" }, "geometry": { "type": "Point", "coordinates": [ 103.872569054175827, 1.338066646970179 ] } },
{ "type": "Feature", "properties": { "OBJECTID": 29, "Id": null, "name": "Chinese Cemetery", "category": null, "cemid": null, "mapyear": null, "yearfirst": 1932, "yearlast": 1932, "comments": null }, "geometry": { "type": "Point", "coordinates": [ 103.832587041427814, 1.278791214430182 ] } },
{ "type": "Feature", "properties": { "OBJECTID": 30, "Id": null, "name": "Moh. Cemetery", "category": null, "cemid": null, "mapyear": null, "yearfirst": 1932, "yearlast": 1932, "comments": null }, "geometry": { "type": "Point", "coordinates": [ 103.859311405497394, 1.305404282535777 ] } },
{ "type": "Feature", "properties": { "OBJECTID": 31, "Id": null, "name": "Unnamed", "category": null, "cemid": null, "mapyear": 1945, "yearfirst": 1945, "yearlast": 1945, "comments": "1945: cemy" }, "geometry": { "type": "Point", "coordinates": [ 103.765621130544844, 1.227314474839675 ] } },
{ "type": "Feature", "properties": { "OBJECTID": 32, "Id": null, "name": "Chinese Cemetery", "category": null, "cemid": null, "mapyear": 1945, "yearfirst": 1945, "yearlast": 1974, "comments": "1945/1974: Cemy; 1969/1971: Ch. Cemy" }, "geometry": { "type": "Point", "coordinates": [ 103.808067404475196, 1.273913452771745 ] } },
{ "type": "Feature", "properties": { "OBJECTID": 33, "Id": null, "name": "Unnamed", "category": null, "cemid": null, "mapyear": 1945, "yearfirst": 1945, "yearlast": 1945, "comments": null }, "geometry": { "type": "Point", "coordinates": [ 103.802992665128343, 1.291547239410047 ] } },
{ "type": "Feature", "properties": { "OBJECTID": 34, "Id": null, "name": "Unnamed", "category": null, "cemid": null, "mapyear": null, "yearfirst": 1945, "yearlast": 1945, "comments": "1945: cemy" }, "geometry": { "type": "Point", "coordinates": [ 103.793281593937706, 1.311590525136372 ] } },
{ "type": "Feature", "properties": { "OBJECTID": 35, "Id": null, "name": "Unnamed", "category": null, "cemid": null, "mapyear": 1945, "yearfirst": 1945, "yearlast": 1945, "comments": "1945: cemy" }, "geometry": { "type": "Point", "coordinates": [ 103.948613682476548, 1.319227443872288 ] } },
{ "type": "Feature", "properties": { "OBJECTID": 36, "Id": null, "name": "Unnamed", "category": null, "cemid": null, "mapyear": 1945, "yearfirst": 1945, "yearlast": 1993, "comments": "1945/1974/1987/1993: cemy" }, "geometry": { "type": "Point", "coordinates": [ 103.829920569475007, 1.329545966351567 ] } },
{ "type": "Feature", "properties": { "OBJECTID": 37, "Id": null, "name": "Unnamed", "category": null, "cemid": null, "mapyear": 1945, "yearfirst": 1945, "yearlast": 1945, "comments": "1945: cemy" }, "geometry": { "type": "Point", "coordinates": [ 103.821702280894272, 1.333707630657189 ] } },
{ "type": "Feature", "properties": { "OBJECTID": 38, "Id": null, "name": "Bukit Brown (1987)", "category": null, "cemid": null, "mapyear": 1945, "yearfirst": 1945, "yearlast": 1993, "comments": "1945/1958/1963/1974/1993: cemy; 1969/1971:Ch. Cemy" }, "geometry": { "type": "Point", "coordinates": [ 103.826058188350757, 1.337397347394373 ] } },
{ "type": "Feature", "properties": { "OBJECTID": 39, "Id": null, "name": "Unnamed", "category": null, "cemid": null, "mapyear": 1945, "yearfirst": 1945, "yearlast": 1993, "comments": "1945/1974/1987/1993: cemy" }, "geometry": { "type": "Point", "coordinates": [ 103.785438815518773, 1.328666437974321 ] } },
{ "type": "Feature", "properties": { "OBJECTID": 41, "Id": null, "name": "Unnamed", "category": null, "cemid": null, "mapyear": 1945, "yearfirst": 1945, "yearlast": 1945, "comments": "1945: cemy" }, "geometry": { "type": "Point", "coordinates": [ 103.84537009307364, 1.340593667387503 ] } },
{ "type": "Feature", "properties": { "OBJECTID": 42, "Id": null, "name": "Christian Cemetery", "category": null, "cemid": null, "mapyear": 1945, "yearfirst": 1945, "yearlast": 1987, "comments": "1945: cemy; 1969/1971: Chrn Cemy; 1974/1987: Cemy" }, "geometry": { "type": "Point", "coordinates": [ 103.871441164539391, 1.334672963485056 ] } },
{ "type": "Feature", "properties": { "OBJECTID": 43, "Id": null, "name": "Malay Cemetery", "category": null, "cemid": null, "mapyear": 1945, "yearfirst": 1945, "yearlast": 1987, "comments": "1945: cemy; 1969/1971: M. Cemy; 1974/1987:Cemy" }, "geometry": { "type": "Point", "coordinates": [ 103.874337951056305, 1.342030937235444 ] } },
{ "type": "Feature", "properties": { "OBJECTID": 44, "Id": null, "name": "Hindu Cemetery", "category": null, "cemid": null, "mapyear": 1945, "yearfirst": 1945, "yearlast": 1987, "comments": "1945: cemy; 1969/1971: Hin Cemy; 1987:Cemy" }, "geometry": { "type": "Point", "coordinates": [ 103.874702730842031, 1.342030937235444 ] } },
{ "type": "Feature", "properties": { "OBJECTID": 45, "Id": null, "name": "Chinese Cemetery", "category": null, "cemid": null, "mapyear": 1945, "yearfirst": 1945, "yearlast": 1971, "comments": "1945: cemy; 1969/1971: Ch. Cemy" }, "geometry": { "type": "Point", "coordinates": [ 103.875346460879683, 1.348852596006961 ] } },
{ "type": "Feature", "properties": { "OBJECTID": 46, "Id": null, "name": "Unnamed", "category": null, "cemid": null, "mapyear": 1945, "yearfirst": 1945, "yearlast": 1945, "comments": "1945: cemy" }, "geometry": { "type": "Point", "coordinates": [ 103.853996077554527, 1.345935159223496 ] } },
{ "type": "Feature", "properties": { "OBJECTID": 47, "Id": null, "name": "Chinese Cemetery", "category": null, "cemid": null, "mapyear": 1945, "yearfirst": 1945, "yearlast": 1974, "comments": "1945/1974: cemy; 1969/1971: Ch. Cemy" }, "geometry": { "type": "Point", "coordinates": [ 103.846099654441758, 1.345162896542087 ] } },
{ "type": "Feature", "properties": { "OBJECTID": 48, "Id": null, "name": "Chinese Cemetery", "category": null, "cemid": null, "mapyear": 1945, "yearfirst": 1945, "yearlast": 1971, "comments": "1945: cemy; 1969/1971: Ch. Cemy" }, "geometry": { "type": "Point", "coordinates": [ 103.835671225496128, 1.349002758086532 ] } },
{ "type": "Feature", "properties": { "OBJECTID": 49, "Id": null, "name": "Chinese Cemetery", "category": null, "cemid": null, "mapyear": 1945, "yearfirst": 1945, "yearlast": 1974, "comments": "1945/1958/1963/1974: cemy; 1969/1971: Ch. Cemy" }, "geometry": { "type": "Point", "coordinates": [ 103.851378241289524, 1.349388888849218 ] } },
{ "type": "Feature", "properties": { "OBJECTID": 51, "Id": null, "name": "Unnamed", "category": null, "cemid": null, "mapyear": 1945, "yearfirst": 1945, "yearlast": 1945, "comments": "1945: cemy" }, "geometry": { "type": "Point", "coordinates": [ 103.748553076366179, 1.465053742797256 ] } },
{ "type": "Feature", "properties": { "OBJECTID": 52, "Id": null, "name": "Unnamed", "category": null, "cemid": null, "mapyear": 1945, "yearfirst": 1945, "yearlast": 1945, "comments": "1945: cemy" }, "geometry": { "type": "Point", "coordinates": [ 103.750355520830936, 1.479961900063672 ] } },
{ "type": "Feature", "properties": { "OBJECTID": 53, "Id": null, "name": "Unnamed", "category": null, "cemid": null, "mapyear": 1945, "yearfirst": 1945, "yearlast": 1945, "comments": "1945: cemy" }, "geometry": { "type": "Point", "coordinates": [ 103.75432519044449, 1.489636061132614 ] } },
{ "type": "Feature", "properties": { "OBJECTID": 54, "Id": null, "name": "Unnamed", "category": null, "cemid": null, "mapyear": 1945, "yearfirst": 1945, "yearlast": 1945, "comments": "1945: cemy" }, "geometry": { "type": "Point", "coordinates": [ 103.757436553041771, 1.495492018121099 ] } },
{ "type": "Feature", "properties": { "OBJECTID": 55, "Id": null, "name": "Unnamed", "category": null, "cemid": null, "mapyear": 1958, "yearfirst": 1958, "yearlast": 1971, "comments": "1958/1963/1969/1971: cemy" }, "geometry": { "type": "Point", "coordinates": [ 103.781648144208717, 1.306349926029784 ] } },
{ "type": "Feature", "properties": { "OBJECTID": 59, "Id": null, "name": "Kranji War Cemetery (1958/1963)", "category": null, "cemid": null, "mapyear": 1958, "yearfirst": 1958, "yearlast": 1993, "comments": "1969-1974:K. war graves; 1987/1993:K. War Memorial" }, "geometry": { "type": "Point", "coordinates": [ 103.761623769464322, 1.419863137061214 ] } },
{ "type": "Feature", "properties": { "OBJECTID": 61, "Id": null, "name": "Chinese Cemetery", "category": null, "cemid": null, "mapyear": 1969, "yearfirst": 1969, "yearlast": 1971, "comments": "1969/1971: Ch. cemy" }, "geometry": { "type": "Point", "coordinates": [ 103.764770975739737, 1.229372535282025 ] } },
{ "type": "Feature", "properties": { "OBJECTID": 62, "Id": null, "name": "Malay Cemetery", "category": null, "cemid": null, "mapyear": 1969, "yearfirst": 1969, "yearlast": 1971, "comments": "1969/1971: M. Cemy" }, "geometry": { "type": "Point", "coordinates": [ 103.764191618077007, 1.226884017353184 ] } },
{ "type": "Feature", "properties": { "OBJECTID": 63, "Id": null, "name": "Malay Cemetery", "category": null, "cemid": null, "mapyear": 1969, "yearfirst": 1969, "yearlast": 1971, "comments": "1969/1971: M. Cemy" }, "geometry": { "type": "Point", "coordinates": [ 103.760865679399416, 1.212060124024022 ] } },
{ "type": "Feature", "properties": { "OBJECTID": 64, "Id": null, "name": "Malay Cemetery", "category": null, "cemid": null, "mapyear": 1969, "yearfirst": 1969, "yearlast": 1971, "comments": "1969/1971: M. Cemy" }, "geometry": { "type": "Point", "coordinates": [ 103.778031817030694, 1.20789826370526 ] } },
{ "type": "Feature", "properties": { "OBJECTID": 65, "Id": null, "name": "Malay Cemetery", "category": null, "cemid": null, "mapyear": 1969, "yearfirst": 1969, "yearlast": 1971, "comments": "1969/1971: M. cemy" }, "geometry": { "type": "Point", "coordinates": [ 103.79176472659671, 1.210086458777853 ] } },
{ "type": "Feature", "properties": { "OBJECTID": 66, "Id": null, "name": "Malay Cemetery", "category": null, "cemid": null, "mapyear": 1969, "yearfirst": 1969, "yearlast": 1971, "comments": "1969/1971: M. Cemy" }, "geometry": { "type": "Point", "coordinates": [ 103.794253817213516, 1.207083052973405 ] } },
{ "type": "Feature", "properties": { "OBJECTID": 67, "Id": null, "name": "Malay Cemetery", "category": null, "cemid": null, "mapyear": 1969, "yearfirst": 1969, "yearlast": 1971, "comments": "1969/1971: M. Cemy" }, "geometry": { "type": "Point", "coordinates": [ 103.730267038714601, 1.204937761209885 ] } },
{ "type": "Feature", "properties": { "OBJECTID": 68, "Id": null, "name": "Malay Cemetery", "category": null, "cemid": null, "mapyear": 1969, "yearfirst": 1969, "yearlast": 1971, "comments": "1969/1971: M. Cemy" }, "geometry": { "type": "Point", "coordinates": [ 103.72043942459058, 1.185672964801668 ] } },
{ "type": "Feature", "properties": { "OBJECTID": 69, "Id": null, "name": "Malay Cemetery", "category": null, "cemid": null, "mapyear": 1969, "yearfirst": 1969, "yearlast": 1971, "comments": "1969/1971: M. Cemy" }, "geometry": { "type": "Point", "coordinates": [ 103.730267038714601, 1.175632906586183 ] } },
{ "type": "Feature", "properties": { "OBJECTID": 70, "Id": null, "name": "Malay Cemetery", "category": null, "cemid": null, "mapyear": 1969, "yearfirst": 1969, "yearlast": 1971, "comments": "1969/1971: M. Cemy" }, "geometry": { "type": "Point", "coordinates": [ 103.850601663896086, 1.227248714385289 ] } },
{ "type": "Feature", "properties": { "OBJECTID": 71, "Id": null, "name": "Malay Cemetery", "category": null, "cemid": null, "mapyear": 1969, "yearfirst": 1969, "yearlast": 1971, "comments": "1969/1971: M. Cemy" }, "geometry": { "type": "Point", "coordinates": [ 103.854764452431084, 1.223987894265249 ] } },
{ "type": "Feature", "properties": { "OBJECTID": 72, "Id": null, "name": "Unnamed", "category": null, "cemid": null, "mapyear": 1969, "yearfirst": 1969, "yearlast": 1971, "comments": "1969/1971: Cemy" }, "geometry": { "type": "Point", "coordinates": [ 103.850430002133464, 1.215106429879012 ] } },
{ "type": "Feature", "properties": { "OBJECTID": 73, "Id": null, "name": "Malay Cemetery", "category": null, "cemid": null, "mapyear": 1969, "yearfirst": 1969, "yearlast": 1971, "comments": "1969/1971: M. Cemy" }, "geometry": { "type": "Point", "coordinates": [ 103.699196329754727, 1.264662045592415 ] } },
{ "type": "Feature", "properties": { "OBJECTID": 74, "Id": null, "name": "Malay Cemetery", "category": null, "cemid": null, "mapyear": 1969, "yearfirst": 1969, "yearlast": 1971, "comments": "1969/1971: M. Cemy" }, "geometry": { "type": "Point", "coordinates": [ 103.726790895433311, 1.282252990388535 ] } },
{ "type": "Feature", "properties": { "OBJECTID": 75, "Id": null, "name": "Malay Cemetery", "category": null, "cemid": null, "mapyear": 1969, "yearfirst": 1969, "yearlast": 1971, "comments": "1969/1971: M. Cemy" }, "geometry": { "type": "Point", "coordinates": [ 103.697007646548713, 1.304091337295368 ] } },
{ "type": "Feature", "properties": { "OBJECTID": 76, "Id": null, "name": "Malay Cemetery", "category": null, "cemid": null, "mapyear": 1969, "yearfirst": 1969, "yearlast": 1971, "comments": "1969/1971/1974: M. Cemy" }, "geometry": { "type": "Point", "coordinates": [ 103.715032091196278, 1.306150739560964 ] } },
{ "type": "Feature", "properties": { "OBJECTID": 77, "Id": null, "name": "Malay Cemetery", "category": null, "cemid": null, "mapyear": 1969, "yearfirst": 1969, "yearlast": 1971, "comments": "1969/1971: M. Cemy" }, "geometry": { "type": "Point", "coordinates": [ 103.74970768908571, 1.31314411311614 ] } },
{ "type": "Feature", "properties": { "OBJECTID": 78, "Id": null, "name": "Unnamed", "category": null, "cemid": null, "mapyear": 1969, "yearfirst": 1969, "yearlast": 1971, "comments": "1969/1971: cemy" }, "geometry": { "type": "Point", "coordinates": [ 103.785155763559274, 1.285599547605706 ] } },
{ "type": "Feature", "properties": { "OBJECTID": 79, "Id": null, "name": "Chinese Cemetery", "category": null, "cemid": null, "mapyear": 1969, "yearfirst": 1969, "yearlast": 1974, "comments": "1969/1971/1974: Ch. Cemy" }, "geometry": { "type": "Point", "coordinates": [ 103.817943086551765, 1.290233233519113 ] } },
{ "type": "Feature", "properties": { "OBJECTID": 80, "Id": null, "name": "Malay Cemetery", "category": null, "cemid": null, "mapyear": 1969, "yearfirst": 1969, "yearlast": 1971, "comments": "1969/1971: M. Cemy" }, "geometry": { "type": "Point", "coordinates": [ 103.824852457, 1.275602769217359 ] } },
{ "type": "Feature", "properties": { "OBJECTID": 81, "Id": null, "name": "Malay Cemetery", "category": null, "cemid": null, "mapyear": 1969, "yearfirst": 1969, "yearlast": 1971, "comments": "1969/1971: M. Cemy" }, "geometry": { "type": "Point", "coordinates": [ 103.65645264609168, 1.316619341068946 ] } },
{ "type": "Feature", "properties": { "OBJECTID": 82, "Id": null, "name": "Malay Cemetery", "category": null, "cemid": null, "mapyear": 1969, "yearfirst": 1969, "yearlast": 1971, "comments": "1969/1971: M. Cemy" }, "geometry": { "type": "Point", "coordinates": [ 103.641217699471682, 1.341718061694662 ] } },
{ "type": "Feature", "properties": { "OBJECTID": 83, "Id": null, "name": "Chinese Cemetery", "category": null, "cemid": null, "mapyear": 1969, "yearfirst": 1969, "yearlast": 1987, "comments": "1969/1971: Ch. Cemy; 1974/1987: Cemy" }, "geometry": { "type": "Point", "coordinates": [ 103.713487138926254, 1.35454619805961 ] } },
{ "type": "Feature", "properties": { "OBJECTID": 84, "Id": null, "name": "Chinese Cemetery", "category": null, "cemid": null, "mapyear": 1969, "yearfirst": 1969, "yearlast": 1987, "comments": "1969/1971: Ch. Cemy; 1987:Cemy" }, "geometry": { "type": "Point", "coordinates": [ 103.707092752867482, 1.358622012558522 ] } },
{ "type": "Feature", "properties": { "OBJECTID": 85, "Id": null, "name": "Chinese Cemetery", "category": null, "cemid": null, "mapyear": 1969, "yearfirst": 1969, "yearlast": 1993, "comments": "1969/1971/1974: Ch. Cemy; 1987/1993: Cemy" }, "geometry": { "type": "Point", "coordinates": [ 103.789490213856894, 1.324599474392869 ] } },
{ "type": "Feature", "properties": { "OBJECTID": 86, "Id": null, "name": "Chinese Cemetery", "category": null, "cemid": null, "mapyear": 1969, "yearfirst": 1969, "yearlast": 1971, "comments": "1969/1971: Ch. Cemy" }, "geometry": { "type": "Point", "coordinates": [ 103.777087678683941, 1.335325420475569 ] } },
{ "type": "Feature", "properties": { "OBJECTID": 87, "Id": null, "name": "Chinese Cemetery", "category": null, "cemid": null, "mapyear": 1969, "yearfirst": 1969, "yearlast": 1971, "comments": "1969/1971: Ch. Cemy" }, "geometry": { "type": "Point", "coordinates": [ 103.828929415102905, 1.325200128589826 ] } },
{ "type": "Feature", "properties": { "OBJECTID": 88, "Id": null, "name": "Chinese Cemetery", "category": null, "cemid": null, "mapyear": 1969, "yearfirst": 1969, "yearlast": 1993, "comments": "1969/1971: Ch. Cemy; 1993:Cemy" }, "geometry": { "type": "Point", "coordinates": [ 103.826097001859239, 1.332150544985897 ] } },
{ "type": "Feature", "properties": { "OBJECTID": 89, "Id": null, "name": "Jewish Cemetery", "category": null, "cemid": null, "mapyear": 1969, "yearfirst": 1969, "yearlast": 1971, "comments": "1969/1971: Jewish Cemy" }, "geometry": { "type": "Point", "coordinates": [ 103.846052637518099, 1.321167162289603 ] } },
{ "type": "Feature", "properties": { "OBJECTID": 90, "Id": null, "name": "Chinese Cemetery", "category": null, "cemid": null, "mapyear": 1969, "yearfirst": 1969, "yearlast": 1971, "comments": "1969/1971: Ch. Cemy" }, "geometry": { "type": "Point", "coordinates": [ 103.848541727236579, 1.344335178814259 ] } },
{ "type": "Feature", "properties": { "OBJECTID": 91, "Id": null, "name": "Chinese Cemetery", "category": null, "cemid": null, "mapyear": 1969, "yearfirst": 1969, "yearlast": 1971, "comments": "1969/1971: Ch. Cemy" }, "geometry": { "type": "Point", "coordinates": [ 103.850301256485253, 1.351328444265457 ] } },
{ "type": "Feature", "properties": { "OBJECTID": 92, "Id": null, "name": "Chinese Cemetery", "category": null, "cemid": null, "mapyear": 1969, "yearfirst": 1969, "yearlast": 1974, "comments": "1969/1971: Ch. Cemy; 1974: Cemy" }, "geometry": { "type": "Point", "coordinates": [ 103.845880975755534, 1.355661685212282 ] } },
{ "type": "Feature", "properties": { "OBJECTID": 93, "Id": null, "name": "Chinese Cemetery", "category": null, "cemid": null, "mapyear": 1969, "yearfirst": 1969, "yearlast": 1971, "comments": "1969/1971: Ch. Cemy" }, "geometry": { "type": "Point", "coordinates": [ 103.871286860024725, 1.354417487486883 ] } },
{ "type": "Feature", "properties": { "OBJECTID": 94, "Id": null, "name": "Chinese Cemetery", "category": null, "cemid": null, "mapyear": 1969, "yearfirst": 1969, "yearlast": 1971, "comments": "1969/1971: Ch. Cemy" }, "geometry": { "type": "Point", "coordinates": [ 103.871801843515854, 1.357721043515552 ] } },
{ "type": "Feature", "properties": { "OBJECTID": 95, "Id": null, "name": "Chinese Cemtery", "category": null, "cemid": null, "mapyear": 1969, "yearfirst": 1969, "yearlast": 1971, "comments": "1969/1971: Ch. Cemy" }, "geometry": { "type": "Point", "coordinates": [ 103.872831812294763, 1.346823582153581 ] } },
{ "type": "Feature", "properties": { "OBJECTID": 96, "Id": null, "name": "Singhalese Cemetery", "category": null, "cemid": null, "mapyear": 1969, "yearfirst": 1969, "yearlast": 1987, "comments": "1969/1971: Singhalese Cemy; 1987:Cemy" }, "geometry": { "type": "Point", "coordinates": [ 103.876865854283267, 1.336869952699853 ] } },
{ "type": "Feature", "properties": { "OBJECTID": 97, "Id": null, "name": "Chinese Cemetery", "category": null, "cemid": null, "mapyear": 1969, "yearfirst": 1969, "yearlast": 1987, "comments": "1969/1971: Ch. Cemy; 1974/1987: Cemy" }, "geometry": { "type": "Point", "coordinates": [ 103.910854806918934, 1.329747934078574 ] } },
{ "type": "Feature", "properties": { "OBJECTID": 98, "Id": null, "name": "Chinese Cemetery", "category": null, "cemid": null, "mapyear": 1969, "yearfirst": 1969, "yearlast": 1974, "comments": "1969/1971: Ch. Cemy; 1974: Cemy" }, "geometry": { "type": "Point", "coordinates": [ 103.91960953704799, 1.327945974363087 ] } },
{ "type": "Feature", "properties": { "OBJECTID": 99, "Id": null, "name": "Malay Cemetery", "category": null, "cemid": null, "mapyear": 1969, "yearfirst": 1969, "yearlast": 1971, "comments": "1969/1971: M. Cemy" }, "geometry": { "type": "Point", "coordinates": [ 103.909181109000698, 1.344850021402393 ] } },
{ "type": "Feature", "properties": { "OBJECTID": 100, "Id": null, "name": "Chinese Cemetery", "category": null, "cemid": null, "mapyear": 1969, "yearfirst": 1969, "yearlast": 1971, "comments": "1969/1971: Ch. Cemy" }, "geometry": { "type": "Point", "coordinates": [ 103.937033166873988, 1.34776745858687 ] } },
{ "type": "Feature", "properties": { "OBJECTID": 101, "Id": null, "name": "Chinese Cemetery", "category": null, "cemid": null, "mapyear": 1969, "yearfirst": 1969, "yearlast": 1971, "comments": "1969/1971: Ch. Cemy" }, "geometry": { "type": "Point", "coordinates": [ 103.93548821460395, 1.344678406919042 ] } },
{ "type": "Feature", "properties": { "OBJECTID": 102, "Id": null, "name": "Chinese Cemetery", "category": null, "cemid": null, "mapyear": 1969, "yearfirst": 1969, "yearlast": 1987, "comments": "1969/1971: Ch. Cemy; 1974/1987: Cemy" }, "geometry": { "type": "Point", "coordinates": [ 103.947032442760616, 1.329790838635057 ] } },
{ "type": "Feature", "properties": { "OBJECTID": 103, "Id": null, "name": "Chinese and Malay Cemetery", "category": null, "cemid": null, "mapyear": 1969, "yearfirst": 1969, "yearlast": 1971, "comments": "1969/1971: Ch. & M. Cemy" }, "geometry": { "type": "Point", "coordinates": [ 103.97432660102838, 1.347467134266036 ] } },
{ "type": "Feature", "properties": { "OBJECTID": 104, "Id": null, "name": "Hindu Cemetery", "category": null, "cemid": null, "mapyear": 1969, "yearfirst": 1969, "yearlast": 1987, "comments": "1969/1971: Hin. Cemy; 1987:Cemy" }, "geometry": { "type": "Point", "coordinates": [ 103.965443125251113, 1.355790394820813 ] } },
{ "type": "Feature", "properties": { "OBJECTID": 105, "Id": null, "name": "Malay Cemetery", "category": null, "cemid": null, "mapyear": 1969, "yearfirst": 1969, "yearlast": 1983, "comments": "1969/1971: M. Cemy; 1983: Cemy" }, "geometry": { "type": "Point", "coordinates": [ 104.043849458569767, 1.398135607322472 ] } },
{ "type": "Feature", "properties": { "OBJECTID": 106, "Id": null, "name": "Malay Cemetery", "category": null, "cemid": null, "mapyear": 1969, "yearfirst": 1969, "yearlast": 1983, "comments": "1969/1971: M. Cemy; 1983: Cemy" }, "geometry": { "type": "Point", "coordinates": [ 104.080713739665185, 1.411049244609876 ] } },
{ "type": "Feature", "properties": { "OBJECTID": 107, "Id": null, "name": "Malay Cemetery", "category": null, "cemid": null, "mapyear": 1969, "yearfirst": 1969, "yearlast": 1971, "comments": "1969/1971: M. Cemy" }, "geometry": { "type": "Point", "coordinates": [ 104.063933839876825, 1.407230933787085 ] } },
{ "type": "Feature", "properties": { "OBJECTID": 108, "Id": null, "name": "Malay Cemetery", "category": null, "cemid": null, "mapyear": 1969, "yearfirst": 1969, "yearlast": 1971, "comments": "1969/1971: M. Cemy" }, "geometry": { "type": "Point", "coordinates": [ 104.051273813407462, 1.399465586163311 ] } },
{ "type": "Feature", "properties": { "OBJECTID": 109, "Id": null, "name": "Chinese Cemetery", "category": null, "cemid": null, "mapyear": 1969, "yearfirst": 1969, "yearlast": 1983, "comments": "1969/1971: Ch. Cemy; 1983: Cemy" }, "geometry": { "type": "Point", "coordinates": [ 104.068740358449531, 1.420788052866315 ] } },
{ "type": "Feature", "properties": { "OBJECTID": 110, "Id": null, "name": "Malay Cemetery", "category": null, "cemid": null, "mapyear": 1969, "yearfirst": 1969, "yearlast": 1971, "comments": "1969/1971: M. Cemy" }, "geometry": { "type": "Point", "coordinates": [ 104.080799570097298, 1.41795650958502 ] } },
{ "type": "Feature", "properties": { "OBJECTID": 111, "Id": null, "name": "Malay Cemetery", "category": null, "cemid": null, "mapyear": 1969, "yearfirst": 1969, "yearlast": 1971, "comments": "1969/1971: M. Cemy" }, "geometry": { "type": "Point", "coordinates": [ 104.059813966557854, 1.429540074823621 ] } },
{ "type": "Feature", "properties": { "OBJECTID": 112, "Id": null, "name": "Chinese Cemetery", "category": null, "cemid": null, "mapyear": 1969, "yearfirst": 1969, "yearlast": 1971, "comments": "1969/1971: Ch. Cemy" }, "geometry": { "type": "Point", "coordinates": [ 103.965743532661904, 1.407016421515336 ] } },
{ "type": "Feature", "properties": { "OBJECTID": 113, "Id": null, "name": "Malay Cemetery", "category": null, "cemid": null, "mapyear": 1969, "yearfirst": 1969, "yearlast": 1971, "comments": "1969/1971: M. Cemy" }, "geometry": { "type": "Point", "coordinates": [ 103.981150141044509, 1.409461858087969 ] } },
{ "type": "Feature", "properties": { "OBJECTID": 114, "Id": null, "name": "Chinese Cemetery", "category": null, "cemid": null, "mapyear": 1969, "yearfirst": 1969, "yearlast": 1971, "comments": "1969/1971: Ch. Cemy" }, "geometry": { "type": "Point", "coordinates": [ 103.956817140770269, 1.413108555701198 ] } },
{ "type": "Feature", "properties": { "OBJECTID": 115, "Id": null, "name": "Malay Cemetery", "category": null, "cemid": null, "mapyear": 1969, "yearfirst": 1969, "yearlast": 1971, "comments": "1969/1971: M. Cemy" }, "geometry": { "type": "Point", "coordinates": [ 103.993189378651948, 1.388617874088742 ] } },
{ "type": "Feature", "properties": { "OBJECTID": 116, "Id": null, "name": "Malay Cemetery", "category": null, "cemid": null, "mapyear": 1969, "yearfirst": 1969, "yearlast": 1971, "comments": "1969/1971: M. Cemy" }, "geometry": { "type": "Point", "coordinates": [ 103.961110158970342, 1.379608281307443 ] } },
{ "type": "Feature", "properties": { "OBJECTID": 117, "Id": null, "name": "Malay Cemetery", "category": null, "cemid": null, "mapyear": 1969, "yearfirst": 1969, "yearlast": 1971, "comments": "1969/1971: M. Cemy" }, "geometry": { "type": "Point", "coordinates": [ 103.94654039954689, 1.374073800623909 ] } },
{ "type": "Feature", "properties": { "OBJECTID": 118, "Id": null, "name": "Chinese Cemetery", "category": null, "cemid": null, "mapyear": 1969, "yearfirst": 1969, "yearlast": 1993, "comments": "1969/1971: Ch. Cemy; 1974/1987/1993: Cemy" }, "geometry": { "type": "Point", "coordinates": [ 103.923537774564039, 1.374030896849956 ] } },
{ "type": "Feature", "properties": { "OBJECTID": 119, "Id": null, "name": "Christian Cemetery", "category": null, "cemid": null, "mapyear": 1969, "yearfirst": 1969, "yearlast": 1974, "comments": "1969/1971: Chrn Cemy; 1974: Cemy" }, "geometry": { "type": "Point", "coordinates": [ 103.89753107637155, 1.372486388314978 ] } },
{ "type": "Feature", "properties": { "OBJECTID": 120, "Id": null, "name": "Japanese Cemetery", "category": null, "cemid": null, "mapyear": 1969, "yearfirst": 1969, "yearlast": 1987, "comments": "1969/1971: Japanese Cemy; 1987:Cemy" }, "geometry": { "type": "Point", "coordinates": [ 103.87654547283212, 1.36476383069958 ] } },
{ "type": "Feature", "properties": { "OBJECTID": 121, "Id": null, "name": "Chinese Cemetery", "category": null, "cemid": null, "mapyear": 1969, "yearfirst": 1969, "yearlast": 1971, "comments": "1969/1971: Ch. Cemy" }, "geometry": { "type": "Point", "coordinates": [ 103.83397345093168, 1.359400928294583 ] } },
{ "type": "Feature", "properties": { "OBJECTID": 122, "Id": null, "name": "Chinese Cemetery", "category": null, "cemid": null, "mapyear": 1969, "yearfirst": 1969, "yearlast": 1993, "comments": "1969/1971: Ch. Cemy; 1974/1987/1993: Cemy" }, "geometry": { "type": "Point", "coordinates": [ 103.726170106571374, 1.375360890134082 ] } },
{ "type": "Feature", "properties": { "OBJECTID": 123, "Id": null, "name": "Bu. Cemetery", "category": null, "cemid": null, "mapyear": 1969, "yearfirst": 1969, "yearlast": 1971, "comments": "1969/1971: Bu Cemy" }, "geometry": { "type": "Point", "coordinates": [ 103.693554444443123, 1.375832822361498 ] } },
{ "type": "Feature", "properties": { "OBJECTID": 124, "Id": null, "name": "Hindu Cemetery", "category": null, "cemid": null, "mapyear": 1969, "yearfirst": 1969, "yearlast": 1971, "comments": "1969/1971: Hin. Cemy" }, "geometry": { "type": "Point", "coordinates": [ 103.686430497914543, 1.366866085131853 ] } },
{ "type": "Feature", "properties": { "OBJECTID": 125, "Id": null, "name": "Malay Cemetery", "category": null, "cemid": null, "mapyear": 1969, "yearfirst": 1969, "yearlast": 1987, "comments": "1969/1971: M. Cemy; 1974/1987: Cemy" }, "geometry": { "type": "Point", "coordinates": [ 103.685014291292717, 1.36875382198087 ] } },
{ "type": "Feature", "properties": { "OBJECTID": 126, "Id": null, "name": "Chinese Cemetery", "category": null, "cemid": null, "mapyear": 1969, "yearfirst": 1969, "yearlast": 1993, "comments": "1969/1971: Ch. Cemy; 1974/1987/1993: Cemy" }, "geometry": { "type": "Point", "coordinates": [ 103.758657022153074, 1.403547980951768 ] } },
{ "type": "Feature", "properties": { "OBJECTID": 127, "Id": null, "name": "Malay Cemetery", "category": null, "cemid": null, "mapyear": 1969, "yearfirst": 1969, "yearlast": 1971, "comments": "1969/1971: M. Cemy" }, "geometry": { "type": "Point", "coordinates": [ 103.848564668412322, 1.404062809878267 ] } },
{ "type": "Feature", "properties": { "OBJECTID": 128, "Id": null, "name": "Malay Cemetery", "category": null, "cemid": null, "mapyear": 1969, "yearfirst": 1969, "yearlast": 1971, "comments": "1969/1971: M. Cemy" }, "geometry": { "type": "Point", "coordinates": [ 103.912079377737825, 1.393594587204524 ] } },
{ "type": "Feature", "properties": { "OBJECTID": 129, "Id": null, "name": "Chinese Cemetery", "category": null, "cemid": null, "mapyear": 1969, "yearfirst": 1969, "yearlast": 1971, "comments": "1969/1971: Ch. Cemy" }, "geometry": { "type": "Point", "coordinates": [ 103.828866524948168, 1.433836925527128 ] } },
{ "type": "Feature", "properties": { "OBJECTID": 130, "Id": null, "name": "Malay Cemetery", "category": null, "cemid": null, "mapyear": 1969, "yearfirst": 1969, "yearlast": 1971, "comments": "1969/1971: M. Cemy" }, "geometry": { "type": "Point", "coordinates": [ 103.756554170277525, 1.431520222017138 ] } },
{ "type": "Feature", "properties": { "OBJECTID": 131, "Id": null, "name": "Malay Cemetery", "category": null, "cemid": null, "mapyear": 1969, "yearfirst": 1969, "yearlast": 1971, "comments": "1969/1971: M. Cemy" }, "geometry": { "type": "Point", "coordinates": [ 103.833861253149294, 1.242291142755259 ] } },
{ "type": "Feature", "properties": { "OBJECTID": 132, "Id": null, "name": "Malay Cemetery", "category": null, "cemid": null, "mapyear": 1971, "yearfirst": 1971, "yearlast": 1971, "comments": "1971: M. Cemy" }, "geometry": { "type": "Point", "coordinates": [ 103.855959446219288, 1.315178676068683 ] } },
{ "type": "Feature", "properties": { "OBJECTID": 133, "Id": null, "name": "Malay Cemetery", "category": null, "cemid": null, "mapyear": 1969, "yearfirst": 1969, "yearlast": 1993, "comments": "1969/1971/1987: M. Cemy; 1974/1993: Cemy" }, "geometry": { "type": "Point", "coordinates": [ 103.925010234587262, 1.317195165340898 ] } },
{ "type": "Feature", "properties": { "OBJECTID": 134, "Id": null, "name": "Malay Cemetery", "category": null, "cemid": null, "mapyear": 1969, "yearfirst": 1969, "yearlast": 1971, "comments": "1969/1971: M. Cemy" }, "geometry": { "type": "Point", "coordinates": [ 103.943206340997449, 1.318868421329794 ] } },
{ "type": "Feature", "properties": { "OBJECTID": 135, "Id": null, "name": "Chinese Cemetery", "category": null, "cemid": null, "mapyear": 1969, "yearfirst": 1969, "yearlast": 1971, "comments": "1969/1971: Ch. Cemy" }, "geometry": { "type": "Point", "coordinates": [ 103.948999912234626, 1.321013619047892 ] } },
{ "type": "Feature", "properties": { "OBJECTID": 136, "Id": null, "name": "Malay Cemetery", "category": null, "cemid": null, "mapyear": 1969, "yearfirst": 1969, "yearlast": 1971, "comments": "1969/1971: M. Cemy" }, "geometry": { "type": "Point", "coordinates": [ 103.951446086737064, 1.320284251474579 ] } },
{ "type": "Feature", "properties": { "OBJECTID": 137, "Id": null, "name": "Unnamed", "category": null, "cemid": null, "mapyear": 1974, "yearfirst": 1974, "yearlast": 1974, "comments": "1974: Cemy" }, "geometry": { "type": "Point", "coordinates": [ 104.037409606079507, 1.420536462706966 ] } },
{ "type": "Feature", "properties": { "OBJECTID": 139, "Id": null, "name": "Grave Hill", "category": null, "cemid": null, "mapyear": 1969, "yearfirst": 1969, "yearlast": 1987, "comments": "1969/1971/1974/1987: Grave Hill" }, "geometry": { "type": "Point", "coordinates": [ 103.838414588745678, 1.335303205783048 ] } },
{ "type": "Feature", "properties": { "OBJECTID": 140, "Id": null, "name": "Chinese Cemtery", "category": null, "cemid": null, "mapyear": 1969, "yearfirst": 1969, "yearlast": 1971, "comments": "1969/1971: Ch. Cemy" }, "geometry": { "type": "Point", "coordinates": [ 103.818737903338729, 1.332042523028478 ] } },
{ "type": "Feature", "properties": { "OBJECTID": 141, "Id": null, "name": "Unnamed", "category": null, "cemid": null, "mapyear": 1974, "yearfirst": 1974, "yearlast": 1993, "comments": "1974/1987/1993: Cemy" }, "geometry": { "type": "Point", "coordinates": [ 103.950197758173829, 1.319486844470357 ] } },
{ "type": "Feature", "properties": { "OBJECTID": 142, "Id": null, "name": "Unnamed", "category": null, "cemid": null, "mapyear": 1974, "yearfirst": 1974, "yearlast": 1974, "comments": "1974: Cemy" }, "geometry": { "type": "Point", "coordinates": [ 103.79643207996223, 1.305907702428845 ] } },
{ "type": "Feature", "properties": { "OBJECTID": 143, "Id": null, "name": "Unnamed", "category": null, "cemid": null, "mapyear": 1974, "yearfirst": 1974, "yearlast": 1974, "comments": "1974: Cemy" }, "geometry": { "type": "Point", "coordinates": [ 103.773322167388343, 1.318585861047169 ] } },
{ "type": "Feature", "properties": { "OBJECTID": 144, "Id": null, "name": "Unnamed", "category": null, "cemid": null, "mapyear": 1974, "yearfirst": 1974, "yearlast": 1993, "comments": "1974/1987/1993: Cemy" }, "geometry": { "type": "Point", "coordinates": [ 103.822846474054785, 1.331478474143537 ] } },
{ "type": "Feature", "properties": { "OBJECTID": 145, "Id": null, "name": "Unnamed", "category": null, "cemid": null, "mapyear": 1974, "yearfirst": 1974, "yearlast": 1974, "comments": "1974: Cemy" }, "geometry": { "type": "Point", "coordinates": [ 103.870804371292365, 1.347889106217195 ] } },
{ "type": "Feature", "properties": { "OBJECTID": 147, "Id": null, "name": "Unnamed", "category": null, "cemid": null, "mapyear": 1974, "yearfirst": 1974, "yearlast": 1974, "comments": "1974: Cemy" }, "geometry": { "type": "Point", "coordinates": [ 103.94781595694468, 1.347910557438755 ] } },
{ "type": "Feature", "properties": { "OBJECTID": 148, "Id": null, "name": "Unnamed", "category": null, "cemid": null, "mapyear": 1974, "yearfirst": 1974, "yearlast": 1974, "comments": "1974: Cemy" }, "geometry": { "type": "Point", "coordinates": [ 103.849561276456512, 1.353595260981163 ] } },
{ "type": "Feature", "properties": { "OBJECTID": 149, "Id": null, "name": "Unnamed", "category": null, "cemid": null, "mapyear": 1974, "yearfirst": 1974, "yearlast": 1974, "comments": "1974: Cemy" }, "geometry": { "type": "Point", "coordinates": [ 103.842737736440384, 1.356727204499406 ] } },
{ "type": "Feature", "properties": { "OBJECTID": 150, "Id": null, "name": "Unnamed", "category": null, "cemid": null, "mapyear": 1974, "yearfirst": 1974, "yearlast": 1974, "comments": "1974: Cemy" }, "geometry": { "type": "Point", "coordinates": [ 103.845419945080323, 1.347910557438755 ] } },
{ "type": "Feature", "properties": { "OBJECTID": 151, "Id": null, "name": "Unnamed", "category": null, "cemid": null, "mapyear": 1974, "yearfirst": 1974, "yearlast": 1987, "comments": "1974/1987: Cemy" }, "geometry": { "type": "Point", "coordinates": [ 103.677792610756157, 1.373845565721169 ] } },
{ "type": "Feature", "properties": { "OBJECTID": 152, "Id": null, "name": "Unnamed", "category": null, "cemid": null, "mapyear": 1974, "yearfirst": 1974, "yearlast": 1993, "comments": "1974/1993: Cemy" }, "geometry": { "type": "Point", "coordinates": [ 103.689529956935985, 1.373545244647087 ] } },
{ "type": "Feature", "properties": { "OBJECTID": 153, "Id": null, "name": "Unnamed", "category": null, "cemid": null, "mapyear": 1974, "yearfirst": 1974, "yearlast": 1993, "comments": "1974/1987/1993: Cemy" }, "geometry": { "type": "Point", "coordinates": [ 103.699808182176213, 1.370134452530795 ] } },
{ "type": "Feature", "properties": { "OBJECTID": 154, "Id": null, "name": "Unnamed", "category": null, "cemid": null, "mapyear": 1974, "yearfirst": 1974, "yearlast": 1993, "comments": "1974/1993: Cemy" }, "geometry": { "type": "Point", "coordinates": [ 103.76935249777479, 1.36822526482939 ] } },
{ "type": "Feature", "properties": { "OBJECTID": 155, "Id": null, "name": "Unnamed", "category": null, "cemid": null, "mapyear": 1974, "yearfirst": 1974, "yearlast": 1987, "comments": "1974/1987: Cemy" }, "geometry": { "type": "Point", "coordinates": [ 103.685989441279716, 1.378479085689771 ] } },
{ "type": "Feature", "properties": { "OBJECTID": 156, "Id": null, "name": "Unnamed", "category": null, "cemid": null, "mapyear": 1974, "yearfirst": 1974, "yearlast": 1974, "comments": "1974: Cemy" }, "geometry": { "type": "Point", "coordinates": [ 103.833686928780224, 1.435259313968579 ] } },
{ "type": "Feature", "properties": { "OBJECTID": 157, "Id": null, "name": "Unnamed", "category": null, "cemid": null, "mapyear": 1983, "yearfirst": 1983, "yearlast": 1983, "comments": "1983: Cemy" }, "geometry": { "type": "Point", "coordinates": [ 104.054963280517612, 1.427744525392973 ] } },
{ "type": "Feature", "properties": { "OBJECTID": 158, "Id": null, "name": "Unnamed", "category": null, "cemid": null, "mapyear": 1983, "yearfirst": 1983, "yearlast": 1983, "comments": "1983: Cemy" }, "geometry": { "type": "Point", "coordinates": [ 104.048826385755248, 1.414123093377583 ] } },
{ "type": "Feature", "properties": { "OBJECTID": 159, "Id": null, "name": "Unnamed", "category": null, "cemid": null, "mapyear": 1983, "yearfirst": 1983, "yearlast": 1983, "comments": "1983: Cemy" }, "geometry": { "type": "Point", "coordinates": [ 104.033677269567363, 1.417169153599203 ] } },
{ "type": "Feature", "properties": { "OBJECTID": 160, "Id": null, "name": "Unnamed", "category": null, "cemid": null, "mapyear": 1993, "yearfirst": 1993, "yearlast": 1993, "comments": "1993: Cemy" }, "geometry": { "type": "Point", "coordinates": [ 103.803586150595535, 1.321771181511348 ] } },
{ "type": "Feature", "properties": { "OBJECTID": 161, "Id": null, "name": "Unnamed", "category": null, "cemid": null, "mapyear": 1993, "yearfirst": 1993, "yearlast": 1993, "comments": "1993: Cemy" }, "geometry": { "type": "Point", "coordinates": [ 103.691856051837732, 1.368686174790428 ] } },
{ "type": "Feature", "properties": { "OBJECTID": 162, "Id": null, "name": "Unnamed", "category": null, "cemid": null, "mapyear": 1993, "yearfirst": 1993, "yearlast": 1993, "comments": "1993: Cemy" }, "geometry": { "type": "Point", "coordinates": [ 103.693486835438208, 1.379604989038248 ] } }
]
}
