{
"type": "FeatureCollection",
"name": "sg_religious_chinesetemples2010",
"crs": { "type": "name", "properties": { "name": "urn:ogc:def:crs:OGC:1.3:CRS84" } },
"features": [
{ "type": "Feature", "properties": { "OBJECTID_1": 1, "OBJECTID": 17016, "POSTALCODE": "127369", "OID_": 414, "NUM": 416.0, "TEMPLE": "WU TAI SHAN BUDDHIST TEMPLE", "ADD_": "151 West Coast Road Singapore 127369", "POSCODE": 127369.0, "poscode2": "127369" }, "geometry": { "type": "Point", "coordinates": [ 103.842283743335258, 1.294369075667191 ] } },
{ "type": "Feature", "properties": { "OBJECTID_1": 2, "OBJECTID": 17661, "POSTALCODE": "128014", "OID_": 1, "NUM": 2.0, "TEMPLE": "ANG CHEE SIA ONG TEMPLE", "ADD_": "131 West Coast Drive Singapore 128014", "POSCODE": 128014.0, "poscode2": "128014" }, "geometry": { "type": "Point", "coordinates": [ 103.798316286262946, 1.295857423324776 ] } },
{ "type": "Feature", "properties": { "OBJECTID_1": 3, "OBJECTID": 19229, "POSTALCODE": "129582", "OID_": 24, "NUM": 26.0, "TEMPLE": "CHEE GHEE DEANG CHIANG CHIN MEOW", "ADD_": "3302 Commonwealth Avenue West Singapore 129582", "POSCODE": 129582.0, "poscode2": "129582" }, "geometry": { "type": "Point", "coordinates": [ 103.901509356671681, 1.301926837392955 ] } },
{ "type": "Feature", "properties": { "OBJECTID_1": 4, "OBJECTID": 19230, "POSTALCODE": "129583", "OID_": 303, "NUM": 305.0, "TEMPLE": "SINGAPORE BUDDHIST YOUTH MISSION", "ADD_": "3306 Commonwealth Avenue West Singapore 129583", "POSCODE": 129583.0, "poscode2": "129583" }, "geometry": { "type": "Point", "coordinates": [ 103.901475852765373, 1.301997020986846 ] } },
{ "type": "Feature", "properties": { "OBJECTID_1": 5, "OBJECTID": 20266, "POSTALCODE": "239851", "OID_": 396, "NUM": 398.0, "TEMPLE": "TONG SIAN TNG TEMPLE", "ADD_": "31 Devonshire Road Singapore 239851", "POSCODE": 239851.0, "poscode2": "239851" }, "geometry": { "type": "Point", "coordinates": [ 103.837437137862025, 1.298392501452099 ] } },
{ "type": "Feature", "properties": { "OBJECTID_1": 6, "OBJECTID": 22016, "POSTALCODE": "187964", "OID_": 193, "NUM": 195.0, "TEMPLE": "KWAN IM TONG HOOD CHE TEMPLE", "ADD_": "178 Waterloo Street Singapore 187964", "POSCODE": 187964.0, "poscode2": "187964" }, "geometry": { "type": "Point", "coordinates": [ 103.852934114438881, 1.301106087392213 ] } },
{ "type": "Feature", "properties": { "OBJECTID_1": 7, "OBJECTID": 25227, "POSTALCODE": "199001", "OID_": 299, "NUM": 301.0, "TEMPLE": "Siang San Temple Association", "ADD_": "100 Jalan Sultan", "POSCODE": 199001.0, "poscode2": "199001" }, "geometry": { "type": "Point", "coordinates": [ 103.861844212103335, 1.303212423331672 ] } },
{ "type": "Feature", "properties": { "OBJECTID_1": 8, "OBJECTID": 25612, "POSTALCODE": "229468", "OID_": 298, "NUM": 300.0, "TEMPLE": "SIAN TECK TNG TEMPLE", "ADD_": "57 Cuppage Road Singapore 229468", "POSCODE": 229468.0, "poscode2": "229468" }, "geometry": { "type": "Point", "coordinates": [ 103.840281376145867, 1.303238786613008 ] } },
{ "type": "Feature", "properties": { "OBJECTID_1": 9, "OBJECTID": 28536, "POSTALCODE": "437651", "OID_": 420, "NUM": 422.0, "TEMPLE": "Yi Xing Ju Temple", "ADD_": "4 Parkstone Road", "POSCODE": 437651.0, "poscode2": "437651" }, "geometry": { "type": "Point", "coordinates": [ 103.895002180884319, 1.30697357567891 ] } },
{ "type": "Feature", "properties": { "OBJECTID_1": 10, "OBJECTID": 29836, "POSTALCODE": "207412", "OID_": 362, "NUM": 364.0, "TEMPLE": "Thian Sing Keong Temple", "ADD_": "58c Upper Weld Road", "POSCODE": 207412.0, "poscode2": "207412" }, "geometry": { "type": "Point", "coordinates": [ 103.85342657537683, 1.306663724116049 ] } },
{ "type": "Feature", "properties": { "OBJECTID_1": 11, "OBJECTID": 32978, "POSTALCODE": "424338", "OID_": 355, "NUM": 357.0, "TEMPLE": "THE MAHAPRAJNA BUDDHIST VIHARA", "ADD_": "19 Rambai Road Singapore 424338", "POSCODE": 424338.0, "poscode2": "424338" }, "geometry": { "type": "Point", "coordinates": [ 103.905837239488108, 1.311129661620271 ] } },
{ "type": "Feature", "properties": { "OBJECTID_1": 12, "OBJECTID": 33469, "POSTALCODE": "398695", "OID_": 165, "NUM": 167.0, "TEMPLE": "KARMA KAGYUD BUDDHIST CENTRE", "ADD_": "38 Lorong 22 Geylang Singapore 398695", "POSCODE": 398695.0, "poscode2": "398695" }, "geometry": { "type": "Point", "coordinates": [ 103.881890520715899, 1.310957853026423 ] } },
{ "type": "Feature", "properties": { "OBJECTID_1": 13, "OBJECTID": 33480, "POSTALCODE": "398827", "OID_": 305, "NUM": 307.0, "TEMPLE": "SINGAPORE SOKA CENTRE (GEYLANG)", "ADD_": "57 Lorong 18 Geylang Singapore 398827", "POSCODE": 398827.0, "poscode2": "398827" }, "geometry": { "type": "Point", "coordinates": [ 103.881020903527485, 1.310822403807492 ] } },
{ "type": "Feature", "properties": { "OBJECTID_1": 14, "OBJECTID": 33531, "POSTALCODE": "399004", "OID_": 224, "NUM": 226.0, "TEMPLE": "LING SHAN TEMPLE", "ADD_": "27 Lorong 12 Geylang Singapore 399004", "POSCODE": 399004.0, "poscode2": "399004" }, "geometry": { "type": "Point", "coordinates": [ 103.878784325400375, 1.310760220213751 ] } },
{ "type": "Feature", "properties": { "OBJECTID_1": 15, "OBJECTID": 33555, "POSTALCODE": "399098", "OID_": 288, "NUM": 290.0, "TEMPLE": "Shan Qing Tang Temple", "ADD_": "36 Lorong 8 Geylang", "POSCODE": 399098.0, "poscode2": "399098" }, "geometry": { "type": "Point", "coordinates": [ 103.877012341023715, 1.310901950682535 ] } },
{ "type": "Feature", "properties": { "OBJECTID_1": 16, "OBJECTID": 37843, "POSTALCODE": "425720", "OID_": 338, "NUM": 340.0, "TEMPLE": "Tai Kak Seah Temple", "ADD_": "86 Lorong K Telok Kurau", "POSCODE": 425720.0, "poscode2": "425720" }, "geometry": { "type": "Point", "coordinates": [ 103.912636384025575, 1.313096853028242 ] } },
{ "type": "Feature", "properties": { "OBJECTID_1": 17, "OBJECTID": 38067, "POSTALCODE": "427045", "OID_": 301, "NUM": 303.0, "TEMPLE": "SIM POH SENG", "ADD_": "110 Koon Seng Road Singapore 427045", "POSCODE": 427045.0, "poscode2": "427045" }, "geometry": { "type": "Point", "coordinates": [ 103.905742333237924, 1.312447560059013 ] } },
{ "type": "Feature", "properties": { "OBJECTID_1": 18, "OBJECTID": 38580, "POSTALCODE": "423586", "OID_": 185, "NUM": 187.0, "TEMPLE": "KUAN IM TNG TEMPLE", "ADD_": "62 Tembeling Road Singapore 423586", "POSCODE": 423586.0, "poscode2": "423586" }, "geometry": { "type": "Point", "coordinates": [ 103.901125653546217, 1.312545282715291 ] } },
{ "type": "Feature", "properties": { "OBJECTID_1": 19, "OBJECTID": 38819, "POSTALCODE": "429781", "OID_": 229, "NUM": 231.0, "TEMPLE": "Long Quan Si Temple", "ADD_": "38 Carpmael Road", "POSCODE": 429781.0, "poscode2": "429781" }, "geometry": { "type": "Point", "coordinates": [ 103.897850141824449, 1.313281157716062 ] } },
{ "type": "Feature", "properties": { "OBJECTID_1": 20, "OBJECTID": 39377, "POSTALCODE": "398233", "OID_": 177, "NUM": 179.0, "TEMPLE": "KONG LEAP THIAM LIM TUA TEMPLE", "ADD_": "39 Lorong 34 Geylang Singapore 398233", "POSCODE": 398233.0, "poscode2": "398233" }, "geometry": { "type": "Point", "coordinates": [ 103.888123809784076, 1.312785411621746 ] } },
{ "type": "Feature", "properties": { "OBJECTID_1": 21, "OBJECTID": 39446, "POSTALCODE": "398359", "OID_": 106, "NUM": 108.0, "TEMPLE": "GANG TIAN DA TI TEMPLE", "ADD_": "26 Lorong 30 Geylang Singapore 398359", "POSCODE": 398359.0, "poscode2": "398359" }, "geometry": { "type": "Point", "coordinates": [ 103.886036020719587, 1.312948540528225 ] } },
{ "type": "Feature", "properties": { "OBJECTID_1": 22, "OBJECTID": 39559, "POSTALCODE": "398487", "OID_": 107, "NUM": 109.0, "TEMPLE": "GEK HONG TEMPLE", "ADD_": "14 Lorong 26 Geylang Singapore 398487", "POSCODE": 398487.0, "poscode2": "398487" }, "geometry": { "type": "Point", "coordinates": [ 103.884557317593249, 1.312134458496189 ] } },
{ "type": "Feature", "properties": { "OBJECTID_1": 23, "OBJECTID": 39737, "POSTALCODE": "389436", "OID_": 69, "NUM": 71.0, "TEMPLE": "Chong Tuck Tong Chinese Temple", "ADD_": "477 Geylang Road", "POSCODE": 389436.0, "poscode2": "389436" }, "geometry": { "type": "Point", "coordinates": [ 103.883422087123449, 1.313716571778912 ] } },
{ "type": "Feature", "properties": { "OBJECTID_1": 24, "OBJECTID": 40124, "POSTALCODE": "398866", "OID_": 358, "NUM": 360.0, "TEMPLE": "Then Shen Temple", "ADD_": "24 Lorong 16 Geylang", "POSCODE": 398866.0, "poscode2": "398866" }, "geometry": { "type": "Point", "coordinates": [ 103.879622766807472, 1.31174486474589 ] } },
{ "type": "Feature", "properties": { "OBJECTID_1": 25, "OBJECTID": 40267, "POSTALCODE": "388789", "OID_": 286, "NUM": 288.0, "TEMPLE": "SHAN FOOK TONG TEMPLE", "ADD_": "5 Lorong 7 Geylang Singapore 388789", "POSCODE": 388789.0, "poscode2": "388789" }, "geometry": { "type": "Point", "coordinates": [ 103.875714309772491, 1.312543923340286 ] } },
{ "type": "Feature", "properties": { "OBJECTID_1": 26, "OBJECTID": 41662, "POSTALCODE": "209178", "OID_": 23, "NUM": 25.0, "TEMPLE": "Chay Sien Tong Temple", "ADD_": "7 Hamilton Road", "POSCODE": 209178.0, "poscode2": "209178" }, "geometry": { "type": "Point", "coordinates": [ 103.860663528508553, 1.311497552245612 ] } },
{ "type": "Feature", "properties": { "OBJECTID_1": 27, "OBJECTID": 44189, "POSTALCODE": "457182", "OID_": 175, "NUM": 177.0, "TEMPLE": "KIM SAN TEMPLE", "ADD_": "25 Jalan Ulu Siglap Singapore 457182", "POSCODE": 457182.0, "poscode2": "457182" }, "geometry": { "type": "Point", "coordinates": [ 103.92741416528952, 1.315251145999127 ] } },
{ "type": "Feature", "properties": { "OBJECTID_1": 28, "OBJECTID": 45416, "POSTALCODE": "387467", "OID_": 356, "NUM": 358.0, "TEMPLE": "THE SINGAPORE BUDDHIST LODGE", "ADD_": "145 Sims Avenue Singapore 387467", "POSCODE": 387467.0, "poscode2": "387467" }, "geometry": { "type": "Point", "coordinates": [ 103.87828693086874, 1.314555345217173 ] } },
{ "type": "Feature", "properties": { "OBJECTID_1": 29, "OBJECTID": 45784, "POSTALCODE": "458176", "OID_": 91, "NUM": 93.0, "TEMPLE": "Ean Keng Si Buddhist Temple", "ADD_": "48 Frankel Avenue", "POSCODE": 458176.0, "poscode2": "458176" }, "geometry": { "type": "Point", "coordinates": [ 103.918723708250013, 1.315145020998955 ] } },
{ "type": "Feature", "properties": { "OBJECTID_1": 30, "OBJECTID": 46331, "POSTALCODE": "426774", "OID_": 391, "NUM": 393.0, "TEMPLE": "TIOH HIN CHO TEMPLE", "ADD_": "121A Langsat Road Singapore 426774", "POSCODE": 426774.0, "poscode2": "426774" }, "geometry": { "type": "Point", "coordinates": [ 103.905130688706265, 1.316178618656181 ] } },
{ "type": "Feature", "properties": { "OBJECTID_1": 31, "OBJECTID": 46525, "POSTALCODE": "419716", "OID_": 146, "NUM": 148.0, "TEMPLE": "HOON SIAN KENG TEMPLE", "ADD_": "82 Changi Road Singapore 419716", "POSCODE": 419716.0, "poscode2": "419716" }, "geometry": { "type": "Point", "coordinates": [ 103.900980821514906, 1.316308458500146 ] } },
{ "type": "Feature", "properties": { "OBJECTID_1": 32, "OBJECTID": 46543, "POSTALCODE": "426603", "OID_": 215, "NUM": 217.0, "TEMPLE": "LI TECK CHUAN CIN TANG TEMPLE", "ADD_": "8 Lorong 102 Changi Singapore 426603", "POSCODE": 426603.0, "poscode2": "426603" }, "geometry": { "type": "Point", "coordinates": [ 103.90052410276445, 1.316037985843593 ] } },
{ "type": "Feature", "properties": { "OBJECTID_1": 33, "OBJECTID": 46695, "POSTALCODE": "389780", "OID_": 56, "NUM": 58.0, "TEMPLE": "CHIAN POK EE TEMPLE", "ADD_": "8 Geylang East Avenue 1 Singapore 389780", "POSCODE": 389780.0, "poscode2": "389780" }, "geometry": { "type": "Point", "coordinates": [ 103.885297751187693, 1.315967376468564 ] } },
{ "type": "Feature", "properties": { "OBJECTID_1": 34, "OBJECTID": 46887, "POSTALCODE": "388035", "OID_": 192, "NUM": 194.0, "TEMPLE": "KWAN IM SEE TEMPLE", "ADD_": "39 Lorong 31 Geylang Singapore 388035", "POSCODE": 388035.0, "poscode2": "388035" }, "geometry": { "type": "Point", "coordinates": [ 103.88668926681396, 1.315723208499492 ] } },
{ "type": "Feature", "properties": { "OBJECTID_1": 35, "OBJECTID": 46905, "POSTALCODE": "388026", "OID_": 152, "NUM": 154.0, "TEMPLE": "JIA TUO JING SHE", "ADD_": "18 Lorong 31 Geylang Singapore 388026", "POSCODE": 388026.0, "poscode2": "388026" }, "geometry": { "type": "Point", "coordinates": [ 103.887325223845892, 1.314976040530041 ] } },
{ "type": "Feature", "properties": { "OBJECTID_1": 36, "OBJECTID": 46911, "POSTALCODE": "388070", "OID_": 311, "NUM": 313.0, "TEMPLE": "SOON THIAN KEING TEMPLE", "ADD_": "19 Lorong 29 Geylang Singapore 388070", "POSCODE": 388070.0, "poscode2": "388070" }, "geometry": { "type": "Point", "coordinates": [ 103.885778852750718, 1.314899044436288 ] } },
{ "type": "Feature", "properties": { "OBJECTID_1": 37, "OBJECTID": 46947, "POSTALCODE": "388185", "OID_": 114, "NUM": 116.0, "TEMPLE": "Gui Ci Maitreya Buddha Temple", "ADD_": "59 Lorong 27 Geylang", "POSCODE": 388185.0, "poscode2": "388185" }, "geometry": { "type": "Point", "coordinates": [ 103.883705118373825, 1.316017645999864 ] } },
{ "type": "Feature", "properties": { "OBJECTID_1": 38, "OBJECTID": 46954, "POSTALCODE": "388115", "OID_": 425, "NUM": 427.0, "TEMPLE": "YU HUANG ZHI ZUA TEMPLE", "ADD_": "26 Lorong 27a Geylang Singapore 388115", "POSCODE": 388115.0, "poscode2": "388115" }, "geometry": { "type": "Point", "coordinates": [ 103.884957688687393, 1.315135638186575 ] } },
{ "type": "Feature", "properties": { "OBJECTID_1": 39, "OBJECTID": 46959, "POSTALCODE": "388170", "OID_": 245, "NUM": 247.0, "TEMPLE": "NAN HAI FEI LAI TEMPLE", "ADD_": "35 Lorong 27 Geylang Singapore 388170", "POSCODE": 388170.0, "poscode2": "388170" }, "geometry": { "type": "Point", "coordinates": [ 103.883548930873701, 1.315051028811411 ] } },
{ "type": "Feature", "properties": { "OBJECTID_1": 40, "OBJECTID": 47014, "POSTALCODE": "388165", "OID_": 201, "NUM": 203.0, "TEMPLE": "Lam Hai Fei Lai Temple", "ADD_": "31 Lorong 27 Geylang", "POSCODE": 388165.0, "poscode2": "388165" }, "geometry": { "type": "Point", "coordinates": [ 103.883590739467479, 1.314910091311333 ] } },
{ "type": "Feature", "properties": { "OBJECTID_1": 41, "OBJECTID": 47016, "POSTALCODE": "388266", "OID_": 261, "NUM": 263.0, "TEMPLE": "POH TIONG KIONG TEMPLE", "ADD_": "48 Lorong 25a Geylang Singapore 388266", "POSCODE": 388266.0, "poscode2": "388266" }, "geometry": { "type": "Point", "coordinates": [ 103.88329588790458, 1.315054001467672 ] } },
{ "type": "Feature", "properties": { "OBJECTID_1": 42, "OBJECTID": 47019, "POSTALCODE": "388244", "OID_": 262, "NUM": 264.0, "TEMPLE": "Poh Tiong Kiong Temple", "ADD_": "44 Lorong 25a Geylang", "POSCODE": 388244.0, "poscode2": "388244" }, "geometry": { "type": "Point", "coordinates": [ 103.883333696498312, 1.314947435061299 ] } },
{ "type": "Feature", "properties": { "OBJECTID_1": 43, "OBJECTID": 47066, "POSTALCODE": "387493", "OID_": 248, "NUM": 250.0, "TEMPLE": "NICHIREN SHOUSHU BUDDHIST ASSOCIATION (SINGAPORE)", "ADD_": "177 Sims Avenue Singapore 387493", "POSCODE": 387493.0, "poscode2": "387493" }, "geometry": { "type": "Point", "coordinates": [ 103.879634966026174, 1.314882579592563 ] } },
{ "type": "Feature", "properties": { "OBJECTID_1": 44, "OBJECTID": 47257, "POSTALCODE": "278319", "OID_": 343, "NUM": 345.0, "TEMPLE": "TAN KONG TIAN TEMPLE", "ADD_": "14 Jalan Kebaya Singapore 278319", "POSCODE": 278319.0, "poscode2": "278319" }, "geometry": { "type": "Point", "coordinates": [ 103.77914272765139, 1.31518298193663 ] } },
{ "type": "Feature", "properties": { "OBJECTID_1": 45, "OBJECTID": 48081, "POSTALCODE": "218638", "OID_": 275, "NUM": 277.0, "TEMPLE": "SAKAYA MUNI BUDDHA GAYA TEMPLE", "ADD_": "366 Race Course Road Singapore 218638", "POSCODE": 218638.0, "poscode2": "218638" }, "geometry": { "type": "Point", "coordinates": [ 103.856990044130157, 1.314713692873568 ] } },
{ "type": "Feature", "properties": { "OBJECTID_1": 46, "OBJECTID": 48090, "POSTALCODE": "217686", "OID_": 113, "NUM": 115.0, "TEMPLE": "GOW HONG TEMPLE", "ADD_": "114 Tessensohn Road Singapore 217686", "POSCODE": 217686.0, "poscode2": "217686" }, "geometry": { "type": "Point", "coordinates": [ 103.855129516784643, 1.314616970217173 ] } },
{ "type": "Feature", "properties": { "OBJECTID_1": 47, "OBJECTID": 48183, "POSTALCODE": "217589", "OID_": 271, "NUM": 273.0, "TEMPLE": "QING DE GONG TEMPLE", "ADD_": "52 Truro Road Singapore 217589", "POSCODE": 217589.0, "poscode2": "217589" }, "geometry": { "type": "Point", "coordinates": [ 103.849535208185728, 1.314345192873247 ] } },
{ "type": "Feature", "properties": { "OBJECTID_1": 48, "OBJECTID": 48272, "POSTALCODE": "308402", "OID_": 136, "NUM": 138.0, "TEMPLE": "Hong Leng Yien Temple", "ADD_": "116 Keng Lee Road", "POSCODE": 308402.0, "poscode2": "308402" }, "geometry": { "type": "Point", "coordinates": [ 103.844713555837359, 1.31413660693562 ] } },
{ "type": "Feature", "properties": { "OBJECTID_1": 49, "OBJECTID": 48372, "POSTALCODE": "387310", "OID_": 80, "NUM": 82.0, "TEMPLE": "CHWEE KANG BEO", "ADD_": "801 Upper Boon Keng Road Singapore 387310", "POSCODE": 387310.0, "poscode2": "387310" }, "geometry": { "type": "Point", "coordinates": [ 103.869987391798531, 1.315396071780526 ] } },
{ "type": "Feature", "properties": { "OBJECTID_1": 50, "OBJECTID": 48457, "POSTALCODE": "218641", "OID_": 213, "NUM": 215.0, "TEMPLE": "Leong San See Temple", "ADD_": "371 Race Course Road", "POSCODE": 218641.0, "poscode2": "218641" }, "geometry": { "type": "Point", "coordinates": [ 103.856588173036073, 1.315460489749285 ] } },
{ "type": "Feature", "properties": { "OBJECTID_1": 51, "OBJECTID": 48541, "POSTALCODE": "218687", "OID_": 7, "NUM": 9.0, "TEMPLE": "BEO SAN HOOD CHOR TEMPLE", "ADD_": "443 Race Course Road Singapore 218687", "POSCODE": 218687.0, "poscode2": "218687" }, "geometry": { "type": "Point", "coordinates": [ 103.85772372772459, 1.316293794437627 ] } },
{ "type": "Feature", "properties": { "OBJECTID_1": 52, "OBJECTID": 48572, "POSTALCODE": "217647", "OID_": 230, "NUM": 232.0, "TEMPLE": "LONG SHAN TANG TEMPLE", "ADD_": "9 Tessensohn Road Singapore 217647", "POSCODE": 217647.0, "poscode2": "217647" }, "geometry": { "type": "Point", "coordinates": [ 103.857532348818097, 1.316411028812752 ] } },
{ "type": "Feature", "properties": { "OBJECTID_1": 53, "OBJECTID": 48643, "POSTALCODE": "218633", "OID_": 130, "NUM": 132.0, "TEMPLE": "HOCK SIEW TONG TEMPLE", "ADD_": "357 Race Course Road Singapore 218633", "POSCODE": 218633.0, "poscode2": "218633" }, "geometry": { "type": "Point", "coordinates": [ 103.856477958192045, 1.314987298342487 ] } },
{ "type": "Feature", "properties": { "OBJECTID_1": 54, "OBJECTID": 48797, "POSTALCODE": "309458", "OID_": 304, "NUM": 306.0, "TEMPLE": "SINGAPORE HAN CLAN TEMPLE", "ADD_": "2 Derbyshire Road Singapore 309458", "POSCODE": 309458.0, "poscode2": "309458" }, "geometry": { "type": "Point", "coordinates": [ 103.845529145681951, 1.315446802249255 ] } },
{ "type": "Feature", "properties": { "OBJECTID_1": 55, "OBJECTID": 50390, "POSTALCODE": "466596", "OID_": 426, "NUM": 428.0, "TEMPLE": "Yuan Ming Si Temple", "ADD_": "631 Upper East Coast Road", "POSCODE": 466596.0, "poscode2": "466596" }, "geometry": { "type": "Point", "coordinates": [ 103.949229247341066, 1.317968677251599 ] } },
{ "type": "Feature", "properties": { "OBJECTID_1": 56, "OBJECTID": 51053, "POSTALCODE": "466793", "OID_": 347, "NUM": 349.0, "TEMPLE": "TEE KWEE HOOD SIA TEMPLE", "ADD_": "15 Sennett Road Singapore 466793", "POSCODE": 466793.0, "poscode2": "466793" }, "geometry": { "type": "Point", "coordinates": [ 103.938526700456066, 1.317156013188423 ] } },
{ "type": "Feature", "properties": { "OBJECTID_1": 57, "OBJECTID": 52339, "POSTALCODE": "419890", "OID_": 361, "NUM": 363.0, "TEMPLE": "THIAN LING CHONG TOH TONG", "ADD_": "472 Changi Road Singapore 419890", "POSCODE": 419890.0, "poscode2": "419890" }, "geometry": { "type": "Point", "coordinates": [ 103.913658653557889, 1.318760743658572 ] } },
{ "type": "Feature", "properties": { "OBJECTID_1": 58, "OBJECTID": 52502, "POSTALCODE": "426248", "OID_": 259, "NUM": 261.0, "TEMPLE": "POH JAY BUDDHIST RESEARCH INSTITUTE", "ADD_": "66 Lorong G Telok Kurau Singapore 426248", "POSCODE": 426248.0, "poscode2": "426248" }, "geometry": { "type": "Point", "coordinates": [ 103.911182946524377, 1.317173528813328 ] } },
{ "type": "Feature", "properties": { "OBJECTID_1": 59, "OBJECTID": 52541, "POSTALCODE": "417204", "OID_": 266, "NUM": 268.0, "TEMPLE": "Pu Zhao Chan Si Temple", "ADD_": "3 Lorong Marican", "POSCODE": 417204.0, "poscode2": "417204" }, "geometry": { "type": "Point", "coordinates": [ 103.908698243397055, 1.31889439600252 ] } },
{ "type": "Feature", "properties": { "OBJECTID_1": 60, "OBJECTID": 52781, "POSTALCODE": "419736", "OID_": 297, "NUM": 299.0, "TEMPLE": "SIAN KENG TONG TEMPLE", "ADD_": "216 Changi Road Singapore 419736", "POSCODE": 419736.0, "poscode2": "419736" }, "geometry": { "type": "Point", "coordinates": [ 103.904177087142898, 1.317329427251082 ] } },
{ "type": "Feature", "properties": { "OBJECTID_1": 61, "OBJECTID": 52863, "POSTALCODE": "389753", "OID_": 99, "NUM": 101.0, "TEMPLE": "FOO HAI CH'AN MONASTERY", "ADD_": "87 Geylang East Avenue 2 Singapore 389753", "POSCODE": 389753.0, "poscode2": "389753" }, "geometry": { "type": "Point", "coordinates": [ 103.888296493378107, 1.318160122564336 ] } },
{ "type": "Feature", "properties": { "OBJECTID_1": 62, "OBJECTID": 52909, "POSTALCODE": "388397", "OID_": 432, "NUM": 434.0, "TEMPLE": "ZHENG JUE SI TEMPLE", "ADD_": "98 Lorong 23 Geylang Singapore 388397", "POSCODE": 388397.0, "poscode2": "388397" }, "geometry": { "type": "Point", "coordinates": [ 103.881397028527772, 1.317668798344982 ] } },
{ "type": "Feature", "properties": { "OBJECTID_1": 63, "OBJECTID": 52912, "POSTALCODE": "388407", "OID_": 92, "NUM": 94.0, "TEMPLE": "EIT SAN TONG TEMPLE", "ADD_": "193 Lorong 23 Geylang Singapore 388407", "POSCODE": 388407.0, "poscode2": "388407" }, "geometry": { "type": "Point", "coordinates": [ 103.880640563683414, 1.317840149907795 ] } },
{ "type": "Feature", "properties": { "OBJECTID_1": 64, "OBJECTID": 54199, "POSTALCODE": "389020", "OID_": 296, "NUM": 298.0, "TEMPLE": "Si Dao Feng Jiao Temple", "ADD_": "638 Lorong 3 Geylang", "POSCODE": 389020.0, "poscode2": "389020" }, "geometry": { "type": "Point", "coordinates": [ 103.873623657426833, 1.318137849126856 ] } },
{ "type": "Feature", "properties": { "OBJECTID_1": 65, "OBJECTID": 54213, "POSTALCODE": "388992", "OID_": 93, "NUM": 95.0, "TEMPLE": "Eit San Tong Temple", "ADD_": "582 Lorong 3 Geylang", "POSCODE": 388992.0, "poscode2": "388992" }, "geometry": { "type": "Point", "coordinates": [ 103.873582216020452, 1.317960251470254 ] } },
{ "type": "Feature", "properties": { "OBJECTID_1": 66, "OBJECTID": 54254, "POSTALCODE": "388960", "OID_": 208, "NUM": 210.0, "TEMPLE": "Leng Hok San Hian Leng Temple Tian Se Tao Chiao", "ADD_": "518 Lorong 3 Geylang", "POSCODE": 388960.0, "poscode2": "388960" }, "geometry": { "type": "Point", "coordinates": [ 103.873422692583006, 1.317664509282565 ] } },
{ "type": "Feature", "properties": { "OBJECTID_1": 67, "OBJECTID": 54297, "POSTALCODE": "389004", "OID_": 386, "NUM": 388.0, "TEMPLE": "Tian Teck Keng Temple", "ADD_": "606 Lorong 3 Geylang", "POSCODE": 389004.0, "poscode2": "389004" }, "geometry": { "type": "Point", "coordinates": [ 103.873140173051468, 1.317882923345394 ] } },
{ "type": "Feature", "properties": { "OBJECTID_1": 68, "OBJECTID": 54531, "POSTALCODE": "307834", "OID_": 214, "NUM": 216.0, "TEMPLE": "LEONG WAH SI TEMPLE", "ADD_": "67 Shrewsbury Road Singapore 307834", "POSCODE": 307834.0, "poscode2": "307834" }, "geometry": { "type": "Point", "coordinates": [ 103.848210423028206, 1.318499993658463 ] } },
{ "type": "Feature", "properties": { "OBJECTID_1": 69, "OBJECTID": 54544, "POSTALCODE": "308081", "OID_": 190, "NUM": 192.0, "TEMPLE": "KUANG CHEE TNG BUDDHIST ASSOCIATION", "ADD_": "125 Moulmein Road Singapore 308081", "POSCODE": 308081.0, "poscode2": "308081" }, "geometry": { "type": "Point", "coordinates": [ 103.84904676677894, 1.318699974127298 ] } },
{ "type": "Feature", "properties": { "OBJECTID_1": 70, "OBJECTID": 54651, "POSTALCODE": "574426", "OID_": 118, "NUM": 120.0, "TEMPLE": "Hai Lam Sua Tee Kong Toa Temple", "ADD_": "175 Upper Thomson Road", "POSCODE": 574426.0, "poscode2": "574426" }, "geometry": { "type": "Point", "coordinates": [ 103.843611938648962, 1.318352813970819 ] } },
{ "type": "Feature", "properties": { "OBJECTID_1": 71, "OBJECTID": 57807, "POSTALCODE": "609341", "OID_": 290, "NUM": 292.0, "TEMPLE": "SHENG HONG TEMPLE", "ADD_": "300 Pandan Gardens Singapore 609341", "POSCODE": 609341.0, "poscode2": "609341" }, "geometry": { "type": "Point", "coordinates": [ 103.750419469812186, 1.321048872566962 ] } },
{ "type": "Feature", "properties": { "OBJECTID_1": 72, "OBJECTID": 58085, "POSTALCODE": "416912", "OID_": 141, "NUM": 143.0, "TEMPLE": "HONG SAN SI TEMPLE", "ADD_": "17 Lorong Melayu Singapore 416912", "POSCODE": 416912.0, "poscode2": "416912" }, "geometry": { "type": "Point", "coordinates": [ 103.910410251211147, 1.320131079597331 ] } },
{ "type": "Feature", "properties": { "OBJECTID_1": 73, "OBJECTID": 58129, "POSTALCODE": "419495", "OID_": 239, "NUM": 241.0, "TEMPLE": "MANGALA VIHARA BUDDHIST TEMPLE", "ADD_": "30 Jalan Eunos Singapore 419495", "POSCODE": 419495.0, "poscode2": "419495" }, "geometry": { "type": "Point", "coordinates": [ 103.905799368394241, 1.319698700690765 ] } },
{ "type": "Feature", "properties": { "OBJECTID_1": 74, "OBJECTID": 58141, "POSTALCODE": "409352", "OID_": 108, "NUM": 110.0, "TEMPLE": "GEYLANG UNITED TEMPLE", "ADD_": "103 Eunos Road 5 Singapore 409352", "POSCODE": 409352.0, "poscode2": "409352" }, "geometry": { "type": "Point", "coordinates": [ 103.896124770729045, 1.319719692878323 ] } },
{ "type": "Feature", "properties": { "OBJECTID_1": 75, "OBJECTID": 58352, "POSTALCODE": "418151", "OID_": 16, "NUM": 18.0, "TEMPLE": "BUDDHIST HERITAGE CENTRE", "ADD_": "27 Jalan Senyum Singapore 418151", "POSCODE": 418151.0, "poscode2": "418151" }, "geometry": { "type": "Point", "coordinates": [ 103.914380130121003, 1.321720544442542 ] } },
{ "type": "Feature", "properties": { "OBJECTID_1": 76, "OBJECTID": 58407, "POSTALCODE": "418152", "OID_": 352, "NUM": 354.0, "TEMPLE": "THE BUDDHIST UNION", "ADD_": "28 Jalan Senyum Singapore 418152", "POSCODE": 418152.0, "poscode2": "418152" }, "geometry": { "type": "Point", "coordinates": [ 103.914778063715175, 1.321853677255262 ] } },
{ "type": "Feature", "properties": { "OBJECTID_1": 77, "OBJECTID": 58409, "POSTALCODE": "419110", "OID_": 210, "NUM": 212.0, "TEMPLE": "Leng Teck Hood Yee Temple", "ADD_": "36 Jalan Kembangan", "POSCODE": 419110.0, "poscode2": "419110" }, "geometry": { "type": "Point", "coordinates": [ 103.914078708245825, 1.321989966317972 ] } },
{ "type": "Feature", "properties": { "OBJECTID_1": 78, "OBJECTID": 58537, "POSTALCODE": "419500", "OID_": 85, "NUM": 87.0, "TEMPLE": "DHARMA CAKRA SOCIETY", "ADD_": "38 Jalan Eunos Singapore 419500", "POSCODE": 419500.0, "poscode2": "419500" }, "geometry": { "type": "Point", "coordinates": [ 103.905525688706632, 1.320713579597907 ] } },
{ "type": "Feature", "properties": { "OBJECTID_1": 79, "OBJECTID": 58578, "POSTALCODE": "417992", "OID_": 401, "NUM": 403.0, "TEMPLE": "Tsan Tan Lim Temple", "ADD_": "20 Jalan Yasin", "POSCODE": 417992.0, "poscode2": "417992" }, "geometry": { "type": "Point", "coordinates": [ 103.90722791136443, 1.321395642098594 ] } },
{ "type": "Feature", "properties": { "OBJECTID_1": 80, "OBJECTID": 62293, "POSTALCODE": "418331", "OID_": 310, "NUM": 312.0, "TEMPLE": "Soon San Teng Temple", "ADD_": "42 Jalan Senang", "POSCODE": 418331.0, "poscode2": "418331" }, "geometry": { "type": "Point", "coordinates": [ 103.916814942623375, 1.323512228037998 ] } },
{ "type": "Feature", "properties": { "OBJECTID_1": 81, "OBJECTID": 63840, "POSTALCODE": "268360", "OID_": 429, "NUM": 431.0, "TEMPLE": "YUN SHAN TEMPLE", "ADD_": "27 Jalan Lim Tai See Singapore 268360", "POSCODE": 268360.0, "poscode2": "268360" }, "geometry": { "type": "Point", "coordinates": [ 103.794182731571709, 1.322099356943056 ] } },
{ "type": "Feature", "properties": { "OBJECTID_1": 82, "OBJECTID": 64619, "POSTALCODE": "289606", "OID_": 187, "NUM": 189.0, "TEMPLE": "KUAN YIN SAN TEMPLE", "ADD_": "398 Dunearn Road Singapore 289606", "POSCODE": 289606.0, "poscode2": "289606" }, "geometry": { "type": "Point", "coordinates": [ 103.811231540181211, 1.324675978039068 ] } },
{ "type": "Feature", "properties": { "OBJECTID_1": 83, "OBJECTID": 64620, "POSTALCODE": "289604", "OID_": 188, "NUM": 190.0, "TEMPLE": "Kuan Yin San Temple", "ADD_": "396 Dunearn Road", "POSCODE": 289604.0, "poscode2": "289604" }, "geometry": { "type": "Point", "coordinates": [ 103.811430715962672, 1.324454724132693 ] } },
{ "type": "Feature", "properties": { "OBJECTID_1": 84, "OBJECTID": 65599, "POSTALCODE": "339835", "OID_": 109, "NUM": 111.0, "TEMPLE": "Giam Loh Tian Temple", "ADD_": "3 Beng Wan Road", "POSCODE": 339835.0, "poscode2": "339835" }, "geometry": { "type": "Point", "coordinates": [ 103.865521048044286, 1.323962560069788 ] } },
{ "type": "Feature", "properties": { "OBJECTID_1": 85, "OBJECTID": 65621, "POSTALCODE": "328172", "OID_": 397, "NUM": 399.0, "TEMPLE": "Tong Tek Buddhist Temple", "ADD_": "1055 Serangoon Road", "POSCODE": 328172.0, "poscode2": "328172" }, "geometry": { "type": "Point", "coordinates": [ 103.863995036324127, 1.323944739757223 ] } },
{ "type": "Feature", "properties": { "OBJECTID_1": 86, "OBJECTID": 65715, "POSTALCODE": "328873", "OID_": 101, "NUM": 103.0, "TEMPLE": "FU DE GONG TEMPLE", "ADD_": "15 Kim Keat Lane Singapore 328873", "POSCODE": 328873.0, "poscode2": "328873" }, "geometry": { "type": "Point", "coordinates": [ 103.853872848814774, 1.324279399913735 ] } },
{ "type": "Feature", "properties": { "OBJECTID_1": 87, "OBJECTID": 65827, "POSTALCODE": "329950", "OID_": 246, "NUM": 248.0, "TEMPLE": "NAN HAI TEMPLE", "ADD_": "11 Ava Road Singapore 329950", "POSCODE": 329950.0, "poscode2": "329950" }, "geometry": { "type": "Point", "coordinates": [ 103.852125942563134, 1.322214450693025 ] } },
{ "type": "Feature", "properties": { "OBJECTID_1": 88, "OBJECTID": 67929, "POSTALCODE": "469416", "OID_": 238, "NUM": 240.0, "TEMPLE": "MAN FATT LAM BUDDHIST TEMPLE", "ADD_": "211 Bedok Road Singapore 469416", "POSCODE": 469416.0, "poscode2": "469416" }, "geometry": { "type": "Point", "coordinates": [ 103.950246544216952, 1.326681454603431 ] } },
{ "type": "Feature", "properties": { "OBJECTID_1": 89, "OBJECTID": 68321, "POSTALCODE": "417474", "OID_": 95, "NUM": 97.0, "TEMPLE": "Fa Shi Lin Temple", "ADD_": "1 Lengkong Satu", "POSCODE": 417474.0, "poscode2": "417474" }, "geometry": { "type": "Point", "coordinates": [ 103.912820134025878, 1.325619923352463 ] } },
{ "type": "Feature", "properties": { "OBJECTID_1": 90, "OBJECTID": 68324, "POSTALCODE": "417705", "OID_": 4, "NUM": 6.0, "TEMPLE": "BAN RUO JIANG TANG TEMPLE", "ADD_": "28 Lengkong Dua Singapore 417705", "POSCODE": 417705.0, "poscode2": "417705" }, "geometry": { "type": "Point", "coordinates": [ 103.912491540275653, 1.325523060071134 ] } },
{ "type": "Feature", "properties": { "OBJECTID_1": 91, "OBJECTID": 68850, "POSTALCODE": "409966", "OID_": 38, "NUM": 40.0, "TEMPLE": "Cheng Hong Siang Tng Kew Huang Keng Combined Temple", "ADD_": "30 Arumugam Road", "POSCODE": 409966.0, "poscode2": "409966" }, "geometry": { "type": "Point", "coordinates": [ 103.892197407444144, 1.325926978040286 ] } },
{ "type": "Feature", "properties": { "OBJECTID_1": 92, "OBJECTID": 68863, "POSTALCODE": "409960", "OID_": 236, "NUM": 238.0, "TEMPLE": "Lorong Koo Chye Sheng Hong Temple", "ADD_": "15 Arumugam Road", "POSCODE": 409960.0, "poscode2": "409960" }, "geometry": { "type": "Point", "coordinates": [ 103.891857966037605, 1.326195720228043 ] } },
{ "type": "Feature", "properties": { "OBJECTID_1": 93, "OBJECTID": 69176, "POSTALCODE": "329515", "OID_": 253, "NUM": 255.0, "TEMPLE": "PHANG PHENG MEI TEMPLE", "ADD_": "12 Jalan Ampas Singapore 329515", "POSCODE": 329515.0, "poscode2": "329515" }, "geometry": { "type": "Point", "coordinates": [ 103.852398598813409, 1.326936935072581 ] } },
{ "type": "Feature", "properties": { "OBJECTID_1": 94, "OBJECTID": 69177, "POSTALCODE": "329515", "OID_": 253, "NUM": 255.0, "TEMPLE": "PHANG PHENG MEI TEMPLE", "ADD_": "12 Jalan Ampas Singapore 329515", "POSCODE": 329515.0, "poscode2": "329515" }, "geometry": { "type": "Point", "coordinates": [ 103.852250751156987, 1.327064759291375 ] } },
{ "type": "Feature", "properties": { "OBJECTID_1": 95, "OBJECTID": 69205, "POSTALCODE": "329318", "OID_": 22, "NUM": 24.0, "TEMPLE": "CHAN CHOR BIN FATT TONG TEMPLE", "ADD_": "2 Jalan Kemaman Singapore 329318", "POSCODE": 329318.0, "poscode2": "329318" }, "geometry": { "type": "Point", "coordinates": [ 103.849853801936035, 1.32639268897816 ] } },
{ "type": "Feature", "properties": { "OBJECTID_1": 96, "OBJECTID": 69212, "POSTALCODE": "329578", "OID_": 366, "NUM": 368.0, "TEMPLE": "THONG TECK SIAN TONG LIAN SIN SIA TEMPLE", "ADD_": "1A Boon Teck Road Singapore 329578", "POSCODE": 329578.0, "poscode2": "329578" }, "geometry": { "type": "Point", "coordinates": [ 103.849172223810342, 1.326504591322077 ] } },
{ "type": "Feature", "properties": { "OBJECTID_1": 97, "OBJECTID": 69233, "POSTALCODE": "329333", "OID_": 339, "NUM": 341.0, "TEMPLE": "Tai Pei Yuan Temple", "ADD_": "7 Jalan Kemaman", "POSCODE": 329333.0, "poscode2": "329333" }, "geometry": { "type": "Point", "coordinates": [ 103.85123689568718, 1.327125692885147 ] } },
{ "type": "Feature", "properties": { "OBJECTID_1": 98, "OBJECTID": 69293, "POSTALCODE": "329136", "OID_": 206, "NUM": 208.0, "TEMPLE": "LENG ERN JEE TEMPLE", "ADD_": "15 Jalan Rajah Singapore 329136", "POSCODE": 329136.0, "poscode2": "329136" }, "geometry": { "type": "Point", "coordinates": [ 103.847640965996447, 1.327276153822766 ] } },
{ "type": "Feature", "properties": { "OBJECTID_1": 99, "OBJECTID": 69397, "POSTALCODE": "329854", "OID_": 198, "NUM": 200.0, "TEMPLE": "KWANG IM TNG TEMPLE", "ADD_": "525 Balestier Road Singapore 329854", "POSCODE": 329854.0, "poscode2": "329854" }, "geometry": { "type": "Point", "coordinates": [ 103.846185184745025, 1.325695661633915 ] } },
{ "type": "Feature", "properties": { "OBJECTID_1": 100, "OBJECTID": 70227, "POSTALCODE": "289613", "OID_": 256, "NUM": 258.0, "TEMPLE": "PHOR BENG SEE TEMPLE", "ADD_": "438 Dunearn Road Singapore 289613", "POSCODE": 289613.0, "poscode2": "289613" }, "geometry": { "type": "Point", "coordinates": [ 103.809637751117293, 1.325374997570918 ] } },
{ "type": "Feature", "properties": { "OBJECTID_1": 101, "OBJECTID": 72541, "POSTALCODE": "469145", "OID_": 250, "NUM": 252.0, "TEMPLE": "PALELAI BUDDHIST TEMPLE", "ADD_": "49 Bedok Walk Singapore 469145", "POSCODE": 469145.0, "poscode2": "469145" }, "geometry": { "type": "Point", "coordinates": [ 103.946769403588746, 1.330861927263584 ] } },
{ "type": "Feature", "properties": { "OBJECTID_1": 102, "OBJECTID": 72674, "POSTALCODE": "469020", "OID_": 21, "NUM": 23.0, "TEMPLE": "Chai Chee United Temple", "ADD_": "6 Chai Chee Lane", "POSCODE": 469020.0, "poscode2": "469020" }, "geometry": { "type": "Point", "coordinates": [ 103.919053501219139, 1.328663642105425 ] } },
{ "type": "Feature", "properties": { "OBJECTID_1": 103, "OBJECTID": 72740, "POSTALCODE": "416610", "OID_": 55, "NUM": 57.0, "TEMPLE": "CHIA HUNG BOO TEMPLE", "ADD_": "42 Senang Crescent Singapore 416610", "POSCODE": 416610.0, "poscode2": "416610" }, "geometry": { "type": "Point", "coordinates": [ 103.918401977781116, 1.327777583510738 ] } },
{ "type": "Feature", "properties": { "OBJECTID_1": 104, "OBJECTID": 73395, "POSTALCODE": "409018", "OID_": 83, "NUM": 85.0, "TEMPLE": "Da Sheng Kong Chinese Temple", "ADD_": "148 Paya Lebar Road", "POSCODE": 409018.0, "poscode2": "409018" }, "geometry": { "type": "Point", "coordinates": [ 103.891053618380511, 1.328582259292773 ] } },
{ "type": "Feature", "properties": { "OBJECTID_1": 105, "OBJECTID": 73436, "POSTALCODE": "409040", "OID_": 389, "NUM": 391.0, "TEMPLE": "TIEN SEN TUA TEMPLE", "ADD_": "146C Paya Lebar Road Singapore 409040", "POSCODE": 409040.0, "poscode2": "409040" }, "geometry": { "type": "Point", "coordinates": [ 103.89110674338076, 1.328077157729865 ] } },
{ "type": "Feature", "properties": { "OBJECTID_1": 106, "OBJECTID": 73437, "POSTALCODE": "409040", "OID_": 389, "NUM": 391.0, "TEMPLE": "TIEN SEN TUA TEMPLE", "ADD_": "146C Paya Lebar Road Singapore 409040", "POSCODE": 409040.0, "poscode2": "409040" }, "geometry": { "type": "Point", "coordinates": [ 103.89098787619298, 1.328164450698637 ] } },
{ "type": "Feature", "properties": { "OBJECTID_1": 107, "OBJECTID": 73440, "POSTALCODE": "409019", "OID_": 105, "NUM": 107.0, "TEMPLE": "Fung Huo Yuan Temple", "ADD_": "150 Paya Lebar Road", "POSCODE": 409019.0, "poscode2": "409019" }, "geometry": { "type": "Point", "coordinates": [ 103.890775196505274, 1.328286466323789 ] } },
{ "type": "Feature", "properties": { "OBJECTID_1": 108, "OBJECTID": 73441, "POSTALCODE": "409019", "OID_": 105, "NUM": 107.0, "TEMPLE": "Fung Huo Yuan Temple", "ADD_": "150 Paya Lebar Road", "POSCODE": 409019.0, "poscode2": "409019" }, "geometry": { "type": "Point", "coordinates": [ 103.890572571505118, 1.32837686476131 ] } },
{ "type": "Feature", "properties": { "OBJECTID_1": 109, "OBJECTID": 74645, "POSTALCODE": "319941", "OID_": 218, "NUM": 220.0, "TEMPLE": "LIAN SHAN SHUANG LIN MONASTERY", "ADD_": "184E Jalan Toa Payoh Singapore 319941", "POSCODE": 319941.0, "poscode2": "319941" }, "geometry": { "type": "Point", "coordinates": [ 103.857282544130385, 1.330404282731877 ] } },
{ "type": "Feature", "properties": { "OBJECTID_1": 110, "OBJECTID": 74662, "POSTALCODE": "319944", "OID_": 294, "NUM": 296.0, "TEMPLE": "SHUANG LIN CHENG HUANG TEMPLE", "ADD_": "184 Jalan Toa Payoh Singapore 319944", "POSCODE": 319944.0, "poscode2": "319944" }, "geometry": { "type": "Point", "coordinates": [ 103.856442274598407, 1.32992709523154 ] } },
{ "type": "Feature", "properties": { "OBJECTID_1": 111, "OBJECTID": 74665, "POSTALCODE": "329514", "OID_": 97, "NUM": 99.0, "TEMPLE": "Feeha Cheng Seah Temple & Old Folks Home", "ADD_": "11 Jalan Ampas", "POSCODE": 329514.0, "poscode2": "329514" }, "geometry": { "type": "Point", "coordinates": [ 103.851833450375352, 1.327261923354058 ] } },
{ "type": "Feature", "properties": { "OBJECTID_1": 112, "OBJECTID": 74748, "POSTALCODE": "327873", "OID_": 19, "NUM": 21.0, "TEMPLE": "BURMESE BUDDHIST TEMPLE", "ADD_": "14 Tai Gin Road Singapore 327873", "POSCODE": 327873.0, "poscode2": "327873" }, "geometry": { "type": "Point", "coordinates": [ 103.846882626152023, 1.328469614761332 ] } },
{ "type": "Feature", "properties": { "OBJECTID_1": 113, "OBJECTID": 74758, "POSTALCODE": "329385", "OID_": 50, "NUM": 52.0, "TEMPLE": "CHER LI TEMPLE", "ADD_": "77 Jalan Dusun Singapore 329385", "POSCODE": 329385.0, "poscode2": "329385" }, "geometry": { "type": "Point", "coordinates": [ 103.843217266773536, 1.328816349136787 ] } },
{ "type": "Feature", "properties": { "OBJECTID_1": 114, "OBJECTID": 77922, "POSTALCODE": "469718", "OID_": 285, "NUM": 287.0, "TEMPLE": "SEU TECK SEAN TONG YIAN SIN SIA TEMPLE", "ADD_": "335 Bedok North Avenue 3 Singapore 469718", "POSCODE": 469718.0, "poscode2": "469718" }, "geometry": { "type": "Point", "coordinates": [ 103.933923594982957, 1.333089747578299 ] } },
{ "type": "Feature", "properties": { "OBJECTID_1": 115, "OBJECTID": 78340, "POSTALCODE": "368233", "OID_": 189, "NUM": 191.0, "TEMPLE": "Kuan Yin Temple", "ADD_": "560 Macpherson Road", "POSCODE": 368233.0, "poscode2": "368233" }, "geometry": { "type": "Point", "coordinates": [ 103.885208110562644, 1.332506493671417 ] } },
{ "type": "Feature", "properties": { "OBJECTID_1": 116, "OBJECTID": 79139, "POSTALCODE": "368113", "OID_": 148, "NUM": 150.0, "TEMPLE": "Huang Lao Xian Shi Temple", "ADD_": "378 Macpherson Road", "POSCODE": 368113.0, "poscode2": "368113" }, "geometry": { "type": "Point", "coordinates": [ 103.87987075118275, 1.331260661639078 ] } },
{ "type": "Feature", "properties": { "OBJECTID_1": 117, "OBJECTID": 79751, "POSTALCODE": "319385", "OID_": 258, "NUM": 260.0, "TEMPLE": "POH CHUNG TIAN CHOR SIAN TONG TEMPLE", "ADD_": "201 Lorong 6 Toa Payoh Singapore 319385", "POSCODE": 319385.0, "poscode2": "319385" }, "geometry": { "type": "Point", "coordinates": [ 103.856111520691798, 1.331967165546018 ] } },
{ "type": "Feature", "properties": { "OBJECTID_1": 118, "OBJECTID": 81663, "POSTALCODE": "489948", "OID_": 180, "NUM": 182.0, "TEMPLE": "Koo Chye Bo Seng Hong Temple San Qing Gong", "ADD_": "21 Bedok North Avenue 4", "POSCODE": 489948.0, "poscode2": "489948" }, "geometry": { "type": "Point", "coordinates": [ 103.949719161404005, 1.3351246967988 ] } },
{ "type": "Feature", "properties": { "OBJECTID_1": 119, "OBJECTID": 81681, "POSTALCODE": "488112", "OID_": 42, "NUM": 44.0, "TEMPLE": "Cheng Lim See Temple", "ADD_": "10 Jalan Soo Bee", "POSCODE": 488112.0, "poscode2": "488112" }, "geometry": { "type": "Point", "coordinates": [ 103.952129137968768, 1.336223454612423 ] } },
{ "type": "Feature", "properties": { "OBJECTID_1": 120, "OBJECTID": 81695, "POSTALCODE": "486115", "OID_": 79, "NUM": 81.0, "TEMPLE": "Chwee Bee Temple", "ADD_": "1 Bedok North Street 5", "POSCODE": 486115.0, "poscode2": "486115" }, "geometry": { "type": "Point", "coordinates": [ 103.94942964577865, 1.335708962424405 ] } },
{ "type": "Feature", "properties": { "OBJECTID_1": 121, "OBJECTID": 81699, "POSTALCODE": "485874", "OID_": 47, "NUM": 49.0, "TEMPLE": "Cheo Lim Chin Sun Liap Hup Keng Temple", "ADD_": "7 Bedok North Street 5", "POSCODE": 485874.0, "poscode2": "485874" }, "geometry": { "type": "Point", "coordinates": [ 103.949146427028325, 1.335416024924143 ] } },
{ "type": "Feature", "properties": { "OBJECTID_1": 122, "OBJECTID": 81718, "POSTALCODE": "469695", "OID_": 376, "NUM": 378.0, "TEMPLE": "TIAN KONG BUDDHIST TEMPLE", "ADD_": "51 Bedok North Avenue 4 Singapore 469695", "POSCODE": 469695.0, "poscode2": "469695" }, "geometry": { "type": "Point", "coordinates": [ 103.949127989528449, 1.33599073976842 ] } },
{ "type": "Feature", "properties": { "OBJECTID_1": 123, "OBJECTID": 82464, "POSTALCODE": "489176", "OID_": 351, "NUM": 353.0, "TEMPLE": "THE BUDDHIST FOO YEUN LIM TEMPLE", "ADD_": "3 Jalan Angin Laut Singapore 489176", "POSCODE": 489176.0, "poscode2": "489176" }, "geometry": { "type": "Point", "coordinates": [ 103.955902173128493, 1.337606415551249 ] } },
{ "type": "Feature", "properties": { "OBJECTID_1": 124, "OBJECTID": 84952, "POSTALCODE": "319377", "OID_": 394, "NUM": 396.0, "TEMPLE": "TOA PAYOH SEU TECK SEAN TONG TEMPLE", "ADD_": "2 Lorong 6 Toa Payoh Singapore 319377", "POSCODE": 319377.0, "poscode2": "319377" }, "geometry": { "type": "Point", "coordinates": [ 103.851624899593901, 1.338535356958289 ] } },
{ "type": "Feature", "properties": { "OBJECTID_1": 125, "OBJECTID": 84953, "POSTALCODE": "319318", "OID_": 29, "NUM": 31.0, "TEMPLE": "Chee Tian Keng Temple", "ADD_": "177 Lorong 7 Toa Payoh", "POSCODE": 319318.0, "poscode2": "319318" }, "geometry": { "type": "Point", "coordinates": [ 103.856433657410889, 1.338602595239536 ] } },
{ "type": "Feature", "properties": { "OBJECTID_1": 126, "OBJECTID": 85607, "POSTALCODE": "598588", "OID_": 6, "NUM": 8.0, "TEMPLE": "Bee Low See Temple", "ADD_": "71b Jalan Jurong Kechil", "POSCODE": 598588.0, "poscode2": "598588" }, "geometry": { "type": "Point", "coordinates": [ 103.773269571395815, 1.339094985865017 ] } },
{ "type": "Feature", "properties": { "OBJECTID_1": 127, "OBJECTID": 86222, "POSTALCODE": "547460", "OID_": 195, "NUM": 197.0, "TEMPLE": "Kwan Siang Tng Buddhist Temple", "ADD_": "70 Lowland Road", "POSCODE": 547460.0, "poscode2": "547460" }, "geometry": { "type": "Point", "coordinates": [ 103.882017770715947, 1.362120021042699 ] } },
{ "type": "Feature", "properties": { "OBJECTID_1": 128, "OBJECTID": 86319, "POSTALCODE": "546415", "OID_": 217, "NUM": 219.0, "TEMPLE": "LIAN CHI JING SHE TEMPLE", "ADD_": "14E Richards Avenue Singapore 546415", "POSCODE": 546415.0, "poscode2": "546415" }, "geometry": { "type": "Point", "coordinates": [ 103.882544247278929, 1.361100700729253 ] } },
{ "type": "Feature", "properties": { "OBJECTID_1": 129, "OBJECTID": 86328, "POSTALCODE": "546416", "OID_": 220, "NUM": 222.0, "TEMPLE": "Lin Chee Cheng Sia Temple", "ADD_": "14f Richards Avenue", "POSCODE": 546416.0, "poscode2": "546416" }, "geometry": { "type": "Point", "coordinates": [ 103.882674044154044, 1.361001638229141 ] } },
{ "type": "Feature", "properties": { "OBJECTID_1": 130, "OBJECTID": 87690, "POSTALCODE": "574117", "OID_": 178, "NUM": 180.0, "TEMPLE": "Kong Meng San Phor Kark See Temple", "ADD_": "88 Bright Hill Road", "POSCODE": 574117.0, "poscode2": "574117" }, "geometry": { "type": "Point", "coordinates": [ 103.835779149579196, 1.361041704635511 ] } },
{ "type": "Feature", "properties": { "OBJECTID_1": 131, "OBJECTID": 87701, "POSTALCODE": "575719", "OID_": 402, "NUM": 404.0, "TEMPLE": "TSE THO AUM TEMPLE", "ADD_": "601 Sin Ming Drive Singapore 575719", "POSCODE": 575719.0, "poscode2": "575719" }, "geometry": { "type": "Point", "coordinates": [ 103.83759548551825, 1.362004110886403 ] } },
{ "type": "Feature", "properties": { "OBJECTID_1": 132, "OBJECTID": 87708, "POSTALCODE": "575719", "OID_": 402, "NUM": 404.0, "TEMPLE": "TSE THO AUM TEMPLE", "ADD_": "601 Sin Ming Drive Singapore 575719", "POSCODE": 575719.0, "poscode2": "575719" }, "geometry": { "type": "Point", "coordinates": [ 103.838457192550379, 1.361416911666993 ] } },
{ "type": "Feature", "properties": { "OBJECTID_1": 133, "OBJECTID": 87860, "POSTALCODE": "576442", "OID_": 204, "NUM": 206.0, "TEMPLE": "Leang San King Temple", "ADD_": "55 Lorong Puntong", "POSCODE": 576442.0, "poscode2": "576442" }, "geometry": { "type": "Point", "coordinates": [ 103.831139993324825, 1.361496985885935 ] } },
{ "type": "Feature", "properties": { "OBJECTID_1": 134, "OBJECTID": 88054, "POSTALCODE": "538817", "OID_": 368, "NUM": 370.0, "TEMPLE": "TIAN DE TEMPLE", "ADD_": "109 Hougang Avenue 5 Singapore 538817", "POSCODE": 538817.0, "poscode2": "538817" }, "geometry": { "type": "Point", "coordinates": [ 103.895580641822335, 1.365485560108482 ] } },
{ "type": "Feature", "properties": { "OBJECTID_1": 135, "OBJECTID": 88720, "POSTALCODE": "549853", "OID_": 202, "NUM": 204.0, "TEMPLE": "LAM HAI POH TOH SAN TEMPLE", "ADD_": "825B Chuan Hoe Avenue Singapore 549853", "POSCODE": 549853.0, "poscode2": "549853" }, "geometry": { "type": "Point", "coordinates": [ 103.876108848835429, 1.365019860889163 ] } },
{ "type": "Feature", "properties": { "OBJECTID_1": 136, "OBJECTID": 89545, "POSTALCODE": "569254", "OID_": 264, "NUM": 266.0, "TEMPLE": "POTONG PASIR JOINT TEMPLE", "ADD_": "8 Ang Mo Kio Street 44 Singapore 569254", "POSCODE": 569254.0, "poscode2": "569254" }, "geometry": { "type": "Point", "coordinates": [ 103.857921157412306, 1.365487321827231 ] } },
{ "type": "Feature", "properties": { "OBJECTID_1": 137, "OBJECTID": 89575, "POSTALCODE": "576778", "OID_": 170, "NUM": 172.0, "TEMPLE": "KIEW LEE TONG TEMPLE", "ADD_": "5 Jalan Tambur Singapore 576778", "POSCODE": 576778.0, "poscode2": "576778" }, "geometry": { "type": "Point", "coordinates": [ 103.828504965978652, 1.364820095264008 ] } },
{ "type": "Feature", "properties": { "OBJECTID_1": 138, "OBJECTID": 90746, "POSTALCODE": "649518", "OID_": 11, "NUM": 13.0, "TEMPLE": "BOO TONG SAN TEMPLE", "ADD_": "39 Jurong West Avenue 1 Singapore 649518", "POSCODE": 649518.0, "poscode2": "649518" }, "geometry": { "type": "Point", "coordinates": [ 103.721125942441063, 1.350437356969394 ] } },
{ "type": "Feature", "properties": { "OBJECTID_1": 139, "OBJECTID": 91531, "POSTALCODE": "534648", "OID_": 156, "NUM": 158.0, "TEMPLE": "Jiu Huang Da Di Temple", "ADD_": "779a Upper Serangoon Road", "POSCODE": 534648.0, "poscode2": "534648" }, "geometry": { "type": "Point", "coordinates": [ 103.87900868477567, 1.355149544473818 ] } },
{ "type": "Feature", "properties": { "OBJECTID_1": 140, "OBJECTID": 91676, "POSTALCODE": "538748", "OID_": 57, "NUM": 59.0, "TEMPLE": "CHIN FOOK MEOW", "ADD_": "20 Hougang Street 11 Singapore 538748", "POSCODE": 538748.0, "poscode2": "538748" }, "geometry": { "type": "Point", "coordinates": [ 103.880458805870717, 1.352937407752904 ] } },
{ "type": "Feature", "properties": { "OBJECTID_1": 141, "OBJECTID": 93564, "POSTALCODE": "649369", "OID_": 159, "NUM": 161.0, "TEMPLE": "JURONG TEMPLE", "ADD_": "741 Jurong West Street 42 Singapore 649369", "POSCODE": 649369.0, "poscode2": "649369" }, "geometry": { "type": "Point", "coordinates": [ 103.723662586974797, 1.352823466346535 ] } },
{ "type": "Feature", "properties": { "OBJECTID_1": 142, "OBJECTID": 93930, "POSTALCODE": "577220", "OID_": 388, "NUM": 390.0, "TEMPLE": "Tien Kong Thun Temple", "ADD_": "68 Jalan Pemimpin", "POSCODE": 577220.0, "poscode2": "577220" }, "geometry": { "type": "Point", "coordinates": [ 103.843869122242893, 1.351614524939293 ] } },
{ "type": "Feature", "properties": { "OBJECTID_1": 143, "OBJECTID": 94218, "POSTALCODE": "575741", "OID_": 251, "NUM": 253.0, "TEMPLE": "PAO KWAN FOH TANG TEMPLE", "ADD_": "21 Shunfu Road Singapore 575741", "POSCODE": 575741.0, "poscode2": "575741" }, "geometry": { "type": "Point", "coordinates": [ 103.836480669111097, 1.351807216345549 ] } },
{ "type": "Feature", "properties": { "OBJECTID_1": 144, "OBJECTID": 95764, "POSTALCODE": "545782", "OID_": 353, "NUM": 355.0, "TEMPLE": "THE JAYAMANGAI BUDDHIST TEMPLE", "ADD_": "24 Sirat Road Singapore 545782", "POSCODE": 545782.0, "poscode2": "545782" }, "geometry": { "type": "Point", "coordinates": [ 103.876661614460886, 1.356652189006354 ] } },
{ "type": "Feature", "properties": { "OBJECTID_1": 145, "OBJECTID": 96733, "POSTALCODE": "575662", "OID_": 381, "NUM": 383.0, "TEMPLE": "Tian Leong Keng Temple", "ADD_": "101 Sector B Sin Ming Industrial Estate", "POSCODE": 575662.0, "poscode2": "575662" }, "geometry": { "type": "Point", "coordinates": [ 103.84057759489599, 1.357685860882441 ] } },
{ "type": "Feature", "properties": { "OBJECTID_1": 146, "OBJECTID": 96734, "POSTALCODE": "575660", "OID_": 365, "NUM": 367.0, "TEMPLE": "Thomson Temple", "ADD_": "99 Sector B Sin Ming Industrial Estate", "POSCODE": 575660.0, "poscode2": "575660" }, "geometry": { "type": "Point", "coordinates": [ 103.840299532395875, 1.357811657757566 ] } },
{ "type": "Feature", "properties": { "OBJECTID_1": 147, "OBJECTID": 96938, "POSTALCODE": "538841", "OID_": 435, "NUM": 437.0, "TEMPLE": "ZI YUN KAI JI KONG TEMPLE", "ADD_": "56 Hougang Avenue 3 Singapore 538841", "POSCODE": 538841.0, "poscode2": "538841" }, "geometry": { "type": "Point", "coordinates": [ 103.892723923069752, 1.358837036664681 ] } },
{ "type": "Feature", "properties": { "OBJECTID_1": 148, "OBJECTID": 96939, "POSTALCODE": "538844", "OID_": 31, "NUM": 33.0, "TEMPLE": "Chee Tong Temple", "ADD_": "62 Hougang Avenue 3", "POSCODE": 538844.0, "poscode2": "538844" }, "geometry": { "type": "Point", "coordinates": [ 103.892178798069153, 1.358803079633333 ] } },
{ "type": "Feature", "properties": { "OBJECTID_1": 149, "OBJECTID": 98912, "POSTALCODE": "529394", "OID_": 341, "NUM": 343.0, "TEMPLE": "TAMPINES CHINESE TEMPLE", "ADD_": "25 Tampines Street 21 Singapore 529394", "POSCODE": 529394.0, "poscode2": "529394" }, "geometry": { "type": "Point", "coordinates": [ 103.949751434841403, 1.355784606974339 ] } },
{ "type": "Feature", "properties": { "OBJECTID_1": 150, "OBJECTID": 99146, "POSTALCODE": "507078", "OID_": 417, "NUM": 419.0, "TEMPLE": "YAN KIT VILLAGE CHINESE TEMPLE", "ADD_": "130 Mariam Way Singapore 507078", "POSCODE": 507078.0, "poscode2": "507078" }, "geometry": { "type": "Point", "coordinates": [ 103.968595009077887, 1.359364954633918 ] } },
{ "type": "Feature", "properties": { "OBJECTID_1": 151, "OBJECTID": 100726, "POSTALCODE": "649000", "OID_": 154, "NUM": 156.0, "TEMPLE": "JIN FU GONG TEMPLE", "ADD_": "20 Jurong West Street 92 Singapore 649000", "POSCODE": 649000.0, "poscode2": "649000" }, "geometry": { "type": "Point", "coordinates": [ 103.690094446318483, 1.340684255397889 ] } },
{ "type": "Feature", "properties": { "OBJECTID_1": 152, "OBJECTID": 101387, "POSTALCODE": "659523", "OID_": 134, "NUM": 136.0, "TEMPLE": "Hock Tong Temple", "ADD_": "557 Bukit Batok Street 23", "POSCODE": 659523.0, "poscode2": "659523" }, "geometry": { "type": "Point", "coordinates": [ 103.75700186434949, 1.340042028834773 ] } },
{ "type": "Feature", "properties": { "OBJECTID_1": 153, "OBJECTID": 102712, "POSTALCODE": "598114", "OID_": 257, "NUM": 259.0, "TEMPLE": "PHOU TAI KOK TEMPLE", "ADD_": "8 Lorong Kilat Singapore 598114", "POSCODE": 598114.0, "poscode2": "598114" }, "geometry": { "type": "Point", "coordinates": [ 103.773809083115225, 1.341096091335714 ] } },
{ "type": "Feature", "properties": { "OBJECTID_1": 154, "OBJECTID": 104065, "POSTALCODE": "518473", "OID_": 197, "NUM": 199.0, "TEMPLE": "KWANG HUA BUDDHIST MONASTERY", "ADD_": "794D Tampines Road Singapore 518473", "POSCODE": 518473.0, "poscode2": "518473" }, "geometry": { "type": "Point", "coordinates": [ 103.929843594979104, 1.367835743704291 ] } },
{ "type": "Feature", "properties": { "OBJECTID_1": 155, "OBJECTID": 104067, "POSTALCODE": "518472", "OID_": 120, "NUM": 122.0, "TEMPLE": "HEAN THUAN CHONG TOH TONG TEMPLE", "ADD_": "790 Tampines Road Singapore 518472", "POSCODE": 518472.0, "poscode2": "518472" }, "geometry": { "type": "Point", "coordinates": [ 103.929622485604057, 1.367696317922992 ] } },
{ "type": "Feature", "properties": { "OBJECTID_1": 156, "OBJECTID": 104075, "POSTALCODE": "529786", "OID_": 169, "NUM": 171.0, "TEMPLE": "Kew Sian King Temple", "ADD_": "7 Tampines Avenue", "POSCODE": 529786.0, "poscode2": "529786" }, "geometry": { "type": "Point", "coordinates": [ 103.927739950446096, 1.366685110890728 ] } },
{ "type": "Feature", "properties": { "OBJECTID_1": 157, "OBJECTID": 104987, "POSTALCODE": "555891", "OID_": 3, "NUM": 5.0, "TEMPLE": "Ban Hock (teng Ann Chi) Temple", "ADD_": "489 Serangoon North Avenue 1", "POSCODE": 555891.0, "poscode2": "555891" }, "geometry": { "type": "Point", "coordinates": [ 103.872617673050854, 1.368660431205171 ] } },
{ "type": "Feature", "properties": { "OBJECTID_1": 158, "OBJECTID": 105567, "POSTALCODE": "569732", "OID_": 33, "NUM": 35.0, "TEMPLE": "CHEK SIAN TNG TEMPLE", "ADD_": "10 Ang Mo Kio Avenue 10 Singapore 569732", "POSCODE": 569732.0, "poscode2": "569732" }, "geometry": { "type": "Point", "coordinates": [ 103.857050661317714, 1.368017552298227 ] } },
{ "type": "Feature", "properties": { "OBJECTID_1": 159, "OBJECTID": 105581, "POSTALCODE": "569974", "OID_": 137, "NUM": 139.0, "TEMPLE": "Hong Lim Jiong Temple", "ADD_": "791 Ang Mo Kio Avenue 1", "POSCODE": 569974.0, "poscode2": "569974" }, "geometry": { "type": "Point", "coordinates": [ 103.838644239425435, 1.366173856984119 ] } },
{ "type": "Feature", "properties": { "OBJECTID_1": 160, "OBJECTID": 105934, "POSTALCODE": "555862", "OID_": 434, "NUM": 436.0, "TEMPLE": "ZHONG YI TIAN MING TEMPLE", "ADD_": "21 Serangoon North Avenue 3 Singapore 555862", "POSCODE": 555862.0, "poscode2": "555862" }, "geometry": { "type": "Point", "coordinates": [ 103.869925606642141, 1.373200177303147 ] } },
{ "type": "Feature", "properties": { "OBJECTID_1": 161, "OBJECTID": 105944, "POSTALCODE": "555890", "OID_": 122, "NUM": 124.0, "TEMPLE": "HIANG FOO SIANG TEMPLE", "ADD_": "485 Serangoon North Avenue 1 Singapore 555890", "POSCODE": 555890.0, "poscode2": "555890" }, "geometry": { "type": "Point", "coordinates": [ 103.872737301957329, 1.368881524955384 ] } },
{ "type": "Feature", "properties": { "OBJECTID_1": 162, "OBJECTID": 107296, "POSTALCODE": "699816", "OID_": 211, "NUM": 213.0, "TEMPLE": "Leong Hwa Chan Si Temple & Partners", "ADD_": "950 Old Choa Chu Kang Road", "POSCODE": 699816.0, "poscode2": "699816" }, "geometry": { "type": "Point", "coordinates": [ 103.688305536160556, 1.371028540582358 ] } },
{ "type": "Feature", "properties": { "OBJECTID_1": 163, "OBJECTID": 107504, "POSTALCODE": "659086", "OID_": 404, "NUM": 406.0, "TEMPLE": "TUA PEK KONG TEMPLE", "ADD_": "817 Bukit Batok West Avenue 5 Singapore 659086", "POSCODE": 659086.0, "poscode2": "659086" }, "geometry": { "type": "Point", "coordinates": [ 103.749263215904818, 1.367559333547831 ] } },
{ "type": "Feature", "properties": { "OBJECTID_1": 164, "OBJECTID": 107666, "POSTALCODE": "519455", "OID_": 276, "NUM": 278.0, "TEMPLE": "SAKYA TENPHEL LING TEMPLE", "ADD_": "5 Pasir Ris Drive 4 Singapore 519455", "POSCODE": 519455.0, "poscode2": "519455" }, "geometry": { "type": "Point", "coordinates": [ 103.959182981725348, 1.36916779839305 ] } },
{ "type": "Feature", "properties": { "OBJECTID_1": 165, "OBJECTID": 110432, "POSTALCODE": "546637", "OID_": 265, "NUM": 267.0, "TEMPLE": "PU TI BUDDHIST TEMPLE", "ADD_": "121C Punggol Road Singapore 546637", "POSCODE": 546637.0, "poscode2": "546637" }, "geometry": { "type": "Point", "coordinates": [ 103.896310505104339, 1.380483860903553 ] } },
{ "type": "Feature", "properties": { "OBJECTID_1": 166, "OBJECTID": 110932, "POSTALCODE": "569162", "OID_": 73, "NUM": 75.0, "TEMPLE": "CHU SHENG TEMPLE", "ADD_": "48 Ang Mo Kio Street 61 Singapore 569162", "POSCODE": 569162.0, "poscode2": "569162" }, "geometry": { "type": "Point", "coordinates": [ 103.841463575365594, 1.380758251528789 ] } },
{ "type": "Feature", "properties": { "OBJECTID_1": 167, "OBJECTID": 111017, "POSTALCODE": "569161", "OID_": 337, "NUM": 339.0, "TEMPLE": "SWEE KOW KUAN TEMPLE", "ADD_": "46 Ang Mo Kio Street 61 Singapore 569161", "POSCODE": 569161.0, "poscode2": "569161" }, "geometry": { "type": "Point", "coordinates": [ 103.841556649584504, 1.380572083559969 ] } },
{ "type": "Feature", "properties": { "OBJECTID_1": 168, "OBJECTID": 112364, "POSTALCODE": "688799", "OID_": 61, "NUM": 63.0, "TEMPLE": "CHOA CHU KANG COMBINED TEMPLE", "ADD_": "2 Teck Whye Lane Singapore 688799", "POSCODE": 688799.0, "poscode2": "688799" }, "geometry": { "type": "Point", "coordinates": [ 103.753362754971079, 1.380811146060239 ] } },
{ "type": "Feature", "properties": { "OBJECTID_1": 169, "OBJECTID": 112365, "POSTALCODE": "688800", "OID_": 209, "NUM": 211.0, "TEMPLE": "LENG HUP SAN CHEE CHEA TEMPLE", "ADD_": "4 Teck Whye Lane Singapore 688800", "POSCODE": 688800.0, "poscode2": "688800" }, "geometry": { "type": "Point", "coordinates": [ 103.753392059658609, 1.380569763247479 ] } },
{ "type": "Feature", "properties": { "OBJECTID_1": 170, "OBJECTID": 112423, "POSTALCODE": "679971", "OID_": 39, "NUM": 41.0, "TEMPLE": "CHENG HWA CHER SIAH TEMPLE", "ADD_": "21 Bangkit Road Singapore 679971", "POSCODE": 679971.0, "poscode2": "679971" }, "geometry": { "type": "Point", "coordinates": [ 103.773481934677307, 1.377964196838775 ] } },
{ "type": "Feature", "properties": { "OBJECTID_1": 171, "OBJECTID": 113936, "POSTALCODE": "545087", "OID_": 67, "NUM": 69.0, "TEMPLE": "CHONG GHEE TEMPLE", "ADD_": "80 Rivervale Crescent Singapore 545087", "POSCODE": 545087.0, "poscode2": "545087" }, "geometry": { "type": "Point", "coordinates": [ 103.907181981676786, 1.38918353669294 ] } },
{ "type": "Feature", "properties": { "OBJECTID_1": 172, "OBJECTID": 115981, "POSTALCODE": "569112", "OID_": 225, "NUM": 227.0, "TEMPLE": "LIUXUN SANHEMIAO TEMPLE", "ADD_": "4 Ang Mo Kio Street 63 Singapore 569112", "POSCODE": 569112.0, "poscode2": "569112" }, "geometry": { "type": "Point", "coordinates": [ 103.848603243341017, 1.385351122626844 ] } },
{ "type": "Feature", "properties": { "OBJECTID_1": 173, "OBJECTID": 117203, "POSTALCODE": "677739", "OID_": 0, "NUM": 1.0, "TEMPLE": "AN LE TEMPLE", "ADD_": "11 Senja Road Singapore 677739", "POSCODE": 677739.0, "poscode2": "677739" }, "geometry": { "type": "Point", "coordinates": [ 103.760699618259139, 1.382325946842798 ] } },
{ "type": "Feature", "properties": { "OBJECTID_1": 174, "OBJECTID": 117580, "POSTALCODE": "679003", "OID_": 54, "NUM": 56.0, "TEMPLE": "CHI HOCK KENG TEMPLE", "ADD_": "15 Fajar Road Singapore 679003", "POSCODE": 679003.0, "poscode2": "679003" }, "geometry": { "type": "Point", "coordinates": [ 103.769249965923393, 1.383199603093601 ] } },
{ "type": "Feature", "properties": { "OBJECTID_1": 175, "OBJECTID": 117764, "POSTALCODE": "545060", "OID_": 247, "NUM": 249.0, "TEMPLE": "NANYANG THONG HONG SIANG THNG TEMPLE", "ADD_": "63 Anchorvale Walk Singapore 545060", "POSCODE": 545060.0, "poscode2": "545060" }, "geometry": { "type": "Point", "coordinates": [ 103.890038243379706, 1.393513548415797 ] } },
{ "type": "Feature", "properties": { "OBJECTID_1": 176, "OBJECTID": 117770, "POSTALCODE": "545073", "OID_": 267, "NUM": 269.0, "TEMPLE": "Puat Jit Buddhist Temple", "ADD_": "61 Anchorvale Link", "POSCODE": 545073.0, "poscode2": "545073" }, "geometry": { "type": "Point", "coordinates": [ 103.890098895723497, 1.393142825759128 ] } },
{ "type": "Feature", "properties": { "OBJECTID_1": 177, "OBJECTID": 117771, "POSTALCODE": "545071", "OID_": 25, "NUM": 27.0, "TEMPLE": "CHEE HOON KOG TEMPLE", "ADD_": "67 Anchorvale Link Singapore 545071", "POSCODE": 545071.0, "poscode2": "545071" }, "geometry": { "type": "Point", "coordinates": [ 103.890159243379799, 1.393425501540548 ] } },
{ "type": "Feature", "properties": { "OBJECTID_1": 178, "OBJECTID": 119504, "POSTALCODE": "689334", "OID_": 62, "NUM": 64.0, "TEMPLE": "CHOA CHU KANG LIAN HE TEMPLE", "ADD_": "11 Choa Chu Kang Street 51 Singapore 689334", "POSCODE": 689334.0, "poscode2": "689334" }, "geometry": { "type": "Point", "coordinates": [ 103.742574977617323, 1.391369868726201 ] } },
{ "type": "Feature", "properties": { "OBJECTID_1": 179, "OBJECTID": 120499, "POSTALCODE": "769060", "OID_": 88, "NUM": 90.0, "TEMPLE": "Dong Shan Temple", "ADD_": "362 Yishun Avenue 3", "POSCODE": 769060.0, "poscode2": "769060" }, "geometry": { "type": "Point", "coordinates": [ 103.832932001139, 1.422324935161328 ] } },
{ "type": "Feature", "properties": { "OBJECTID_1": 180, "OBJECTID": 122190, "POSTALCODE": "759532", "OID_": 81, "NUM": 83.0, "TEMPLE": "Chwee Leng Temple", "ADD_": "64 Goodlink Park", "POSCODE": 759532.0, "poscode2": "759532" }, "geometry": { "type": "Point", "coordinates": [ 103.824718012850155, 1.426998704696985 ] } },
{ "type": "Feature", "properties": { "OBJECTID_1": 181, "OBJECTID": 122674, "POSTALCODE": "768678", "OID_": 244, "NUM": 246.0, "TEMPLE": "Nam Hong Siang Theon Temple", "ADD_": "475 Yishun Ring Road", "POSCODE": 768678.0, "poscode2": "768678" }, "geometry": { "type": "Point", "coordinates": [ 103.82812105582201, 1.433498161734235 ] } },
{ "type": "Feature", "properties": { "OBJECTID_1": 182, "OBJECTID": 122752, "POSTALCODE": "768891", "OID_": 423, "NUM": 425.0, "TEMPLE": "Yishun Town Combined Temple", "ADD_": "19 Yishun Avenue 9", "POSCODE": 768891.0, "poscode2": "768891" }, "geometry": { "type": "Point", "coordinates": [ 103.841396579271816, 1.433756825797047 ] } },
{ "type": "Feature", "properties": { "OBJECTID_1": 183, "OBJECTID": 122857, "POSTALCODE": "768676", "OID_": 76, "NUM": 78.0, "TEMPLE": "Chu Siang Tong Temple", "ADD_": "8 Yishun Ring Road", "POSCODE": 768676.0, "poscode2": "768676" }, "geometry": { "type": "Point", "coordinates": [ 103.833849071452335, 1.43464293126658 ] } },
{ "type": "Feature", "properties": { "OBJECTID_1": 184, "OBJECTID": 122867, "POSTALCODE": "768682", "OID_": 68, "NUM": 70.0, "TEMPLE": "CHONG PANG COMBINED TEMPLE", "ADD_": "561 Yishun Ring Road Singapore 768682", "POSCODE": 768682.0, "poscode2": "768682" }, "geometry": { "type": "Point", "coordinates": [ 103.83243036051357, 1.43430702501621 ] } },
{ "type": "Feature", "properties": { "OBJECTID_1": 185, "OBJECTID": 122942, "POSTALCODE": "768769", "OID_": 27, "NUM": 29.0, "TEMPLE": "CHEE LENG LIAN HE TEMPLE", "ADD_": "525 Yishun Industrial Park A Singapore 768769", "POSCODE": 768769.0, "poscode2": "768769" }, "geometry": { "type": "Point", "coordinates": [ 103.83548743864128, 1.442894939086727 ] } },
{ "type": "Feature", "properties": { "OBJECTID_1": 186, "OBJECTID": 122950, "POSTALCODE": "768770", "OID_": 128, "NUM": 130.0, "TEMPLE": "HOCK HUAT KENG TEMPLE", "ADD_": "523 Yishun Industrial Park A Singapore 768770", "POSCODE": 768770.0, "poscode2": "768770" }, "geometry": { "type": "Point", "coordinates": [ 103.835651692547742, 1.442649087523989 ] } },
{ "type": "Feature", "properties": { "OBJECTID_1": 187, "OBJECTID": 122952, "POSTALCODE": "768771", "OID_": 26, "NUM": 28.0, "TEMPLE": "CHEE HOON SUN KONG TEMPLE", "ADD_": "527 Yishun Industrial Park A Singapore 768771", "POSCODE": 768771.0, "poscode2": "768771" }, "geometry": { "type": "Point", "coordinates": [ 103.835612227703905, 1.443232110962072 ] } },
{ "type": "Feature", "properties": { "OBJECTID_1": 188, "OBJECTID": 123422, "POSTALCODE": "739565", "OID_": 32, "NUM": 34.0, "TEMPLE": "CHEK CHAI LONG CHEUN TEMPLE", "ADD_": "33 Kranji Loop Singapore 739565", "POSCODE": 739565.0, "poscode2": "739565" }, "geometry": { "type": "Point", "coordinates": [ 103.753450001064948, 1.435495607048665 ] } },
{ "type": "Feature", "properties": { "OBJECTID_1": 189, "OBJECTID": 123596, "POSTALCODE": "738580", "OID_": 241, "NUM": 243.0, "TEMPLE": "METTA HOME", "ADD_": "2 Woodlands Street 31 Singapore 738580", "POSCODE": 738580.0, "poscode2": "738580" }, "geometry": { "type": "Point", "coordinates": [ 103.775518782335496, 1.428857255479954 ] } },
{ "type": "Feature", "properties": { "OBJECTID_1": 190, "OBJECTID": 123850, "POSTALCODE": "739254", "OID_": 289, "NUM": 291.0, "TEMPLE": "SHANG DI MIAO CHAI KONG TEMPLE", "ADD_": "10 Marsiling Industrial Estate Road 3 Singapore 739254", "POSCODE": 739254.0, "poscode2": "739254" }, "geometry": { "type": "Point", "coordinates": [ 103.782649962029666, 1.438890896114174 ] } },
{ "type": "Feature", "properties": { "OBJECTID_1": 191, "OBJECTID": 124443, "POSTALCODE": "739255", "OID_": 144, "NUM": 146.0, "TEMPLE": "Hong Tho Bilw Temple", "ADD_": "31 Marsiling Industrial Estate Road 3", "POSCODE": 739255.0, "poscode2": "739255" }, "geometry": { "type": "Point", "coordinates": [ 103.782471766716981, 1.439207028927115 ] } },
{ "type": "Feature", "properties": { "OBJECTID_1": 192, "OBJECTID": 125046, "POSTALCODE": "757701", "OID_": 60, "NUM": 62.0, "TEMPLE": "Ching Chwee Temple", "ADD_": "11 Woodlands Industrial Park E8", "POSCODE": 757701.0, "poscode2": "757701" }, "geometry": { "type": "Point", "coordinates": [ 103.8005389932963, 1.451946704720172 ] } },
{ "type": "Feature", "properties": { "OBJECTID_1": 193, "OBJECTID": 125047, "POSTALCODE": "757721", "OID_": 408, "NUM": 410.0, "TEMPLE": "WAN LI LIAN HE DIAN TEMPLE", "ADD_": "19 Woodlands Industrial Park E4 Singapore 757721", "POSCODE": 757721.0, "poscode2": "757721" }, "geometry": { "type": "Point", "coordinates": [ 103.795202219853763, 1.450399950812425 ] } },
{ "type": "Feature", "properties": { "OBJECTID_1": 194, "OBJECTID": 126137, "POSTALCODE": "649923", "OID_": 406, "NUM": 408.0, "TEMPLE": "TUI SAN TEMPLE", "ADD_": "118 Boon Lay Drive Singapore 649923", "POSCODE": 649923.0, "poscode2": "649923" }, "geometry": { "type": "Point", "coordinates": [ 103.713045489308513, 1.34451747415136 ] } },
{ "type": "Feature", "properties": { "OBJECTID_1": 195, "OBJECTID": 126147, "POSTALCODE": "648370", "OID_": 84, "NUM": 86.0, "TEMPLE": "DAO TIAN KENG TEMPLE", "ADD_": "2 Jurong West Street 76 Singapore 648370", "POSCODE": 648370.0, "poscode2": "648370" }, "geometry": { "type": "Point", "coordinates": [ 103.703330516643234, 1.346891884309798 ] } },
{ "type": "Feature", "properties": { "OBJECTID_1": 196, "OBJECTID": 126200, "POSTALCODE": "649407", "OID_": 160, "NUM": 162.0, "TEMPLE": "Jurong West United Temple", "ADD_": "60 Jurong West Street 41", "POSCODE": 649407.0, "poscode2": "649407" }, "geometry": { "type": "Point", "coordinates": [ 103.719804544002386, 1.349270884312091 ] } },
{ "type": "Feature", "properties": { "OBJECTID_1": 197, "OBJECTID": 126235, "POSTALCODE": "648349", "OID_": 424, "NUM": 426.0, "TEMPLE": "YU HUANG TIAN COMBINED TEMPLE", "ADD_": "12 Jurong West Street 76 Singapore 648349", "POSCODE": 648349.0, "poscode2": "648349" }, "geometry": { "type": "Point", "coordinates": [ 103.703252157268253, 1.347298294466498 ] } },
{ "type": "Feature", "properties": { "OBJECTID_1": 198, "OBJECTID": 126239, "POSTALCODE": "648369", "OID_": 307, "NUM": 309.0, "TEMPLE": "SOKA CULTURE CENTRE", "ADD_": "8 Jurong West Street 76 Singapore 648369", "POSCODE": 648369.0, "poscode2": "648369" }, "geometry": { "type": "Point", "coordinates": [ 103.703690290081113, 1.347540310091631 ] } },
{ "type": "Feature", "properties": { "OBJECTID_1": 199, "OBJECTID": 126548, "POSTALCODE": "528890", "OID_": 342, "NUM": 344.0, "TEMPLE": "TAMPINES SOKA CENTRE", "ADD_": "5 Tampines Street 92 Singapore 528890", "POSCODE": 528890.0, "poscode2": "528890" }, "geometry": { "type": "Point", "coordinates": [ 103.943188434835406, 1.344421380401286 ] } },
{ "type": "Feature", "properties": { "OBJECTID_1": 200, "OBJECTID": 126708, "POSTALCODE": "659632", "OID_": 222, "NUM": 224.0, "TEMPLE": "LING HONG TONG & TUA PEH KONG", "ADD_": "10 Bukit Batok Street 21 Singapore 659632", "POSCODE": 659632.0, "poscode2": "659632" }, "geometry": { "type": "Point", "coordinates": [ 103.750677684656182, 1.345998595246442 ] } },
{ "type": "Feature", "properties": { "OBJECTID_1": 201, "OBJECTID": 126709, "POSTALCODE": "659630", "OID_": 412, "NUM": 414.0, "TEMPLE": "WU LUI SIEN SZE TEMPLE", "ADD_": "6 Bukit Batok Street 21 Singapore 659630", "POSCODE": 659630.0, "poscode2": "659630" }, "geometry": { "type": "Point", "coordinates": [ 103.750701321374891, 1.346207931184153 ] } },
{ "type": "Feature", "properties": { "OBJECTID_1": 202, "OBJECTID": 126712, "POSTALCODE": "658963", "OID_": 279, "NUM": 281.0, "TEMPLE": "SATTHA PUCHANIYARAM BUDDHIST TEMPLE", "ADD_": "395 Bukit Batok West Avenue 8 Singapore 658963", "POSCODE": 658963.0, "poscode2": "658963" }, "geometry": { "type": "Point", "coordinates": [ 103.740123301833876, 1.346878759309845 ] } },
{ "type": "Feature", "properties": { "OBJECTID_1": 203, "OBJECTID": 126936, "POSTALCODE": "658964", "OID_": 115, "NUM": 117.0, "TEMPLE": "GUILIN COMBINED TEMPLE", "ADD_": "397 Bukit Batok West Avenue 8 Singapore 658964", "POSCODE": 658964.0, "poscode2": "658964" }, "geometry": { "type": "Point", "coordinates": [ 103.739892856521067, 1.347233763216479 ] } },
{ "type": "Feature", "properties": { "OBJECTID_1": 204, "OBJECTID": 128133, "POSTALCODE": "359108", "OID_": 240, "NUM": 242.0, "TEMPLE": "MEOW IM KOK YUEN", "ADD_": "9 Jalan Lateh Singapore 359108", "POSCODE": 359108.0, "poscode2": "359108" }, "geometry": { "type": "Point", "coordinates": [ 103.869800907423382, 1.34579098977764 ] } },
{ "type": "Feature", "properties": { "OBJECTID_1": 205, "OBJECTID": 128667, "POSTALCODE": "576498", "OID_": 200, "NUM": 202.0, "TEMPLE": "KWONG WAI SIEW PECK SAN THENG", "ADD_": "50 Kampong San Teng Singapore 576498", "POSCODE": 576498.0, "poscode2": "576498" }, "geometry": { "type": "Point", "coordinates": [ 103.843621848805242, 1.345023942901832 ] } },
{ "type": "Feature", "properties": { "OBJECTID_1": 206, "OBJECTID": 129008, "POSTALCODE": "538886", "OID_": 135, "NUM": 137.0, "TEMPLE": "HONG LAI SZE", "ADD_": "150 Hougang Avenue 1 Singapore 538886", "POSCODE": 538886.0, "poscode2": "538886" }, "geometry": { "type": "Point", "coordinates": [ 103.88727332540833, 1.349134560093148 ] } },
{ "type": "Feature", "properties": { "OBJECTID_1": 207, "OBJECTID": 129239, "POSTALCODE": "536358", "OID_": 164, "NUM": 166.0, "TEMPLE": "KANCANARAMA BUDDHIST TEMPLE", "ADD_": "2 Lorong Ong Lye Singapore 536358", "POSCODE": 536358.0, "poscode2": "536358" }, "geometry": { "type": "Point", "coordinates": [ 103.879645872276171, 1.348761013217768 ] } },
{ "type": "Feature", "properties": { "OBJECTID_1": 208, "OBJECTID": 129312, "POSTALCODE": "534974", "OID_": 94, "NUM": 96.0, "TEMPLE": "FA HUA MONASTERY", "ADD_": "381 Upper Paya Lebar Road Singapore 534974", "POSCODE": 534974.0, "poscode2": "534974" }, "geometry": { "type": "Point", "coordinates": [ 103.879617958213601, 1.349335274937005 ] } },
{ "type": "Feature", "properties": { "OBJECTID_1": 209, "OBJECTID": 129374, "POSTALCODE": "534974", "OID_": 94, "NUM": 96.0, "TEMPLE": "FA HUA MONASTERY", "ADD_": "381 Upper Paya Lebar Road Singapore 534974", "POSCODE": 534974.0, "poscode2": "534974" }, "geometry": { "type": "Point", "coordinates": [ 103.879376926963573, 1.349140985874499 ] } },
{ "type": "Feature", "properties": { "OBJECTID_1": 210, "OBJECTID": 129405, "POSTALCODE": "536190", "OID_": 216, "NUM": 218.0, "TEMPLE": "Lian Chee Kek Buddhist Temple", "ADD_": "36b Paya Lebar Crescent", "POSCODE": 536190.0, "poscode2": "536190" }, "geometry": { "type": "Point", "coordinates": [ 103.882103161340979, 1.34919048978071 ] } },
{ "type": "Feature", "properties": { "OBJECTID_1": 211, "OBJECTID": 129456, "POSTALCODE": "536067", "OID_": 243, "NUM": 245.0, "TEMPLE": "NAM ANN SIANG THEON TEMPLE", "ADD_": "36E Paya Lebar Crescent Singapore 536067", "POSCODE": 536067.0, "poscode2": "536067" }, "geometry": { "type": "Point", "coordinates": [ 103.882256946497364, 1.348564032748868 ] } },
{ "type": "Feature", "properties": { "OBJECTID_1": 212, "OBJECTID": 0, "POSTALCODE": "058840", "OID_": 0, "NUM": 0.0, "TEMPLE": "Buddha Tooth Relic Temple", "ADD_": "288 South Bridge Road", "POSCODE": 58840.0, "poscode2": "058840" }, "geometry": { "type": "Point", "coordinates": [ 103.839676791357761, 1.275583857335391 ] } }
]
}
