{
"type": "FeatureCollection",
"name": "sg_religious_henghua",
"crs": { "type": "name", "properties": { "name": "urn:ogc:def:crs:OGC:1.3:CRS84" } },
"features": [
{ "type": "Feature", "properties": { "OBJECTID_1": 1, "OBJECTID": 8339, "FEA_ID": 92460.0, "BUILDING_N": "AN REN GONG", "POSTAL_COD": "387985", "ADDRESS_TY": "S", "Shape_Leng": 86.266131290700002, "ID": 10049 }, "geometry": { "type": "Point", "coordinates": [ 103.887482802767522, 1.315190688959035 ] } },
{ "type": "Feature", "properties": { "OBJECTID_1": 2, "OBJECTID": 3516, "FEA_ID": 54209.0, "BUILDING_N": "TOWNSVILLE PRIMARY SCHOOL", "POSTAL_COD": "569730", "ADDRESS_TY": "S", "Shape_Leng": 1114.3442006600001, "ID": 3478 }, "geometry": { "type": "Point", "coordinates": [ 103.853526286304017, 1.360441486509143 ] } },
{ "type": "Feature", "properties": { "OBJECTID_1": 3, "OBJECTID": 20192, "FEA_ID": 110765.0, "BUILDING_N": "CHEE LENG LIAN HE MIAO", "POSTAL_COD": "768769", "ADDRESS_TY": "S", "Shape_Leng": 121.819476728, "ID": 20173 }, "geometry": { "type": "Point", "coordinates": [ 103.835934927051994, 1.443473561232912 ] } },
{ "type": "Feature", "properties": { "OBJECTID_1": 4, "OBJECTID": 8409, "FEA_ID": 104155.0, "BUILDING_N": "HOCK SIEW TONG TEMPLE", "POSTAL_COD": "218633", "ADDRESS_TY": "S", "Shape_Leng": 61.227605624100001, "ID": 8276 }, "geometry": { "type": "Point", "coordinates": [ 103.856425186100623, 1.314896514296322 ] } },
{ "type": "Feature", "properties": { "OBJECTID_1": 5, "OBJECTID": 8272, "FEA_ID": 93944.0, "BUILDING_N": "THE HINDU CENTRE", "POSTAL_COD": "218935", "ADDRESS_TY": "S", "Shape_Leng": 55.709598112899997, "ID": 9165 }, "geometry": { "type": "Point", "coordinates": [ 103.852679977624334, 1.314218546868889 ] } },
{ "type": "Feature", "properties": { "OBJECTID_1": 6, "OBJECTID": 7180, "FEA_ID": 98399.0, "BUILDING_N": " ", "POSTAL_COD": "357961", "ADDRESS_TY": "S", "Shape_Leng": 54.519844366199997, "ID": 7123 }, "geometry": { "type": "Point", "coordinates": [ 103.870739100067439, 1.346136844220634 ] } },
{ "type": "Feature", "properties": { "OBJECTID_1": 7, "OBJECTID": 33767, "FEA_ID": 132348.0, "BUILDING_N": "TAI KIM INDUSTRIAL ESTATE", "POSTAL_COD": "537089", "ADDRESS_TY": "I", "Shape_Leng": 62.4073923, "ID": 33672 }, "geometry": { "type": "Point", "coordinates": [ 103.891195202244305, 1.340838184802981 ] } },
{ "type": "Feature", "properties": { "OBJECTID_1": 8, "OBJECTID": 14688, "FEA_ID": 69478.0, "BUILDING_N": "KIEW LEE TONG TEMPLE", "POSTAL_COD": "576778", "ADDRESS_TY": "S", "Shape_Leng": 117.54876834, "ID": 14745 }, "geometry": { "type": "Point", "coordinates": [ 103.828667718969456, 1.365085119742228 ] } },
{ "type": "Feature", "properties": { "OBJECTID_1": 9, "OBJECTID": 16993, "FEA_ID": 7168.0, "BUILDING_N": "JURONG TEMPLE", "POSTAL_COD": "649369", "ADDRESS_TY": "K", "Shape_Leng": 172.23689053000001, "ID": 16993 }, "geometry": { "type": "Point", "coordinates": [ 103.724255467695585, 1.352899941993734 ] } },
{ "type": "Feature", "properties": { "OBJECTID_1": 10, "OBJECTID": 18987, "FEA_ID": 75256.0, "BUILDING_N": "JURONG WEST UNITED TEMPLE", "POSTAL_COD": "649407", "ADDRESS_TY": "S", "Shape_Leng": 117.667875224, "ID": 18930 }, "geometry": { "type": "Point", "coordinates": [ 103.720074394527018, 1.349259682314575 ] } },
{ "type": "Feature", "properties": { "OBJECTID_1": 11, "OBJECTID": 17958, "FEA_ID": 29660.0, "BUILDING_N": "SENG WAH HOTEL", "POSTAL_COD": "398673", "ADDRESS_TY": "S", "Shape_Leng": 57.708768689199999, "ID": 17863 }, "geometry": { "type": "Point", "coordinates": [ 103.882329977486592, 1.312275856099213 ] } },
{ "type": "Feature", "properties": { "OBJECTID_1": 12, "OBJECTID": 15613, "FEA_ID": 40386.0, "BUILDING_N": "SIAN KENG TONG TEMPLE", "POSTAL_COD": "419736", "ADDRESS_TY": "S", "Shape_Leng": 54.4263386354, "ID": 15556 }, "geometry": { "type": "Point", "coordinates": [ 103.904098393987198, 1.317121070486295 ] } },
{ "type": "Feature", "properties": { "OBJECTID_1": 13, "OBJECTID": 14936, "FEA_ID": 91593.0, "BUILDING_N": "KATHO CHENGSIA TEMPLE", "POSTAL_COD": "388026", "ADDRESS_TY": "S", "Shape_Leng": 82.258190658399997, "ID": 14822 }, "geometry": { "type": "Point", "coordinates": [ 103.887164332747886, 1.314788336078334 ] } },
{ "type": "Feature", "properties": { "OBJECTID_1": 14, "OBJECTID": 3617, "FEA_ID": 116279.0, "BUILDING_N": "TIOH HIN CHO TEMPLE", "POSTAL_COD": "426774", "ADDRESS_TY": "S", "Shape_Leng": 48.500554617200002, "ID": 3579 }, "geometry": { "type": "Point", "coordinates": [ 103.90503602941294, 1.315984329450836 ] } },
{ "type": "Feature", "properties": { "OBJECTID_1": 15, "OBJECTID": 16053, "FEA_ID": 24880.0, "BUILDING_N": "QING YUN COMBINED TEMPLE", "POSTAL_COD": "538748", "ADDRESS_TY": "S", "Shape_Leng": 95.562994589799999, "ID": 15996 }, "geometry": { "type": "Point", "coordinates": [ 103.880348000197628, 1.352889706722237 ] } }
]
}
