{
"type": "FeatureCollection",
"name": "sg_lianhemiao_main",
"crs": { "type": "name", "properties": { "name": "urn:ogc:def:crs:OGC:1.3:CRS84" } },
"features": [
{ "type": "Feature", "properties": { "OBJECTID": 1, "Official_N": "Ci Yi Tang Jiang Jun Miao (United Temple)", "United_Tem": "Ci Yi Tang(1 of 3)", "Compose": 3, "Address": "3302 Clementi Service Rd / \n3302 Commonwealth Avenue West", "Postal_Cod": "129582" }, "geometry": { "type": "Point", "coordinates": [ 103.761624959714041, 1.322248159308844 ] } },
{ "type": "Feature", "properties": { "OBJECTID": 2, "Official_N": "Shang Di Miao Ji Gong Tan (United Temple)", "United_Tem": "Shang Di Miao Ji Gong Tan(1 of 3)", "Compose": 3, "Address": "10 Marsiling Industrial Estate Road 3", "Postal_Cod": "739254" }, "geometry": { "type": "Point", "coordinates": [ 103.78294055035343, 1.439516716798729 ] } },
{ "type": "Feature", "properties": { "OBJECTID": 3, "Official_N": "Teng San Tian Hock Temple (United Temple )", "United_Tem": "Zhen Shan Tian Fo Gong (1 of 6)", "Compose": 6, "Address": "489 Serangoon North Avenue 1", "Postal_Cod": "555891" }, "geometry": { "type": "Point", "coordinates": [ 103.87253430432213, 1.368836880071749 ] } },
{ "type": "Feature", "properties": { "OBJECTID": 4, "Official_N": "Zhong Bang Lian He Gong (United Temple)", "United_Tem": "Zhong Bang Lian He Gong(1 of 5)", "Compose": 5, "Address": "561 Yishun Ring Road , #01-04", "Postal_Cod": "768682" }, "geometry": { "type": "Point", "coordinates": [ 103.832704229609419, 1.434662605280653 ] } },
{ "type": "Feature", "properties": { "OBJECTID": 5, "Official_N": "Fu Quan Si Shui Mei Gong Lian He Miao (United Temple)", "United_Tem": "Fu Quan Si Shui Mei Gong Lian He Miao(1 of 3)", "Compose": 3, "Address": "1 Bedok North Street 5", "Postal_Cod": "486115" }, "geometry": { "type": "Point", "coordinates": [ 103.949316356644331, 1.335182950760756 ] } },
{ "type": "Feature", "properties": { "OBJECTID": 6, "Official_N": "Ba Ye Li Ba Lian He Miao (United Temple)", "United_Tem": "Ba Ye Li Ba Lian He Miao (1 of 5)", "Compose": 5, "Address": "146 - 150 Paya Lebar Road", "Postal_Cod": "409018" }, "geometry": { "type": "Point", "coordinates": [ 103.890918323120687, 1.328368889822041 ] } },
{ "type": "Feature", "properties": { "OBJECTID": 7, "Official_N": "Ci Hui Tang / Hun Yuan Dao Tan (Combined)", "United_Tem": "Ci Hui Tang / Hun Yuan Dao Tan(1 of 3 )", "Compose": 3, "Address": "Blk 772 Pasir Ris Street 72, #12-368", "Postal_Cod": "510772" }, "geometry": { "type": "Point", "coordinates": [ 103.936825027916271, 1.375256262999921 ] } },
{ "type": "Feature", "properties": { "OBJECTID": 8, "Official_N": "See Thian Tao Temple", "United_Tem": "Xi Tian Dao Miao(1 of 3)", "Compose": 3, "Address": "557 Bukit Batok Street 23", "Postal_Cod": "659523" }, "geometry": { "type": "Point", "coordinates": [ 103.757110598662194, 1.340004241655846 ] } },
{ "type": "Feature", "properties": { "OBJECTID": 9, "Official_N": "San Ba Wang Cheng Bang Lian He Miao (United Temple)", "United_Tem": "San Ba Wang Cheng Bang Lian He Miao(1 of 4)", "Compose": 4, "Address": "475 Yishun Ring Road", "Postal_Cod": "768678" }, "geometry": { "type": "Point", "coordinates": [ 103.827997486192174, 1.433634100540694 ] } },
{ "type": "Feature", "properties": { "OBJECTID": 10, "Official_N": "Hong Lai Sze (Unied Temple)", "United_Tem": "Peng Lai Si (1 of 9)", "Compose": 9, "Address": "150 Hougang Avenue 1", "Postal_Cod": "538886" }, "geometry": { "type": "Point", "coordinates": [ 103.88717063191649, 1.349046782011925 ] } },
{ "type": "Feature", "properties": { "OBJECTID": 11, "Official_N": "Guang Fu Gong (United Temple)", "United_Tem": "Guang Fu Gong (1 of 4)", "Compose": 4, "Address": "101 Telok Blangah Drive", "Postal_Cod": "109260" }, "geometry": { "type": "Point", "coordinates": [ 103.807195201616281, 1.274319673622667 ] } },
{ "type": "Feature", "properties": { "OBJECTID": 12, "Official_N": "Xuan Fu Xian Miao (United Temple )", "United_Tem": "Xuan Fu Xian Miao(1 of 4)", "Compose": 4, "Address": "485 Serangoon North Avenue 1", "Postal_Cod": "555890" }, "geometry": { "type": "Point", "coordinates": [ 103.872952909470342, 1.368899346619586 ] } },
{ "type": "Feature", "properties": { "OBJECTID": 13, "Official_N": "Cheng Feng Lian He Miao  (United Temple)", "United_Tem": "Cheng Feng Lian He Miao(1 of 3)", "Compose": 3, "Address": "15 Arumugam Rd", "Postal_Cod": "409960" }, "geometry": { "type": "Point", "coordinates": [ 103.891854803389336, 1.326202108898515 ] } },
{ "type": "Feature", "properties": { "OBJECTID": 14, "Official_N": "Jin Bao Fo Si / Tian Gong Wu Lao Sheng Dian (Combined)", "United_Tem": "Jin Bao Fo Si / Tian Gong Wu Lao Sheng Dian(1 of 3)", "Compose": 3, "Address": "2 Lorong Ong Lye", "Postal_Cod": "536358" }, "geometry": { "type": "Point", "coordinates": [ 103.879643429165256, 1.348666684416861 ] } },
{ "type": "Feature", "properties": { "OBJECTID": 15, "Official_N": "Zhong Yi Tian Ming Miao (United Temple )", "United_Tem": "Zhong Yi Tian Ming Miao(1 of 6)", "Compose": 6, "Address": "25 Serangoon North Avenue 3", "Postal_Cod": "555862" }, "geometry": { "type": "Point", "coordinates": [ 103.86988944130583, 1.373036600854417 ] } },
{ "type": "Feature", "properties": { "OBJECTID": 16, "Official_N": "Long He Shan Qi Zhai Miao (Unitede Temple )", "United_Tem": "Long He Shan Qi Zhai Miao(1 of 3)", "Compose": 3, "Address": "4 Teck Whye Lane", "Postal_Cod": "688800" }, "geometry": { "type": "Point", "coordinates": [ 103.753518850433309, 1.380680379871743 ] } },
{ "type": "Feature", "properties": { "OBJECTID": 17, "Official_N": "Yu Huang Dian Lian He Gong (Unied Temple)", "United_Tem": "Yu Huang Dian Lian He Gong (1 of 4 )", "Compose": 4, "Address": "12 Jurong West Street 76", "Postal_Cod": "648349" }, "geometry": { "type": "Point", "coordinates": [ 103.703362293061929, 1.347409014172119 ] } },
{ "type": "Feature", "properties": { "OBJECTID": 18, "Official_N": "Shi Lin Jin Shan Lian He Gong  (United Temple)", "United_Tem": "Shi Lin Jin Shan Lian He Gong(1 of 4)", "Compose": 4, "Address": "7-11Bedok North Street 5, Ave 4.", "Postal_Cod": "485874" }, "geometry": { "type": "Point", "coordinates": [ 103.94883531618926, 1.335270262637607 ] } },
{ "type": "Feature", "properties": { "OBJECTID": 19, "Official_N": "Cheng Huang Miao (Yang Tao Yuan ) (Unied Temple)", "United_Tem": "Cheng Huang Miao (Yang Tao Yuan )(1 of 3)", "Compose": 3, "Address": "300 Pandan Gardens", "Postal_Cod": "609341" }, "geometry": { "type": "Point", "coordinates": [ 103.750650908004317, 1.320876633243121 ] } },
{ "type": "Feature", "properties": { "OBJECTID": 20, "Official_N": "Wu Lan Lian Sheng Miao (United Temple)", "United_Tem": "Wu Lan Lian Sheng Miao (1 of 4)", "Compose": 4, "Address": "11 Woodlands Industrial Park E8", "Postal_Cod": "757701" }, "geometry": { "type": "Point", "coordinates": [ 103.800688217740444, 1.452360471199802 ] } },
{ "type": "Feature", "properties": { "OBJECTID": 21, "Official_N": "Hong Tho Biow Temple (United Temple)", "United_Tem": "Feng Tu Miao (1 of 7)", "Compose": 7, "Address": "31 Marsiling Industrial Estate Road 3", "Postal_Cod": "739255" }, "geometry": { "type": "Point", "coordinates": [ 103.782730825008031, 1.439601879643383 ] } },
{ "type": "Feature", "properties": { "OBJECTID": 22, "Official_N": "Ya Long Lian He Gong (United Temple)", "United_Tem": "Ya Long Lian He Gong(1 of 4)", "Compose": 4, "Address": "103 Eunos Road 5", "Postal_Cod": "409352" }, "geometry": { "type": "Point", "coordinates": [ 103.896025286872344, 1.319518192978394 ] } },
{ "type": "Feature", "properties": { "OBJECTID": 23, "Official_N": "Long Feng Dong Ji Yun Nan Da Bo Gong Miao (United Temple )", "United_Tem": "Long Feng Dong Ji Yun Nan Da Bo Gong Miao(1 of 3)", "Compose": 3, "Address": "10 Bukit Batok Street 21", "Postal_Cod": "659632" }, "geometry": { "type": "Point", "coordinates": [ 103.750865868753891, 1.346005899243582 ] } },
{ "type": "Feature", "properties": { "OBJECTID": 24, "Official_N": "Dan Bin ni Lian He Gong (Unied Temple)", "United_Tem": "Dan Bin ni Lian He Gong(1 of 13)", "Compose": 13, "Address": "25 Tampines Street 21", "Postal_Cod": "529394" }, "geometry": { "type": "Point", "coordinates": [ 103.949437090906173, 1.35570669282775 ] } },
{ "type": "Feature", "properties": { "OBJECTID": 25, "Official_N": "Chang Xiu Wei Ling Dong Shan Lian He Miao (United Temple)", "United_Tem": "Chang Xiu Wei Ling Dong Shan Lian He Miao(1 of 4)", "Compose": 4, "Address": "362, Yishun Avenue 3", "Postal_Cod": "769060" }, "geometry": { "type": "Point", "coordinates": [ 103.832902359528902, 1.422407387441283 ] } },
{ "type": "Feature", "properties": { "OBJECTID": 26, "Official_N": "Ju Shan Ha Shan Gong  (United Temple)", "United_Tem": "Ju Shan Ha Shan Gong(1 of 3)", "Compose": 3, "Address": "569 Yishun Ring Road", "Postal_Cod": "768691" }, "geometry": { "type": "Point", "coordinates": [ 103.833530104981705, 1.434576720643633 ] } },
{ "type": "Feature", "properties": { "OBJECTID": 27, "Official_N": "Sheng Gang Lian He Miao (Unied Temple)", "United_Tem": "Long Xu Yan / Tian Yang Guan / Xiang Yun Guan (1 of 3)", "Compose": 3, "Address": "80 Rivervale Crescent, #01-01", "Postal_Cod": "545087" }, "geometry": { "type": "Point", "coordinates": [ 103.906941890702171, 1.389369674366475 ] } },
{ "type": "Feature", "properties": { "OBJECTID": 28, "Official_N": "Thomson Temple  (United Temple )", "United_Tem": "Tang Shen Miao(1 of 4)", "Compose": 4, "Address": "99 Sector B Sin Ming Industrial Estate", "Postal_Cod": "575660" }, "geometry": { "type": "Point", "coordinates": [ 103.840369526720465, 1.357826129532153 ] } },
{ "type": "Feature", "properties": { "OBJECTID": 29, "Official_N": "Zhen Long Gong (United Temple)", "United_Tem": "Zhen Long Gong(1 of 5)", "Compose": 5, "Address": "98T Redhill Close", "Postal_Cod": "158900" }, "geometry": { "type": "Point", "coordinates": [ 103.81623571176813, 1.286223860877609 ] } },
{ "type": "Feature", "properties": { "OBJECTID": 30, "Official_N": "Tian De Sheng Miao (Unied Temple)", "United_Tem": "Tian De Sheng Miao (1 of 5)", "Compose": 5, "Address": "109 / a / b / c Hougang Avenue 5", "Postal_Cod": "538817" }, "geometry": { "type": "Point", "coordinates": [ 103.895715558401932, 1.365481432463337 ] } },
{ "type": "Feature", "properties": { "OBJECTID": 31, "Official_N": "Hong Mao Qiao Lian He Miao (Unied Temple)", "United_Tem": "Hong Mao Qiao Lian He Miao (1 of 4 )", "Compose": 4, "Address": "791 Ang Mo Kio Ave 1", "Postal_Cod": "569974" }, "geometry": { "type": "Point", "coordinates": [ 103.838631795076168, 1.36626839954464 ] } },
{ "type": "Feature", "properties": { "OBJECTID": 32, "Official_N": "Tai Yeong Kon Temple (United Temple)", "United_Tem": "Tai Yang Gong  (1 of 6)", "Compose": 6, "Address": "85A Silat Road", "Postal_Cod": "168851" }, "geometry": { "type": "Point", "coordinates": [ 103.828715211182498, 1.277405351493896 ] } },
{ "type": "Feature", "properties": { "OBJECTID": 33, "Official_N": "Dou Tian Gong (Combined)", "United_Tem": "Dou Tian Gong (United Temple)(1 of 3)", "Compose": 3, "Address": "2 Jurong West Street 76", "Postal_Cod": "648370" }, "geometry": { "type": "Point", "coordinates": [ 103.703687890382213, 1.346870707359383 ] } },
{ "type": "Feature", "properties": { "OBJECTID": 34, "Official_N": "Wu He Miao (United Temple)", "United_Tem": "Wu He Mia(1 of 7)", "Compose": 7, "Address": "177P Lorong 7 Toa Payoh", "Postal_Cod": "319318" }, "geometry": { "type": "Point", "coordinates": [ 103.856366428987272, 1.33850558861125 ] } },
{ "type": "Feature", "properties": { "OBJECTID": 35, "Official_N": "Cao Cuo Gang Lian Sheng Gong (Unitede Temple )", "United_Tem": "Cao Cuo Gang Lian Sheng Gong(1 of 6)", "Compose": 6, "Address": "2 Teck Whye Lane", "Postal_Cod": "688799" }, "geometry": { "type": "Point", "coordinates": [ 103.753528239396132, 1.380956780750838 ] } },
{ "type": "Feature", "properties": { "OBJECTID": 36, "Official_N": "Ju Sheng Miao (United Temple )", "United_Tem": "Ju Sheng Miao(1 of 4)", "Compose": 4, "Address": "48 Ang Mo Kio Street 61", "Postal_Cod": "569162" }, "geometry": { "type": "Point", "coordinates": [ 103.84152441670841, 1.380878057591455 ] } },
{ "type": "Feature", "properties": { "OBJECTID": 37, "Official_N": "Chi Hock Keng Temple (United Temple )", "United_Tem": "Qi Fu Gong(1 of 3)", "Compose": 3, "Address": "15 Fajar Road", "Postal_Cod": "679003" }, "geometry": { "type": "Point", "coordinates": [ 103.769468413752691, 1.383389267502122 ] } },
{ "type": "Feature", "properties": { "OBJECTID": 38, "Official_N": "De Hai Gong  (United Temple)", "United_Tem": "De Hai Gong(1 of 4)", "Compose": 4, "Address": "30 Bedok Reservoir Road\n32 Bedok Reservoir Road", "Postal_Cod": "479231" }, "geometry": { "type": "Point", "coordinates": [ 103.907918610197626, 1.331118273495191 ] } },
{ "type": "Feature", "properties": { "OBJECTID": 39, "Official_N": "Cai Cuo Gang Lian Sheng Dian (Unitede Temple )", "United_Tem": "Cai Cuo Gang Lian Sheng Dian(1 of 6)", "Compose": 6, "Address": "11  Choa Chu Kang Street 51", "Postal_Cod": "689334" }, "geometry": { "type": "Point", "coordinates": [ 103.742757051804375, 1.391556778597637 ] } },
{ "type": "Feature", "properties": { "OBJECTID": 40, "Official_N": "Hock Huat Keng Temple  (United Temple)", "United_Tem": "Fu Fa Gong(1 of 5)", "Compose": 5, "Address": "523 Yishun Industrial Park A", "Postal_Cod": "768770" }, "geometry": { "type": "Point", "coordinates": [ 103.835962140827519, 1.443228815962501 ] } },
{ "type": "Feature", "properties": { "OBJECTID": 41, "Official_N": "Gui Lin Lian He Miao (United Temple )", "United_Tem": "Gui Lin Lian He Miao(1 of 7)", "Compose": 7, "Address": "397 Bukit Batok West Ave 8", "Postal_Cod": "658964" }, "geometry": { "type": "Point", "coordinates": [ 103.739899156661835, 1.347032534145329 ] } },
{ "type": "Feature", "properties": { "OBJECTID": 42, "Official_N": "Liu Xun San He Miao (Unied Temple)", "United_Tem": "Liu Xun San He Miao(1 of 6)", "Compose": 6, "Address": "4 \\ 6 \\ 8 Ang Mo Kio St 63", "Postal_Cod": "569112" }, "geometry": { "type": "Point", "coordinates": [ 103.848600539278905, 1.385445916961525 ] } },
{ "type": "Feature", "properties": { "OBJECTID": 43, "Official_N": "Qiong Yao Jiao Di Temple (Jurong Temple)", "United_Tem": "Yu Lang Zong Gong (Lian He Gong) (1 of 4)", "Compose": 4, "Address": "741 Jurong West Street 42, #01-01", "Postal_Cod": "649369" }, "geometry": { "type": "Point", "coordinates": [ 103.724255467695585, 1.352899941993734 ] } },
{ "type": "Feature", "properties": { "OBJECTID": 44, "Official_N": "Cai Shi Lian He Gong  (United Temple)", "United_Tem": "Cai Shi Lian He Gong(1 of 4)", "Compose": 4, "Address": "6 Chai Chee Lane", "Postal_Cod": "469020" }, "geometry": { "type": "Point", "coordinates": [ 103.919158177683499, 1.328355055044738 ] } },
{ "type": "Feature", "properties": { "OBJECTID": 45, "Official_N": "Tian Jiang Fo Tang Tai Yang Gong  (United Temple)", "United_Tem": "Tian Jiang Fo Tang Tai Yang Gong(1 of 6)", "Compose": 6, "Address": "51 Bedok North Avenue 4", "Postal_Cod": "469695" }, "geometry": { "type": "Point", "coordinates": [ 103.948929755007583, 1.335821649008861 ] } },
{ "type": "Feature", "properties": { "OBJECTID": 46, "Official_N": "Qi Zhai Long Quan Miao (United Temple)", "United_Tem": "Qi Zhai Long Quan Miao(1 of 3)", "Compose": 3, "Address": "33 Kranji Loop", "Postal_Cod": "739565" }, "geometry": { "type": "Point", "coordinates": [ 103.753627050827674, 1.435793467111134 ] } },
{ "type": "Feature", "properties": { "OBJECTID": 47, "Official_N": "Ci Ling Lian He Miao  (United Temple)", "United_Tem": "Ci Ling Lian He Miao (1 of 3)", "Compose": 3, "Address": "525 Yishun Industrial Park A", "Postal_Cod": "768769" }, "geometry": { "type": "Point", "coordinates": [ 103.835934927051994, 1.443473561232912 ] } },
{ "type": "Feature", "properties": { "OBJECTID": 48, "Official_N": "Tian Xian Miao", "United_Tem": "Tian Xian Miao(1 of 3)", "Compose": 3, "Address": "19 Woodlands Industrial Park E7", "Postal_Cod": "757721" }, "geometry": { "type": "Point", "coordinates": [ 103.795692840451181, 1.450736818275269 ] } },
{ "type": "Feature", "properties": { "OBJECTID": 49, "Official_N": "Bang E Lian He Miao  (United Temple)", "United_Tem": "Bang E Lian He Miao(1 of 4)", "Compose": 4, "Address": "3 Tebing Lane, Punggol East  #01-02", "Postal_Cod": "828849" }, "geometry": { "type": "Point", "coordinates": [ 103.915591547147542, 1.392499710211839 ] } },
{ "type": "Feature", "properties": { "OBJECTID": 50, "Official_N": "Shu Tou Bo Gong Ji Guang Jin Dian (Unied Temple)", "United_Tem": "Shu Tou Bo Gong Ji Guang Jin Dian(1 of 3)", "Compose": 3, "Address": "Blk 860A, Tampines Ave 5 #01-623", "Postal_Cod": "521860" }, "geometry": { "type": "Point", "coordinates": [ 103.938503691338028, 1.35540615847772 ] } },
{ "type": "Feature", "properties": { "OBJECTID": 51, "Official_N": "Shui Gou Ge An Guan (United Temple )", "United_Tem": "Shui Gou Ge An Guan (1 of 3 )", "Compose": 3, "Address": "46 Ang Mo Kio Street 61", "Postal_Cod": "569161" }, "geometry": { "type": "Point", "coordinates": [ 103.841629528713952, 1.380721717073301 ] } },
{ "type": "Feature", "properties": { "OBJECTID": 52, "Official_N": "Jin Feng Miao / San Bao Fo Guang Si  (United Temple)", "United_Tem": "Jin Feng Miao / San Bao Fo Guang Si (1 of 3)", "Compose": 3, "Address": "24 - 26 Arumugam Road", "Postal_Cod": "409963" }, "geometry": { "type": "Point", "coordinates": [ 103.891786161933595, 1.325779669379484 ] } },
{ "type": "Feature", "properties": { "OBJECTID": 53, "Official_N": "Buddha of Medicine Welfare Society / Da Chen jing She\r\n", "United_Tem": "Zhong Hong Shan Tang / Cong Mao Yuan Jiu Huang Gong(1 of 3)\r\n", "Compose": 3, "Address": "28 Arumugam Road\r\n28 Arumugam Road\r\n", "Postal_Cod": "409966\r\n" }, "geometry": { "type": "Point", "coordinates": [ 103.892096779368714, 1.325702825394666 ] } },
{ "type": "Feature", "properties": { "OBJECTID": 54, "Official_N": "Xian Chuan Ling Guang Zong Dao Tang", "United_Tem": "Xian Chuan Ling Guang Zong Dao Tang(1 of 3)\r\n", "Compose": 3, "Address": "790 Tampines Road\r\n", "Postal_Cod": "518472" }, "geometry": { "type": "Point", "coordinates": [ 103.92949296360274, 1.367651813902226 ] } },
{ "type": "Feature", "properties": { "OBJECTID": 55, "Official_N": "Qing Yun Combined Temple\r\n", "United_Tem": "Qing Yun Lian He Miao  (1 of 4)\r\n", "Compose": 4, "Address": "16 -20 Hougang Street 11\r\n", "Postal_Cod": "538746\r\n\r\n" }, "geometry": { "type": "Point", "coordinates": [ 103.880348000197628, 1.352889706722237 ] } },
{ "type": "Feature", "properties": { "OBJECTID": 56, "Official_N": "Long Xu Yan / Tian Yang Guan / Xiang Yun Guan (Combined)\r\n", "United_Tem": "Long Xu Yan / Tian Yang Guan / Xiang Yun Guan (1 of 4 )\r\n", "Compose": 4, "Address": "87 Kovan Road\r\n", "Postal_Cod": "548176\r\n" }, "geometry": { "type": "Point", "coordinates": [ 103.878217429855525, 1.35518088149119 ] } },
{ "type": "Feature", "properties": { "OBJECTID": 57, "Official_N": "Yi Shun Zhen Lian He Miao  (United Temple) \r\n", "United_Tem": "Yi Shun Zhen Lian He Miao(1 of 4)\r\n", "Compose": 4, "Address": "475 Yishun Ring Road\r\n", "Postal_Cod": "757749\r\n" }, "geometry": { "type": "Point", "coordinates": [ 103.795461680066637, 1.451044191254266 ] } },
{ "type": "Feature", "properties": { "OBJECTID": 58, "Official_N": "Cai Shen Miao Tian Hou Gong Peng Lai Dian (United Temple) \r\n", "United_Tem": "Cai Shen Miao Tian Hou Gong Peng Lai Dian(1 of 4)\r\n", "Compose": 4, "Address": "24 Admiralty Street\r\n", "Postal_Cod": "757613" }, "geometry": { "type": "Point", "coordinates": [ 103.811242779645781, 1.460788339226272 ] } },
{ "type": "Feature", "properties": { "OBJECTID": 59, "Official_N": "Chai Cuo Gang You Chi Lian He Miao (United Temple) \r\n", "United_Tem": "Cai Cuo Gang Lian Sheng Dian(1 of  6) \r\n", "Compose": 6, "Address": "5 Choa Chu Kang Street 51\r\n", "Postal_Cod": "689339\r\n" }, "geometry": { "type": "Point", "coordinates": [ 103.742502750859344, 1.391625939864906 ] } },
{ "type": "Feature", "properties": { "OBJECTID": 60, "Official_N": "Zheng Hua Ci Sheng Gong (United Temple)\r\n", "United_Tem": "Zheng Hua Ci Sheng Gong (1 of 3)\r\n", "Compose": 3, "Address": "23 Bangkit Road \r\n", "Postal_Cod": "679972\r\n" }, "geometry": { "type": "Point", "coordinates": [ 103.773613668456662, 1.378054583435564 ] } },
{ "type": "Feature", "properties": { "OBJECTID": 61, "Official_N": "Wu Lei Gong Dong Tian Gong (United Temple )\r\n", "United_Tem": "Wu Lei Gong Dong Tian Gong(1 of 3)\r\n", "Compose": 3, "Address": "8 Bukit Batok Street 21\r\n", "Postal_Cod": "659631" }, "geometry": { "type": "Point", "coordinates": [ 103.750859139751924, 1.346237112210371 ] } },
{ "type": "Feature", "properties": { "OBJECTID": 62, "Official_N": "Fu Tong Lian He Miao (United Temple )\r\n\r\n", "United_Tem": "Fu Tong Lian He Miao(1 of 4)\r\n", "Compose": 4, "Address": "553 Bukit Batok Street 23\r\n", "Postal_Cod": "659521\r\n" }, "geometry": { "type": "Point", "coordinates": [ 103.756942306042831, 1.340171399871553 ] } },
{ "type": "Feature", "properties": { "OBJECTID": 63, "Official_N": "Yu Lang Xi Lian He Gong (Unied Temple)\r\n", "United_Tem": "Yu Lang Xi Lian He Gong(1 of 5)\r\n", "Compose": 5, "Address": "62 Jurong West Street 41\r\n", "Postal_Cod": "649408\r\n" }, "geometry": { "type": "Point", "coordinates": [ 103.720069550621645, 1.349273987296306 ] } },
{ "type": "Feature", "properties": { "OBJECTID": 64, "Official_N": "Tian Leong Keng Temple (United Temple )\r\n", "United_Tem": "Tian Long Gong (1 of 4)\r\n", "Compose": 4, "Address": "101 / a / b Sector B Sin Ming Industrial Estate, 575662 - 4\r\n", "Postal_Cod": "575592\r\n" }, "geometry": { "type": "Point", "coordinates": [ 103.840505410712765, 1.357575731436241 ] } },
{ "type": "Feature", "properties": { "OBJECTID": 65, "Official_N": "Bo Dong Ba XI Lian He Miao (Unied Temple)\r\n", "United_Tem": "Bo Dong Ba Xi Lian He Miao (1 of 6)\r\n", "Compose": 6, "Address": "8 Ang Mo Kio Avenue 10 / Street 44\r\n\r\n8 Ang Mo Kio Avenue 10 / Street 44\r\n", "Postal_Cod": "569731\r\n" }, "geometry": { "type": "Point", "coordinates": [ 103.855637538273044, 1.364355066214294 ] } },
{ "type": "Feature", "properties": { "OBJECTID": 66, "Official_N": "Buddha of Medicine Welfare Society / Da Chen jing She\r\n", "United_Tem": "Yao Shi Xing Yuan Hui / Da Chen Jing She (1 of 3)\r\n", "Compose": 3, "Address": "11 Lorong 25 Geylang \r\n", "Postal_Cod": "388293\r\n" }, "geometry": { "type": "Point", "coordinates": [ 103.88236898990273, 1.314033814871929 ] } },
{ "type": "Feature", "properties": { "OBJECTID": 67, "Official_N": "Tian De Gong (Unied Temple)\r\n", "United_Tem": "Na Du Tan Bao An Gong Tian De Gong(1 of 4)\r\n", "Compose": 4, "Address": "778 Tampines Road\r\n", "Postal_Cod": "528745\r\n" }, "geometry": { "type": "Point", "coordinates": [ 103.929160302826901, 1.367492854739196 ] } },
{ "type": "Feature", "properties": { "OBJECTID": 68, "Official_N": "Yi Shun Zhen Lian He Miao  (United Temple) \r\n", "United_Tem": "Yi Shun Zhen Lian He Miao(1 of 4)\r\n", "Compose": 4, "Address": "15 Yishun Avenue 9 \r\n", "Postal_Cod": "768889\r\n" }, "geometry": { "type": "Point", "coordinates": [ 103.841514340131923, 1.434009342467351 ] } },
{ "type": "Feature", "properties": { "OBJECTID": 69, "Official_N": "Zi Yun Kai Ji Gong (Unied Temple)\r\n", "United_Tem": "Zi Yun Kai Ji Gong (1 of 4)\r\n", "Compose": 4, "Address": "56 / 58 / 60 Hougang Avenue 3 Singapore 538841 - 3\r\n", "Postal_Cod": "538842\r\n" }, "geometry": { "type": "Point", "coordinates": [ 103.8923047589373, 1.358652456838728 ] } }
]
}
