{
"type": "FeatureCollection",
"name": "sg_mosques",
"crs": { "type": "name", "properties": { "name": "urn:ogc:def:crs:OGC:1.3:CRS84" } },
"features": [
{ "type": "Feature", "properties": { "OBJECTID_12": 1, "OBJECTID": 73, "FEA_ID": 36142.0, "BUILDING_N": "MASJID HAJI YUSOFF", "HOUSE_BLK_": "2", "ROAD_NAME": "HILLSIDE DRIVE", "POSTAL_COD": "548920", "ADDRESS_TY": "S", "DATA_TYPE_": "extg", "MULTI_ADDR": "n", "X_ADDR": 33163.331807299997, "Y_ADDR": 37543.763989899999, "BUILDING_I": "100000000010504080952101606905", "FID_": 45, "OBJECTID_1": 95711, "postalnew": 548920.0, "Mosque_Nam": "HAJI YUSOFF MOSQUE", "Mosque_Add": "2 Hillside Drive Singapore 548920", "Mosque_Cod": 548920.0, "PosCode": "548920" }, "geometry": { "type": "Point", "coordinates": [ 103.879714474724608, 1.355806540124756 ] } },
{ "type": "Feature", "properties": { "OBJECTID_12": 2, "OBJECTID": 1983, "FEA_ID": 80951.0, "BUILDING_N": "MASJID AL-ANSAR", "HOUSE_BLK_": "155", "ROAD_NAME": "BEDOK NORTH AVENUE 1", "POSTAL_COD": "469751", "ADDRESS_TY": "S", "DATA_TYPE_": "extg", "MULTI_ADDR": "n", "X_ADDR": 38353.888935000003, "Y_ADDR": 34357.482401200003, "BUILDING_I": "100000000010406090755118666708", "FID_": 37, "OBJECTID_1": 67999, "postalnew": 469751.0, "Mosque_Nam": "ALANSAR MOSQUE", "Mosque_Add": "155 Bedok North Avenue 1 Singapore 469751", "Mosque_Cod": 469751.0, "PosCode": "469751" }, "geometry": { "type": "Point", "coordinates": [ 103.926353888519301, 1.326989627518388 ] } },
{ "type": "Feature", "properties": { "OBJECTID_12": 3, "OBJECTID": 2725, "FEA_ID": 112134.0, "BUILDING_N": "MASJID MALABAR", "HOUSE_BLK_": "471", "ROAD_NAME": "VICTORIA STREET", "POSTAL_COD": "198370", "ADDRESS_TY": "S", "DATA_TYPE_": "extg", "MULTI_ADDR": "y", "X_ADDR": 30950.115045, "Y_ADDR": 31942.287625699999, "BUILDING_I": "101000000010109080307000040701", "FID_": 8, "OBJECTID_1": 25696, "postalnew": 198370.0, "Mosque_Nam": "MALABAR MOSQUE", "Mosque_Add": "471 Victoria Street Singapore 198370", "Mosque_Cod": 198370.0, "PosCode": "198370" }, "geometry": { "type": "Point", "coordinates": [ 103.859826743276741, 1.305149078212738 ] } },
{ "type": "Feature", "properties": { "OBJECTID_12": 4, "OBJECTID": 2982, "FEA_ID": 152496.0, "BUILDING_N": "MASJID AL-ISTIGHFAR", "HOUSE_BLK_": "2", "ROAD_NAME": "PASIR RIS WALK", "POSTAL_COD": "518239", "ADDRESS_TY": "S", "DATA_TYPE_": "extg", "MULTI_ADDR": "n", "X_ADDR": 42591.020314900001, "Y_ADDR": 39224.471695599997, "BUILDING_I": "109000900010501286203091090907", "FID_": 52, "OBJECTID_1": 107658, "postalnew": 518239.0, "Mosque_Nam": "ALISTIGHFAR MOSQUE", "Mosque_Add": "2 Pasir Ris Walk Singapore 518239", "Mosque_Cod": 518239.0, "PosCode": "518239" }, "geometry": { "type": "Point", "coordinates": [ 103.964429111565423, 1.371003096674298 ] } },
{ "type": "Feature", "properties": { "OBJECTID_12": 5, "OBJECTID": 4765, "FEA_ID": 1895.0, "BUILDING_N": "MASJID KAMPONG SIGLAP", "HOUSE_BLK_": "451", "ROAD_NAME": "MARINE PARADE ROAD", "POSTAL_COD": "449283", "ADDRESS_TY": "S", "DATA_TYPE_": "extg", "MULTI_ADDR": "n", "X_ADDR": 38476.305040699997, "Y_ADDR": 32502.209335799998, "BUILDING_I": "100000000040404090268232676808", "FID_": 13, "OBJECTID_1": 31305, "postalnew": 449283.0, "Mosque_Nam": "KAMPONG SIGLAP MOSQUE", "Mosque_Add": "451 Marine Parade Road Singapore 449283", "Mosque_Cod": 449283.0, "PosCode": "449283" }, "geometry": { "type": "Point", "coordinates": [ 103.927453232428022, 1.310211174027155 ] } },
{ "type": "Feature", "properties": { "OBJECTID_12": 6, "OBJECTID": 4919, "FEA_ID": 59472.0, "BUILDING_N": "MASJID EN-NAEEM", "HOUSE_BLK_": "120", "ROAD_NAME": "TAMPINES ROAD", "POSTAL_COD": "535136", "ADDRESS_TY": "S", "DATA_TYPE_": "extg", "MULTI_ADDR": "n", "X_ADDR": 34591.884568200003, "Y_ADDR": 38110.246467099998, "BUILDING_I": "100000000010503050153464616903", "FID_": 46, "OBJECTID_1": 96865, "postalnew": 535136.0, "Mosque_Nam": "ENNAEEM MOSQUE", "Mosque_Add": "120 Tampines Road Singapore 535136", "Mosque_Cod": 535136.0, "PosCode": "535136" }, "geometry": { "type": "Point", "coordinates": [ 103.892551071754198, 1.360929321587493 ] } },
{ "type": "Feature", "properties": { "OBJECTID_12": 7, "OBJECTID": 6811, "FEA_ID": 149421.0, "BUILDING_N": " ", "HOUSE_BLK_": "5140", "ROAD_NAME": "ANG MO KIO AVENUE 6", "POSTAL_COD": "569844", "ADDRESS_TY": "S", "DATA_TYPE_": "extg", "MULTI_ADDR": "n", "X_ADDR": 29400.157976499999, "Y_ADDR": 39150.236741399996, "BUILDING_I": "109000000111516390804442605001", "FID_": 50, "OBJECTID_1": 106164, "postalnew": 569844.0, "Mosque_Nam": "ALMUTTAQIN MOSQUE", "Mosque_Add": "5140 Ang Mo Kio Avenue 6 Singapore 569844", "Mosque_Cod": 569844.0, "PosCode": "569844" }, "geometry": { "type": "Point", "coordinates": [ 103.845899986155331, 1.370335320210545 ] } },
{ "type": "Feature", "properties": { "OBJECTID_12": 8, "OBJECTID": 8431, "FEA_ID": 152297.0, "BUILDING_N": "MASJID DARUL MAKMUR", "HOUSE_BLK_": "950", "ROAD_NAME": "YISHUN AVENUE 2", "POSTAL_COD": "769099", "ADDRESS_TY": "S", "DATA_TYPE_": "extg", "MULTI_ADDR": "n", "X_ADDR": 28097.489548099999, "Y_ADDR": 46524.182229600003, "BUILDING_I": "109000001010706090049398616905", "FID_": 58, "OBJECTID_1": 122784, "postalnew": 769099.0, "Mosque_Nam": "DARUL MAKMUR MOSQUE", "Mosque_Add": "950 Yishun Avenue 2 Singapore 769099", "Mosque_Cod": 769099.0, "PosCode": "769099" }, "geometry": { "type": "Point", "coordinates": [ 103.834194615140859, 1.437022663660112 ] } },
{ "type": "Feature", "properties": { "OBJECTID_12": 9, "OBJECTID": 10316, "FEA_ID": 35941.0, "BUILDING_N": "MASJID AL-HUDA (CORONATION)", "HOUSE_BLK_": "34", "ROAD_NAME": "JALAN HAJI ALIAS", "POSTAL_COD": "268534", "ADDRESS_TY": "S", "DATA_TYPE_": "extg", "MULTI_ADDR": "n", "X_ADDR": 23750.758616399999, "Y_ADDR": 33946.331432899999, "BUILDING_I": "100000000020206080503040000304", "FID_": 35, "OBJECTID_1": 65530, "postalnew": 268534.0, "Mosque_Nam": "ALHUDA MOSQUE", "Mosque_Add": "34 Jalan Haji Alias Singapore 268534", "Mosque_Cod": 268534.0, "PosCode": "268534" }, "geometry": { "type": "Point", "coordinates": [ 103.795136882498724, 1.323272788310418 ] } },
{ "type": "Feature", "properties": { "OBJECTID_12": 10, "OBJECTID": 10472, "FEA_ID": 72010.0, "BUILDING_N": "MASJID HASANAH", "HOUSE_BLK_": "492", "ROAD_NAME": "TEBAN GARDENS ROAD", "POSTAL_COD": "608878", "ADDRESS_TY": "S", "DATA_TYPE_": "extg", "MULTI_ADDR": "n", "X_ADDR": 17416.614923699999, "Y_ADDR": 33772.0792258, "BUILDING_I": "100000000010600080807080040902", "FID_": 27, "OBJECTID_1": 57826, "postalnew": 608878.0, "Mosque_Nam": "HASANAH MOSQUE", "Mosque_Add": "492 Teban Gardens Road Singapore 608878", "Mosque_Cod": 608878.0, "PosCode": "608878" }, "geometry": { "type": "Point", "coordinates": [ 103.73822132547869, 1.321695375361016 ] } },
{ "type": "Feature", "properties": { "OBJECTID_12": 11, "OBJECTID": 11297, "FEA_ID": 154531.0, "BUILDING_N": "MASJID DARUL MAKMUR", "HOUSE_BLK_": "950", "ROAD_NAME": "YISHUN AVENUE 2", "POSTAL_COD": "769099", "ADDRESS_TY": "S", "DATA_TYPE_": "extg", "MULTI_ADDR": "n", "X_ADDR": 28108.371100100001, "Y_ADDR": 46484.251646099998, "BUILDING_I": "109000000020706090049398616905", "FID_": 58, "OBJECTID_1": 122784, "postalnew": 769099.0, "Mosque_Nam": "DARUL MAKMUR MOSQUE", "Mosque_Add": "950 Yishun Avenue 2 Singapore 769099", "Mosque_Cod": 769099.0, "PosCode": "769099" }, "geometry": { "type": "Point", "coordinates": [ 103.83429239661335, 1.436661546646929 ] } },
{ "type": "Feature", "properties": { "OBJECTID_12": 12, "OBJECTID": 17881, "FEA_ID": 66214.0, "BUILDING_N": "MASJID HAJJAH FATIMAH", "HOUSE_BLK_": "4001", "ROAD_NAME": "BEACH ROAD", "POSTAL_COD": "199584", "ADDRESS_TY": "S", "DATA_TYPE_": "extg", "MULTI_ADDR": "n", "X_ADDR": 31319.441350199999, "Y_ADDR": 31687.564503000001, "BUILDING_I": "100000000020109090508044000001", "FID_": 5, "OBJECTID_1": 25206, "postalnew": 199584.0, "Mosque_Nam": "HAJJAH FATIMAH MOSQUE", "Mosque_Add": "4001 Beach Road Singapore 199584", "Mosque_Cod": 199584.0, "PosCode": "199584" }, "geometry": { "type": "Point", "coordinates": [ 103.863145286458348, 1.302845415158026 ] } },
{ "type": "Feature", "properties": { "OBJECTID_12": 13, "OBJECTID": 18101, "FEA_ID": 87810.0, "BUILDING_N": "MASJID KHADIJAH", "HOUSE_BLK_": "583", "ROAD_NAME": "GEYLANG ROAD", "POSTAL_COD": "389522", "ADDRESS_TY": "S", "DATA_TYPE_": "extg", "MULTI_ADDR": "n", "X_ADDR": 33864.322631399998, "Y_ADDR": 32929.0442349, "BUILDING_I": "100000000111318391502221695908", "FID_": 24, "OBJECTID_1": 45130, "postalnew": 389522.0, "Mosque_Nam": "KHADIJAH MOSQUE", "Mosque_Add": "583 Geylang Road Singapore 389522", "Mosque_Cod": 389522.0, "PosCode": "389522" }, "geometry": { "type": "Point", "coordinates": [ 103.886012443293794, 1.314072538361992 ] } },
{ "type": "Feature", "properties": { "OBJECTID_12": 14, "OBJECTID": 18732, "FEA_ID": 213698.0, "BUILDING_N": " ", "HOUSE_BLK_": "90", "ROAD_NAME": "LORONG K TELOK KURAU", "POSTAL_COD": "425723", "ADDRESS_TY": "S", "DATA_TYPE_": "extg", "MULTI_ADDR": "n", "X_ADDR": 36838.290538000001, "Y_ADDR": 32808.031625299998, "BUILDING_I": "100001010913402057722932605004", "FID_": 19, "OBJECTID_1": 37683, "postalnew": 425723.0, "Mosque_Nam": "ABDUL ALEEM SIDDIQUE MOSQUE", "Mosque_Add": "90 Lorong K Telok Kurau Singapore 425723", "Mosque_Cod": 425723.0, "PosCode": "425723" }, "geometry": { "type": "Point", "coordinates": [ 103.912734979651944, 1.31297743324939 ] } },
{ "type": "Feature", "properties": { "OBJECTID_12": 15, "OBJECTID": 22592, "FEA_ID": 65679.0, "BUILDING_N": "MASJID DARUL GHUFRAN", "HOUSE_BLK_": "503", "ROAD_NAME": "TAMPINES AVENUE 5", "POSTAL_COD": "529651", "ADDRESS_TY": "S", "DATA_TYPE_": "extg", "MULTI_ADDR": "n", "X_ADDR": 39861.522584500002, "Y_ADDR": 37490.093497299997, "BUILDING_I": "100000000010502090665115686807", "FID_": 44, "OBJECTID_1": 95132, "postalnew": 529651.0, "Mosque_Nam": "DARUL GHUFRAN MOSQUE", "Mosque_Add": "503 Tampines Avenue 5 Singapore 529651", "Mosque_Cod": 529651.0, "PosCode": "529651" }, "geometry": { "type": "Point", "coordinates": [ 103.939902005960747, 1.355319251004664 ] } },
{ "type": "Feature", "properties": { "OBJECTID_12": 16, "OBJECTID": 24300, "FEA_ID": 152262.0, "BUILDING_N": "MASJID DARUL MAKMUR", "HOUSE_BLK_": "950", "ROAD_NAME": "YISHUN AVENUE 2", "POSTAL_COD": "769099", "ADDRESS_TY": "S", "DATA_TYPE_": "extg", "MULTI_ADDR": "n", "X_ADDR": 28102.295105000001, "Y_ADDR": 46476.5580089, "BUILDING_I": "109000000010706090049398616905", "FID_": 58, "OBJECTID_1": 122784, "postalnew": 769099.0, "Mosque_Nam": "DARUL MAKMUR MOSQUE", "Mosque_Add": "950 Yishun Avenue 2 Singapore 769099", "Mosque_Cod": 769099.0, "PosCode": "769099" }, "geometry": { "type": "Point", "coordinates": [ 103.834237797901181, 1.436591967634051 ] } },
{ "type": "Feature", "properties": { "OBJECTID_12": 17, "OBJECTID": 27229, "FEA_ID": 76959.0, "BUILDING_N": "MASJID AL-FIRDAUS", "HOUSE_BLK_": "11", "ROAD_NAME": "JALAN IBADAT", "POSTAL_COD": "698955", "ADDRESS_TY": "S", "DATA_TYPE_": "extg", "MULTI_ADDR": "n", "X_ADDR": 14984.5544039, "Y_ADDR": 39639.979800599998, "BUILDING_I": "109000000000609080905050000101", "FID_": 54, "OBJECTID_1": 110080, "postalnew": 698955.0, "Mosque_Nam": "ALFIRDAUS MOSQUE", "Mosque_Add": "11 Jalan Ibadat Singapore 698955", "Mosque_Cod": 698955.0, "PosCode": "698955" }, "geometry": { "type": "Point", "coordinates": [ 103.71636548423794, 1.374761532041276 ] } },
{ "type": "Feature", "properties": { "OBJECTID_12": 18, "OBJECTID": 30245, "FEA_ID": 44594.0, "BUILDING_N": "MASJID AN-NUR", "HOUSE_BLK_": "6", "ROAD_NAME": "ADMIRALTY ROAD", "POSTAL_COD": "739983", "ADDRESS_TY": "S", "DATA_TYPE_": "extg", "MULTI_ADDR": "n", "X_ADDR": 21165.270353, "Y_ADDR": 46928.829546399997, "BUILDING_I": "109000000010703090938138646708", "FID_": 59, "OBJECTID_1": 124481, "postalnew": 739983.0, "Mosque_Nam": "ANNUR MOSQUE", "Mosque_Add": "6 Admiralty Road Singapore 739983", "Mosque_Cod": 739983.0, "PosCode": "739983" }, "geometry": { "type": "Point", "coordinates": [ 103.77190188416904, 1.440681314014748 ] } },
{ "type": "Feature", "properties": { "OBJECTID_12": 19, "OBJECTID": 33605, "FEA_ID": 152292.0, "BUILDING_N": "MASJID DARUL MAKMUR", "HOUSE_BLK_": "950", "ROAD_NAME": "YISHUN AVENUE 2", "POSTAL_COD": "769099", "ADDRESS_TY": "S", "DATA_TYPE_": "extg", "MULTI_ADDR": "n", "X_ADDR": 28113.132496099999, "Y_ADDR": 46500.996621099999, "BUILDING_I": "109000000060706090049398616905", "FID_": 58, "OBJECTID_1": 122784, "postalnew": 769099.0, "Mosque_Nam": "DARUL MAKMUR MOSQUE", "Mosque_Add": "950 Yishun Avenue 2 Singapore 769099", "Mosque_Cod": 769099.0, "PosCode": "769099" }, "geometry": { "type": "Point", "coordinates": [ 103.83433518242289, 1.436812981437009 ] } },
{ "type": "Feature", "properties": { "OBJECTID_12": 20, "OBJECTID": 35780, "FEA_ID": 82614.0, "BUILDING_N": "MASJID AL-MUKMININ", "HOUSE_BLK_": "271", "ROAD_NAME": "JURONG EAST STREET 21", "POSTAL_COD": "609603", "ADDRESS_TY": "S", "DATA_TYPE_": "extg", "MULTI_ADDR": "n", "X_ADDR": 17776.800328099998, "Y_ADDR": 35708.8024668, "BUILDING_I": "100000000010600090620137646805", "FID_": 41, "OBJECTID_1": 83126, "postalnew": 609603.0, "Mosque_Nam": "ALMUKMININ MOSQUE", "Mosque_Add": "271 Jurong East Street 21 Singapore 609603", "Mosque_Cod": 609603.0, "PosCode": "609603" }, "geometry": { "type": "Point", "coordinates": [ 103.741457129014975, 1.339210514854426 ] } },
{ "type": "Feature", "properties": { "OBJECTID_12": 21, "OBJECTID": 37369, "FEA_ID": 152293.0, "BUILDING_N": "MASJID DARUL MAKMUR", "HOUSE_BLK_": "950", "ROAD_NAME": "YISHUN AVENUE 2", "POSTAL_COD": "769099", "ADDRESS_TY": "S", "DATA_TYPE_": "extg", "MULTI_ADDR": "n", "X_ADDR": 28107.827214699999, "Y_ADDR": 46498.866511699998, "BUILDING_I": "109000000070706090049398616905", "FID_": 58, "OBJECTID_1": 122784, "postalnew": 769099.0, "Mosque_Nam": "DARUL MAKMUR MOSQUE", "Mosque_Add": "950 Yishun Avenue 2 Singapore 769099", "Mosque_Cod": 769099.0, "PosCode": "769099" }, "geometry": { "type": "Point", "coordinates": [ 103.834287509205282, 1.436793717604931 ] } },
{ "type": "Feature", "properties": { "OBJECTID_12": 22, "OBJECTID": 38193, "FEA_ID": 2247.0, "BUILDING_N": "MASJID KAMPONG SIGLAP", "HOUSE_BLK_": "451", "ROAD_NAME": "MARINE PARADE ROAD", "POSTAL_COD": "449283", "ADDRESS_TY": "S", "DATA_TYPE_": "extg", "MULTI_ADDR": "n", "X_ADDR": 38488.991200199998, "Y_ADDR": 32441.807939800001, "BUILDING_I": "100000000010404090268232676808", "FID_": 13, "OBJECTID_1": 31305, "postalnew": 449283.0, "Mosque_Nam": "KAMPONG SIGLAP MOSQUE", "Mosque_Add": "451 Marine Parade Road Singapore 449283", "Mosque_Cod": 449283.0, "PosCode": "449283" }, "geometry": { "type": "Point", "coordinates": [ 103.927567203544001, 1.309664921500285 ] } },
{ "type": "Feature", "properties": { "OBJECTID_12": 23, "OBJECTID": 42867, "FEA_ID": 41786.0, "BUILDING_N": "MASJID AL-TAQUA", "HOUSE_BLK_": "11A", "ROAD_NAME": "JALAN BILAL", "POSTAL_COD": "468862", "ADDRESS_TY": "S", "DATA_TYPE_": "extg", "MULTI_ADDR": "y", "X_ADDR": 41368.987217599999, "Y_ADDR": 33803.295959399999, "BUILDING_I": "101000000010406080806828636601", "FID_": 31, "OBJECTID_1": 61678, "postalnew": 468862.0, "Mosque_Nam": "ALTAQUA MOSQUE", "Mosque_Add": "11A Jalan Bilal Singapore 468862", "Mosque_Cod": 468862.0, "PosCode": "468862" }, "geometry": { "type": "Point", "coordinates": [ 103.953445905874005, 1.321976597451974 ] } },
{ "type": "Feature", "properties": { "OBJECTID_12": 24, "OBJECTID": 45500, "FEA_ID": 134117.0, "BUILDING_N": "MASJID ABDUL GAFOOR", "HOUSE_BLK_": "41", "ROAD_NAME": "DUNLOP STREET", "POSTAL_COD": "209369", "ADDRESS_TY": "S", "DATA_TYPE_": "extg", "MULTI_ADDR": "n", "X_ADDR": 30257.6686911, "Y_ADDR": 31857.158739899998, "BUILDING_I": "100000000111210390306192605001", "FID_": 10, "OBJECTID_1": 25799, "postalnew": 209369.0, "Mosque_Nam": "ABDUL GAFFOOR MOSQUE", "Mosque_Add": "41 Dunlop Street Singapore 209369", "Mosque_Cod": 209369.0, "PosCode": "209369" }, "geometry": { "type": "Point", "coordinates": [ 103.853604783309549, 1.304379260691762 ] } },
{ "type": "Feature", "properties": { "OBJECTID_12": 25, "OBJECTID": 48399, "FEA_ID": 52613.0, "BUILDING_N": "MASJID MYDIN", "HOUSE_BLK_": "67", "ROAD_NAME": "JALAN LAPANG", "POSTAL_COD": "419007", "ADDRESS_TY": "S", "DATA_TYPE_": "extg", "MULTI_ADDR": "n", "X_ADDR": 37120.090006600003, "Y_ADDR": 33862.583947599996, "BUILDING_I": "100000000111411391000171695909", "FID_": 32, "OBJECTID_1": 62888, "postalnew": 419007.0, "Mosque_Nam": "MYDIN MOSQUE", "Mosque_Add": "67 Jalan Lapang Singapore 419007", "Mosque_Cod": 419007.0, "PosCode": "419007" }, "geometry": { "type": "Point", "coordinates": [ 103.915267397091199, 1.322514339689394 ] } },
{ "type": "Feature", "properties": { "OBJECTID_12": 26, "OBJECTID": 49152, "FEA_ID": 67577.0, "BUILDING_N": "MASJID AL-MUTTAQIN", "HOUSE_BLK_": "5140", "ROAD_NAME": "ANG MO KIO AVENUE 6", "POSTAL_COD": "569844", "ADDRESS_TY": "S", "DATA_TYPE_": "extg", "MULTI_ADDR": "n", "X_ADDR": 29414.594563800001, "Y_ADDR": 39150.052076400003, "BUILDING_I": "100000000010506090844040626709", "FID_": 50, "OBJECTID_1": 106164, "postalnew": 569844.0, "Mosque_Nam": "ALMUTTAQIN MOSQUE", "Mosque_Add": "5140 Ang Mo Kio Avenue 6 Singapore 569844", "Mosque_Cod": 569844.0, "PosCode": "569844" }, "geometry": { "type": "Point", "coordinates": [ 103.846029709179518, 1.370333650065783 ] } },
{ "type": "Feature", "properties": { "OBJECTID_12": 27, "OBJECTID": 49741, "FEA_ID": 129930.0, "BUILDING_N": "MASJID MUJAHIDIN", "HOUSE_BLK_": "590", "ROAD_NAME": "STIRLING ROAD", "POSTAL_COD": "148952", "ADDRESS_TY": "S", "DATA_TYPE_": "extg", "MULTI_ADDR": "n", "X_ADDR": 24424.061499700001, "Y_ADDR": 31160.918415299999, "BUILDING_I": "109000000114144980905422609001", "FID_": 2, "OBJECTID_1": 20593, "postalnew": 148952.0, "Mosque_Nam": "MUJAHIDIN MOSQUE", "Mosque_Add": "590 Stirling Road Singapore 148952", "Mosque_Cod": 148952.0, "PosCode": "148952" }, "geometry": { "type": "Point", "coordinates": [ 103.801187188071651, 1.29808258508453 ] } },
{ "type": "Feature", "properties": { "OBJECTID_12": 28, "OBJECTID": 51455, "FEA_ID": 154532.0, "BUILDING_N": "MASJID DARUL MAKMUR", "HOUSE_BLK_": "950", "ROAD_NAME": "YISHUN AVENUE 2", "POSTAL_COD": "769099", "ADDRESS_TY": "S", "DATA_TYPE_": "extg", "MULTI_ADDR": "n", "X_ADDR": 28113.029706000001, "Y_ADDR": 46486.144515, "BUILDING_I": "109000000030706090049398616905", "FID_": 58, "OBJECTID_1": 122784, "postalnew": 769099.0, "Mosque_Nam": "DARUL MAKMUR MOSQUE", "Mosque_Add": "950 Yishun Avenue 2 Singapore 769099", "Mosque_Cod": 769099.0, "PosCode": "769099" }, "geometry": { "type": "Point", "coordinates": [ 103.834334258607811, 1.436678664426265 ] } },
{ "type": "Feature", "properties": { "OBJECTID_12": 29, "OBJECTID": 51777, "FEA_ID": 152290.0, "BUILDING_N": "MASJID DARUL MAKMUR", "HOUSE_BLK_": "950", "ROAD_NAME": "YISHUN AVENUE 2", "POSTAL_COD": "769099", "ADDRESS_TY": "S", "DATA_TYPE_": "extg", "MULTI_ADDR": "n", "X_ADDR": 28117.687827599999, "Y_ADDR": 46488.018496600002, "BUILDING_I": "109000000040706090049398616905", "FID_": 58, "OBJECTID_1": 122784, "postalnew": 769099.0, "Mosque_Nam": "DARUL MAKMUR MOSQUE", "Mosque_Add": "950 Yishun Avenue 2 Singapore 769099", "Mosque_Cod": 769099.0, "PosCode": "769099" }, "geometry": { "type": "Point", "coordinates": [ 103.834376116109837, 1.436695612184443 ] } },
{ "type": "Feature", "properties": { "OBJECTID_12": 30, "OBJECTID": 52198, "FEA_ID": 211816.0, "BUILDING_N": " ", "HOUSE_BLK_": "2", "ROAD_NAME": "HILLSIDE DRIVE", "POSTAL_COD": "548920", "ADDRESS_TY": "S", "DATA_TYPE_": "prop", "MULTI_ADDR": "n", "X_ADDR": 33154.469341700002, "Y_ADDR": 37556.617803699999, "BUILDING_I": "300000000010504581912001090905", "FID_": 45, "OBJECTID_1": 95711, "postalnew": 548920.0, "Mosque_Nam": "HAJI YUSOFF MOSQUE", "Mosque_Add": "2 Hillside Drive Singapore 548920", "Mosque_Cod": 548920.0, "PosCode": "548920" }, "geometry": { "type": "Point", "coordinates": [ 103.879634841621609, 1.355922786810654 ] } },
{ "type": "Feature", "properties": { "OBJECTID_12": 31, "OBJECTID": 55084, "FEA_ID": 114185.0, "BUILDING_N": "MASJID SULTAN", "HOUSE_BLK_": "3", "ROAD_NAME": "MUSCAT STREET", "POSTAL_COD": "198833", "ADDRESS_TY": "S", "DATA_TYPE_": "extg", "MULTI_ADDR": "n", "X_ADDR": 30857.503762299999, "Y_ADDR": 31621.024336099999, "BUILDING_I": "109000000010109080803030000003", "FID_": 4, "OBJECTID_1": 21809, "postalnew": 198833.0, "Mosque_Nam": "SULTAN MOSQUE", "Mosque_Add": "3 Muscat Street Singapore 198833", "Mosque_Cod": 198833.0, "PosCode": "198833" }, "geometry": { "type": "Point", "coordinates": [ 103.858994558939557, 1.302243695064722 ] } },
{ "type": "Feature", "properties": { "OBJECTID_12": 32, "OBJECTID": 55277, "FEA_ID": 140923.0, "BUILDING_N": "MASJID ANGULLIA", "HOUSE_BLK_": "265", "ROAD_NAME": "SERANGOON ROAD", "POSTAL_COD": "218099", "ADDRESS_TY": "S", "DATA_TYPE_": "extg", "MULTI_ADDR": "n", "X_ADDR": 30310.901781100001, "Y_ADDR": 32531.293599199998, "BUILDING_I": "109000000322291780009392609000", "FID_": 18, "OBJECTID_1": 34896, "postalnew": 218099.0, "Mosque_Nam": "ANGULLIA MOSQUE", "Mosque_Add": "265 Serangoon Road Singapore 218099", "Mosque_Cod": 218099.0, "PosCode": "218099" }, "geometry": { "type": "Point", "coordinates": [ 103.854083157523533, 1.310475894763949 ] } },
{ "type": "Feature", "properties": { "OBJECTID_12": 33, "OBJECTID": 55295, "FEA_ID": 149924.0, "BUILDING_N": "MASJID DARUL MAKMUR", "HOUSE_BLK_": "950", "ROAD_NAME": "YISHUN AVENUE 2", "POSTAL_COD": "769099", "ADDRESS_TY": "S", "DATA_TYPE_": "extg", "MULTI_ADDR": "n", "X_ADDR": 28125.800525, "Y_ADDR": 46492.019893800003, "BUILDING_I": "100000001070706090049398616905", "FID_": 58, "OBJECTID_1": 122784, "postalnew": 769099.0, "Mosque_Nam": "DARUL MAKMUR MOSQUE", "Mosque_Add": "950 Yishun Avenue 2 Singapore 769099", "Mosque_Cod": 769099.0, "PosCode": "769099" }, "geometry": { "type": "Point", "coordinates": [ 103.834449016515279, 1.436731799361602 ] } },
{ "type": "Feature", "properties": { "OBJECTID_12": 34, "OBJECTID": 55480, "FEA_ID": 141872.0, "BUILDING_N": "MASJID MYDIN", "HOUSE_BLK_": "67", "ROAD_NAME": "JALAN LAPANG", "POSTAL_COD": "419007", "ADDRESS_TY": "S", "DATA_TYPE_": "extg", "MULTI_ADDR": "n", "X_ADDR": 37100.881823000003, "Y_ADDR": 33857.232204899999, "BUILDING_I": "109000900111411391000171695909", "FID_": 32, "OBJECTID_1": 62888, "postalnew": 419007.0, "Mosque_Nam": "MYDIN MOSQUE", "Mosque_Add": "67 Jalan Lapang Singapore 419007", "Mosque_Cod": 419007.0, "PosCode": "419007" }, "geometry": { "type": "Point", "coordinates": [ 103.9150947998194, 1.322465946583926 ] } },
{ "type": "Feature", "properties": { "OBJECTID_12": 35, "OBJECTID": 55843, "FEA_ID": 149923.0, "BUILDING_N": "MASJID DARUL MAKMUR", "HOUSE_BLK_": "950", "ROAD_NAME": "YISHUN AVENUE 2", "POSTAL_COD": "769099", "ADDRESS_TY": "S", "DATA_TYPE_": "extg", "MULTI_ADDR": "n", "X_ADDR": 28130.905099399999, "Y_ADDR": 46496.9469465, "BUILDING_I": "109000001060706090049398616905", "FID_": 58, "OBJECTID_1": 122784, "postalnew": 769099.0, "Mosque_Nam": "DARUL MAKMUR MOSQUE", "Mosque_Add": "950 Yishun Avenue 2 Singapore 769099", "Mosque_Cod": 769099.0, "PosCode": "769099" }, "geometry": { "type": "Point", "coordinates": [ 103.834494886263755, 1.436776358245804 ] } },
{ "type": "Feature", "properties": { "OBJECTID_12": 36, "OBJECTID": 57084, "FEA_ID": 137188.0, "BUILDING_N": "MASJID HAJJAH FATIMAH", "HOUSE_BLK_": "4001", "ROAD_NAME": "BEACH ROAD", "POSTAL_COD": "199584", "ADDRESS_TY": "S", "DATA_TYPE_": "extg", "MULTI_ADDR": "n", "X_ADDR": 31282.0425927, "Y_ADDR": 31677.805015400001, "BUILDING_I": "109000000010189490528941090906", "FID_": 5, "OBJECTID_1": 25206, "postalnew": 199584.0, "Mosque_Nam": "HAJJAH FATIMAH MOSQUE", "Mosque_Add": "4001 Beach Road Singapore 199584", "Mosque_Cod": 199584.0, "PosCode": "199584" }, "geometry": { "type": "Point", "coordinates": [ 103.862809240048776, 1.302757157667575 ] } },
{ "type": "Feature", "properties": { "OBJECTID_12": 37, "OBJECTID": 57513, "FEA_ID": 21153.0, "BUILDING_N": "MASJID SULTAN", "HOUSE_BLK_": "3", "ROAD_NAME": "MUSCAT STREET", "POSTAL_COD": "198833", "ADDRESS_TY": "S", "DATA_TYPE_": "uc", "MULTI_ADDR": "n", "X_ADDR": 30898.637800799999, "Y_ADDR": 31653.805258699998, "BUILDING_I": "309000000010109080833033646900", "FID_": 4, "OBJECTID_1": 21809, "postalnew": 198833.0, "Mosque_Nam": "SULTAN MOSQUE", "Mosque_Add": "3 Muscat Street Singapore 198833", "Mosque_Cod": 198833.0, "PosCode": "198833" }, "geometry": { "type": "Point", "coordinates": [ 103.859364169775759, 1.302540150136195 ] } },
{ "type": "Feature", "properties": { "OBJECTID_12": 38, "OBJECTID": 57911, "FEA_ID": 117156.0, "BUILDING_N": "MASJID ABDUL ALEEM SIDDIQUE", "HOUSE_BLK_": "90", "ROAD_NAME": "LORONG K TELOK KURAU", "POSTAL_COD": "425723", "ADDRESS_TY": "S", "DATA_TYPE_": "extg", "MULTI_ADDR": "n", "X_ADDR": 36841.2010467, "Y_ADDR": 32796.360805299999, "BUILDING_I": "100000000010402050702030000900", "FID_": 19, "OBJECTID_1": 37683, "postalnew": 425723.0, "Mosque_Nam": "ABDUL ALEEM SIDDIQUE MOSQUE", "Mosque_Add": "90 Lorong K Telok Kurau Singapore 425723", "Mosque_Cod": 425723.0, "PosCode": "425723" }, "geometry": { "type": "Point", "coordinates": [ 103.912761128582488, 1.312871885919022 ] } },
{ "type": "Feature", "properties": { "OBJECTID_12": 39, "OBJECTID": 59663, "FEA_ID": 152294.0, "BUILDING_N": "MASJID DARUL MAKMUR", "HOUSE_BLK_": "950", "ROAD_NAME": "YISHUN AVENUE 2", "POSTAL_COD": "769099", "ADDRESS_TY": "S", "DATA_TYPE_": "extg", "MULTI_ADDR": "n", "X_ADDR": 28096.5118014, "Y_ADDR": 46503.181031200002, "BUILDING_I": "109000000080706090049398616905", "FID_": 58, "OBJECTID_1": 122784, "postalnew": 769099.0, "Mosque_Nam": "DARUL MAKMUR MOSQUE", "Mosque_Add": "950 Yishun Avenue 2 Singapore 769099", "Mosque_Cod": 769099.0, "PosCode": "769099" }, "geometry": { "type": "Point", "coordinates": [ 103.834185829497301, 1.436832736420128 ] } },
{ "type": "Feature", "properties": { "OBJECTID_12": 40, "OBJECTID": 62219, "FEA_ID": 106835.0, "BUILDING_N": "MASJID DARUL MAKMUR", "HOUSE_BLK_": "950", "ROAD_NAME": "YISHUN AVENUE 2", "POSTAL_COD": "769099", "ADDRESS_TY": "S", "DATA_TYPE_": "extg", "MULTI_ADDR": "n", "X_ADDR": 28114.5918972, "Y_ADDR": 46483.136149799997, "BUILDING_I": "100000000010706090049194626805", "FID_": 58, "OBJECTID_1": 122784, "postalnew": 769099.0, "Mosque_Nam": "DARUL MAKMUR MOSQUE", "Mosque_Add": "950 Yishun Avenue 2 Singapore 769099", "Mosque_Cod": 769099.0, "PosCode": "769099" }, "geometry": { "type": "Point", "coordinates": [ 103.834348296460533, 1.436651457540419 ] } },
{ "type": "Feature", "properties": { "OBJECTID_12": 41, "OBJECTID": 63139, "FEA_ID": 73721.0, "BUILDING_N": " ", "HOUSE_BLK_": "50", "ROAD_NAME": "MUSLIM CEMETERY PATH 17", "POSTAL_COD": "698954", "ADDRESS_TY": "S", "DATA_TYPE_": "extg", "MULTI_ADDR": "n", "X_ADDR": 12569.8730036, "Y_ADDR": 40532.569201500002, "BUILDING_I": "109000000000609080905040000500", "FID_": 55, "OBJECTID_1": 113920, "postalnew": 698954.0, "Mosque_Nam": "SURAU PUSARA AMAN", "Mosque_Add": "50 Muslim Cemetery Path 17 Singapore 698954", "Mosque_Cod": 698954.0, "PosCode": "698954" }, "geometry": { "type": "Point", "coordinates": [ 103.694667415803607, 1.382832598624293 ] } },
{ "type": "Feature", "properties": { "OBJECTID_12": 42, "OBJECTID": 63215, "FEA_ID": 152291.0, "BUILDING_N": "MASJID DARUL MAKMUR", "HOUSE_BLK_": "950", "ROAD_NAME": "YISHUN AVENUE 2", "POSTAL_COD": "769099", "ADDRESS_TY": "S", "DATA_TYPE_": "extg", "MULTI_ADDR": "n", "X_ADDR": 28116.496389, "Y_ADDR": 46494.814990799998, "BUILDING_I": "109000000050706090049398616905", "FID_": 58, "OBJECTID_1": 122784, "postalnew": 769099.0, "Mosque_Nam": "DARUL MAKMUR MOSQUE", "Mosque_Add": "950 Yishun Avenue 2 Singapore 769099", "Mosque_Cod": 769099.0, "PosCode": "769099" }, "geometry": { "type": "Point", "coordinates": [ 103.834365410266116, 1.436757077272815 ] } },
{ "type": "Feature", "properties": { "OBJECTID_12": 43, "OBJECTID": 63336, "FEA_ID": 59244.0, "BUILDING_N": "MASJID AL-ISTIQAMAH", "HOUSE_BLK_": "2", "ROAD_NAME": "SERANGOON NORTH AVENUE 2", "POSTAL_COD": "555876", "ADDRESS_TY": "S", "DATA_TYPE_": "extg", "MULTI_ADDR": "n", "X_ADDR": 32710.2297769, "Y_ADDR": 39025.790259300004, "BUILDING_I": "109000000010505259847261090907", "FID_": 48, "OBJECTID_1": 105889, "postalnew": 555876.0, "Mosque_Nam": "ALISTIQAMAH MOSQUE", "Mosque_Add": "2 Serangoon North Avenue 2 Singapore 555876", "Mosque_Cod": 555876.0, "PosCode": "555876" }, "geometry": { "type": "Point", "coordinates": [ 103.875643293048014, 1.369209528890923 ] } },
{ "type": "Feature", "properties": { "OBJECTID_12": 44, "OBJECTID": 63727, "FEA_ID": 113874.0, "BUILDING_N": "MASJID MALABAR", "HOUSE_BLK_": "471", "ROAD_NAME": "VICTORIA STREET", "POSTAL_COD": "198370", "ADDRESS_TY": "S", "DATA_TYPE_": "extg", "MULTI_ADDR": "n", "X_ADDR": 30951.687497, "Y_ADDR": 31927.851431899999, "BUILDING_I": "100000000020109080307000040701", "FID_": 8, "OBJECTID_1": 25696, "postalnew": 198370.0, "Mosque_Nam": "MALABAR MOSQUE", "Mosque_Add": "471 Victoria Street Singapore 198370", "Mosque_Cod": 198370.0, "PosCode": "198370" }, "geometry": { "type": "Point", "coordinates": [ 103.85984087155741, 1.30501852307499 ] } },
{ "type": "Feature", "properties": { "OBJECTID_12": 45, "OBJECTID": 64501, "FEA_ID": 149422.0, "BUILDING_N": " ", "HOUSE_BLK_": "5140", "ROAD_NAME": "ANG MO KIO AVENUE 6", "POSTAL_COD": "569844", "ADDRESS_TY": "S", "DATA_TYPE_": "extg", "MULTI_ADDR": "n", "X_ADDR": 29392.506442099999, "Y_ADDR": 39154.39756, "BUILDING_I": "109000000020506090844346686905", "FID_": 50, "OBJECTID_1": 106164, "postalnew": 569844.0, "Mosque_Nam": "ALMUTTAQIN MOSQUE", "Mosque_Add": "5140 Ang Mo Kio Avenue 6 Singapore 569844", "Mosque_Cod": 569844.0, "PosCode": "569844" }, "geometry": { "type": "Point", "coordinates": [ 103.845831231327779, 1.370372950265075 ] } },
{ "type": "Feature", "properties": { "OBJECTID_12": 46, "OBJECTID": 70426, "FEA_ID": 102327.0, "BUILDING_N": "MASJID ABDUL GAFOOR", "HOUSE_BLK_": "41", "ROAD_NAME": "DUNLOP STREET", "POSTAL_COD": "209369", "ADDRESS_TY": "S", "DATA_TYPE_": "extg", "MULTI_ADDR": "n", "X_ADDR": 30270.635343999998, "Y_ADDR": 31842.700087199999, "BUILDING_I": "109000000020200391326291090907", "FID_": 10, "OBJECTID_1": 25799, "postalnew": 209369.0, "Mosque_Nam": "ABDUL GAFFOOR MOSQUE", "Mosque_Add": "41 Dunlop Street Singapore 209369", "Mosque_Cod": 209369.0, "PosCode": "209369" }, "geometry": { "type": "Point", "coordinates": [ 103.853721293188684, 1.304248501268044 ] } },
{ "type": "Feature", "properties": { "OBJECTID_12": 47, "OBJECTID": 78697, "FEA_ID": 152299.0, "BUILDING_N": "MASJID DARUL MAKMUR", "HOUSE_BLK_": "950", "ROAD_NAME": "YISHUN AVENUE 2", "POSTAL_COD": "769099", "ADDRESS_TY": "S", "DATA_TYPE_": "extg", "MULTI_ADDR": "n", "X_ADDR": 28106.951380300001, "Y_ADDR": 46528.0370692, "BUILDING_I": "109000001030706090049398616905", "FID_": 58, "OBJECTID_1": 122784, "postalnew": 769099.0, "Mosque_Nam": "DARUL MAKMUR MOSQUE", "Mosque_Add": "950 Yishun Avenue 2 Singapore 769099", "Mosque_Cod": 769099.0, "PosCode": "769099" }, "geometry": { "type": "Point", "coordinates": [ 103.834279639410795, 1.437057525945061 ] } },
{ "type": "Feature", "properties": { "OBJECTID_12": 48, "OBJECTID": 79186, "FEA_ID": 50034.0, "BUILDING_N": "MASJID AL-KHAIR", "HOUSE_BLK_": "1", "ROAD_NAME": "TECK WHYE CRESCENT", "POSTAL_COD": "688847", "ADDRESS_TY": "S", "DATA_TYPE_": "extg", "MULTI_ADDR": "n", "X_ADDR": 18728.108558, "Y_ADDR": 40509.571466399997, "BUILDING_I": "100000000010608080824173636905", "FID_": 57, "OBJECTID_1": 117227, "postalnew": 688847.0, "Mosque_Nam": "ALKHAIR MOSQUE", "Mosque_Add": "1 Teck Whye Crescent Singapore 688847", "Mosque_Cod": 688847.0, "PosCode": "688847" }, "geometry": { "type": "Point", "coordinates": [ 103.7500036951391, 1.382627219614685 ] } },
{ "type": "Feature", "properties": { "OBJECTID_12": 49, "OBJECTID": 87072, "FEA_ID": 13191.0, "BUILDING_N": "MASJID ABDUL GAFOOR", "HOUSE_BLK_": "41", "ROAD_NAME": "DUNLOP STREET", "POSTAL_COD": "209369", "ADDRESS_TY": "S", "DATA_TYPE_": "extg", "MULTI_ADDR": "n", "X_ADDR": 30267.252049300001, "Y_ADDR": 31868.805103300001, "BUILDING_I": "100000000010200090306090000401", "FID_": 10, "OBJECTID_1": 25799, "postalnew": 209369.0, "Mosque_Nam": "ABDUL GAFFOOR MOSQUE", "Mosque_Add": "41 Dunlop Street Singapore 209369", "Mosque_Cod": 209369.0, "PosCode": "209369" }, "geometry": { "type": "Point", "coordinates": [ 103.853690894563442, 1.304484585924236 ] } },
{ "type": "Feature", "properties": { "OBJECTID_12": 50, "OBJECTID": 88329, "FEA_ID": 61962.0, "BUILDING_N": "MASJID HAJJAH FATIMAH", "HOUSE_BLK_": "4001", "ROAD_NAME": "BEACH ROAD", "POSTAL_COD": "199584", "ADDRESS_TY": "S", "DATA_TYPE_": "extg", "MULTI_ADDR": "n", "X_ADDR": 31287.776922699999, "Y_ADDR": 31692.380078599999, "BUILDING_I": "100000000010109090508044000001", "FID_": 5, "OBJECTID_1": 25206, "postalnew": 199584.0, "Mosque_Nam": "HAJJAH FATIMAH MOSQUE", "Mosque_Add": "4001 Beach Road Singapore 199584", "Mosque_Cod": 199584.0, "PosCode": "199584" }, "geometry": { "type": "Point", "coordinates": [ 103.862860766899118, 1.302888969114282 ] } },
{ "type": "Feature", "properties": { "OBJECTID_12": 51, "OBJECTID": 89738, "FEA_ID": 13666.0, "BUILDING_N": "MASJID ALKAFF UPPER SERANGOON", "HOUSE_BLK_": "66", "ROAD_NAME": "PHENG GECK AVENUE", "POSTAL_COD": "348261", "ADDRESS_TY": "S", "DATA_TYPE_": "extg", "MULTI_ADDR": "n", "X_ADDR": 32152.310112200001, "Y_ADDR": 35014.804364199998, "BUILDING_I": "100000000010304080206010000606", "FID_": 39, "OBJECTID_1": 79403, "postalnew": 348261.0, "Mosque_Nam": "ALKAFF MOSQUE SERANGOON", "Mosque_Add": "66 Pheng Geck Avenue Singapore 348261", "Mosque_Cod": 348261.0, "PosCode": "348261" }, "geometry": { "type": "Point", "coordinates": [ 103.870629441314506, 1.332935690690165 ] } },
{ "type": "Feature", "properties": { "OBJECTID_12": 52, "OBJECTID": 90159, "FEA_ID": 134602.0, "BUILDING_N": "MASJID HAJJAH RAHIMABI KEBUN LIMAU", "HOUSE_BLK_": "76", "ROAD_NAME": "KIM KEAT ROAD", "POSTAL_COD": "328835", "ADDRESS_TY": "S", "DATA_TYPE_": "extg", "MULTI_ADDR": "n", "X_ADDR": 30405.502154599999, "Y_ADDR": 34272.067422400003, "BUILDING_I": "109000000010302080863452646903", "FID_": 38, "OBJECTID_1": 69170, "postalnew": 328835.0, "Mosque_Nam": "HAJAH RAHIMABI KEBUN LIMAU MOSQUE", "Mosque_Add": "76 Kim Keat Road Singapore 328835", "Mosque_Cod": 328835.0, "PosCode": "328835" }, "geometry": { "type": "Point", "coordinates": [ 103.854933323829556, 1.326218829636248 ] } },
{ "type": "Feature", "properties": { "OBJECTID_12": 53, "OBJECTID": 91121, "FEA_ID": 20650.0, "BUILDING_N": "MASJID AL-HUDA (CORONATION)", "HOUSE_BLK_": "34", "ROAD_NAME": "JALAN HAJI ALIAS", "POSTAL_COD": "268534", "ADDRESS_TY": "S", "DATA_TYPE_": "extg", "MULTI_ADDR": "n", "X_ADDR": 23729.206843399999, "Y_ADDR": 33943.989962300002, "BUILDING_I": "100000000010206080503040000304", "FID_": 35, "OBJECTID_1": 65530, "postalnew": 268534.0, "Mosque_Nam": "ALHUDA MOSQUE", "Mosque_Add": "34 Jalan Haji Alias Singapore 268534", "Mosque_Cod": 268534.0, "PosCode": "268534" }, "geometry": { "type": "Point", "coordinates": [ 103.794943229353166, 1.32325160960906 ] } },
{ "type": "Feature", "properties": { "OBJECTID_12": 54, "OBJECTID": 92560, "FEA_ID": 149420.0, "BUILDING_N": " ", "HOUSE_BLK_": "5140", "ROAD_NAME": "ANG MO KIO AVENUE 6", "POSTAL_COD": "569844", "ADDRESS_TY": "S", "DATA_TYPE_": "extg", "MULTI_ADDR": "n", "X_ADDR": 29416.9748683, "Y_ADDR": 39176.891272699999, "BUILDING_I": "109000000010506090844346686905", "FID_": 50, "OBJECTID_1": 106164, "postalnew": 569844.0, "Mosque_Nam": "ALMUTTAQIN MOSQUE", "Mosque_Add": "5140 Ang Mo Kio Avenue 6 Singapore 569844", "Mosque_Cod": 569844.0, "PosCode": "569844" }, "geometry": { "type": "Point", "coordinates": [ 103.846051099134087, 1.370576374084092 ] } },
{ "type": "Feature", "properties": { "OBJECTID_12": 55, "OBJECTID": 93091, "FEA_ID": 76126.0, "BUILDING_N": "MASJID BA'ALWIE", "HOUSE_BLK_": "2", "ROAD_NAME": "LEWIS ROAD", "POSTAL_COD": "258590", "ADDRESS_TY": "S", "DATA_TYPE_": "extg", "MULTI_ADDR": "n", "X_ADDR": 26817.373461300002, "Y_ADDR": 33644.7179368, "BUILDING_I": "100000000020205080509000000002", "FID_": 28, "OBJECTID_1": 59328, "postalnew": 258590.0, "Mosque_Nam": "BA' ALWIE MOSQUE", "Mosque_Add": "2 Lewis Road Singapore 258590", "Mosque_Cod": 258590.0, "PosCode": "258590" }, "geometry": { "type": "Point", "coordinates": [ 103.82269206024931, 1.320545375459254 ] } },
{ "type": "Feature", "properties": { "OBJECTID_12": 56, "OBJECTID": 93389, "FEA_ID": 149925.0, "BUILDING_N": "MASJID DARUL MAKMUR", "HOUSE_BLK_": "950", "ROAD_NAME": "YISHUN AVENUE 2", "POSTAL_COD": "769099", "ADDRESS_TY": "S", "DATA_TYPE_": "extg", "MULTI_ADDR": "n", "X_ADDR": 28121.9842771, "Y_ADDR": 46517.241236100002, "BUILDING_I": "109000001050706090049398616905", "FID_": 58, "OBJECTID_1": 122784, "postalnew": 769099.0, "Mosque_Nam": "DARUL MAKMUR MOSQUE", "Mosque_Add": "950 Yishun Avenue 2 Singapore 769099", "Mosque_Cod": 769099.0, "PosCode": "769099" }, "geometry": { "type": "Point", "coordinates": [ 103.834414724406045, 1.436959891676951 ] } },
{ "type": "Feature", "properties": { "OBJECTID_12": 57, "OBJECTID": 98423, "FEA_ID": 121612.0, "BUILDING_N": "MASJID DARUSSALAM", "HOUSE_BLK_": "3002", "ROAD_NAME": "COMMONWEALTH AVENUE WEST", "POSTAL_COD": "129579", "ADDRESS_TY": "S", "DATA_TYPE_": "extg", "MULTI_ADDR": "n", "X_ADDR": 21072.683587300002, "Y_ADDR": 32753.531214899998, "BUILDING_I": "100000000010102090527299606806", "FID_": 0, "OBJECTID_1": 19226, "postalnew": 129579.0, "Mosque_Nam": "DARUSSALAM MOSQUE", "Mosque_Add": "3002 Commonwealth Avenue West Singapore 129579", "Mosque_Cod": 129579.0, "PosCode": "129579" }, "geometry": { "type": "Point", "coordinates": [ 103.771073228178182, 1.312485039863911 ] } },
{ "type": "Feature", "properties": { "OBJECTID_12": 58, "OBJECTID": 100766, "FEA_ID": 232536.0, "BUILDING_N": "MASJID KAMPONG SIGLAP", "HOUSE_BLK_": "451", "ROAD_NAME": "MARINE PARADE ROAD", "POSTAL_COD": "449283", "ADDRESS_TY": "S", "DATA_TYPE_": "extg", "MULTI_ADDR": "n", "X_ADDR": 38502.859354699998, "Y_ADDR": 32452.463783499999, "BUILDING_I": "100001020326404090208332605006", "FID_": 13, "OBJECTID_1": 31305, "postalnew": 449283.0, "Mosque_Nam": "KAMPONG SIGLAP MOSQUE", "Mosque_Add": "451 Marine Parade Road Singapore 449283", "Mosque_Cod": 449283.0, "PosCode": "449283" }, "geometry": { "type": "Point", "coordinates": [ 103.927691818574885, 1.309761284852555 ] } },
{ "type": "Feature", "properties": { "OBJECTID_12": 59, "OBJECTID": 102095, "FEA_ID": 116937.0, "BUILDING_N": "MASJID ABDUL ALEEM SIDDIQUE", "HOUSE_BLK_": "90", "ROAD_NAME": "LORONG K TELOK KURAU", "POSTAL_COD": "425723", "ADDRESS_TY": "S", "DATA_TYPE_": "extg", "MULTI_ADDR": "n", "X_ADDR": 36828.633053500002, "Y_ADDR": 32828.120365000002, "BUILDING_I": "100000000020402050702030000900", "FID_": 19, "OBJECTID_1": 37683, "postalnew": 425723.0, "Mosque_Nam": "ABDUL ALEEM SIDDIQUE MOSQUE", "Mosque_Add": "90 Lorong K Telok Kurau Singapore 425723", "Mosque_Cod": 425723.0, "PosCode": "425723" }, "geometry": { "type": "Point", "coordinates": [ 103.91264820803184, 1.313159111863555 ] } },
{ "type": "Feature", "properties": { "OBJECTID_12": 60, "OBJECTID": 110282, "FEA_ID": 213697.0, "BUILDING_N": " ", "HOUSE_BLK_": "90", "ROAD_NAME": "LORONG K TELOK KURAU", "POSTAL_COD": "425723", "ADDRESS_TY": "S", "DATA_TYPE_": "extg", "MULTI_ADDR": "n", "X_ADDR": 36850.042960400002, "Y_ADDR": 32795.733138199997, "BUILDING_I": "100001010923402057722932605004", "FID_": 19, "OBJECTID_1": 37683, "postalnew": 425723.0, "Mosque_Nam": "ABDUL ALEEM SIDDIQUE MOSQUE", "Mosque_Add": "90 Lorong K Telok Kurau Singapore 425723", "Mosque_Cod": 425723.0, "PosCode": "425723" }, "geometry": { "type": "Point", "coordinates": [ 103.912840578080662, 1.312866206686143 ] } },
{ "type": "Feature", "properties": { "OBJECTID_12": 61, "OBJECTID": 110680, "FEA_ID": 985.0, "BUILDING_N": "MASJID AR-RAUDHAH", "HOUSE_BLK_": "30", "ROAD_NAME": "BUKIT BATOK EAST AVENUE 2", "POSTAL_COD": "659919", "ADDRESS_TY": "S", "DATA_TYPE_": "extg", "MULTI_ADDR": "n", "X_ADDR": 19395.525044900001, "Y_ADDR": 37085.3814069, "BUILDING_I": "100000000010605090921190616809", "FID_": 43, "OBJECTID_1": 93254, "postalnew": 659919.0, "Mosque_Nam": "ARRAUDHAH MOSQUE", "Mosque_Add": "30 Bukit Batok East Avenue 2 Singapore 659919", "Mosque_Cod": 659919.0, "PosCode": "659919" }, "geometry": { "type": "Point", "coordinates": [ 103.756001919752151, 1.351660299124077 ] } },
{ "type": "Feature", "properties": { "OBJECTID_12": 62, "OBJECTID": 111183, "FEA_ID": 92499.0, "BUILDING_N": "MASJID ALKAFF UPPER SERANGOON", "HOUSE_BLK_": "66", "ROAD_NAME": "PHENG GECK AVENUE", "POSTAL_COD": "348261", "ADDRESS_TY": "S", "DATA_TYPE_": "extg", "MULTI_ADDR": "n", "X_ADDR": 32156.905700200001, "Y_ADDR": 34995.800126299997, "BUILDING_I": "109000000020304080206010000606", "FID_": 39, "OBJECTID_1": 79403, "postalnew": 348261.0, "Mosque_Nam": "ALKAFF MOSQUE SERANGOON", "Mosque_Add": "66 Pheng Geck Avenue Singapore 348261", "Mosque_Cod": 348261.0, "PosCode": "348261" }, "geometry": { "type": "Point", "coordinates": [ 103.870670732793741, 1.332763821942469 ] } },
{ "type": "Feature", "properties": { "OBJECTID_12": 63, "OBJECTID": 111356, "FEA_ID": 53932.0, "BUILDING_N": "MASJID AL-ISTIGHFAR", "HOUSE_BLK_": "2", "ROAD_NAME": "PASIR RIS WALK", "POSTAL_COD": "518239", "ADDRESS_TY": "S", "DATA_TYPE_": "extg", "MULTI_ADDR": "n", "X_ADDR": 42559.189988600003, "Y_ADDR": 39223.178465700003, "BUILDING_I": "109000000010501286203091090907", "FID_": 52, "OBJECTID_1": 107658, "postalnew": 518239.0, "Mosque_Nam": "ALISTIGHFAR MOSQUE", "Mosque_Add": "2 Pasir Ris Walk Singapore 518239", "Mosque_Cod": 518239.0, "PosCode": "518239" }, "geometry": { "type": "Point", "coordinates": [ 103.964143093901455, 1.370991416303429 ] } },
{ "type": "Feature", "properties": { "OBJECTID_12": 64, "OBJECTID": 111537, "FEA_ID": 17858.0, "BUILDING_N": "MASJID WAK TANJONG", "HOUSE_BLK_": "25", "ROAD_NAME": "PAYA LEBAR ROAD", "POSTAL_COD": "409004", "ADDRESS_TY": "S", "DATA_TYPE_": "extg", "MULTI_ADDR": "n", "X_ADDR": 34519.974407100002, "Y_ADDR": 33305.183469700001, "BUILDING_I": "109000000010400090000040000303", "FID_": 26, "OBJECTID_1": 52831, "postalnew": 409004.0, "Mosque_Nam": "WAK TANJONG MOSQUE", "Mosque_Add": "25 Paya Lebar Road Singapore 409004", "Mosque_Cod": 409004.0, "PosCode": "409004" }, "geometry": { "type": "Point", "coordinates": [ 103.891903879180362, 1.317474075567759 ] } },
{ "type": "Feature", "properties": { "OBJECTID_12": 65, "OBJECTID": 111686, "FEA_ID": 103072.0, "BUILDING_N": "MASJID ALKAFF UPPER SERANGOON", "HOUSE_BLK_": "66", "ROAD_NAME": "PHENG GECK AVENUE", "POSTAL_COD": "348261", "ADDRESS_TY": "S", "DATA_TYPE_": "extg", "MULTI_ADDR": "n", "X_ADDR": 32160.026904400002, "Y_ADDR": 34988.453269500002, "BUILDING_I": "109000000030304080256211616800", "FID_": 39, "OBJECTID_1": 79403, "postalnew": 348261.0, "Mosque_Nam": "ALKAFF MOSQUE SERANGOON", "Mosque_Add": "66 Pheng Geck Avenue Singapore 348261", "Mosque_Cod": 348261.0, "PosCode": "348261" }, "geometry": { "type": "Point", "coordinates": [ 103.870698777539431, 1.332697378768497 ] } },
{ "type": "Feature", "properties": { "OBJECTID_12": 66, "OBJECTID": 112540, "FEA_ID": 152296.0, "BUILDING_N": "MASJID DARUL MAKMUR", "HOUSE_BLK_": "950", "ROAD_NAME": "YISHUN AVENUE 2", "POSTAL_COD": "769099", "ADDRESS_TY": "S", "DATA_TYPE_": "extg", "MULTI_ADDR": "n", "X_ADDR": 28092.689560399998, "Y_ADDR": 46512.6313314, "BUILDING_I": "109000001000706090049398616905", "FID_": 58, "OBJECTID_1": 122784, "postalnew": 769099.0, "Mosque_Nam": "DARUL MAKMUR MOSQUE", "Mosque_Add": "950 Yishun Avenue 2 Singapore 769099", "Mosque_Cod": 769099.0, "PosCode": "769099" }, "geometry": { "type": "Point", "coordinates": [ 103.834151482495372, 1.436918201521822 ] } },
{ "type": "Feature", "properties": { "OBJECTID_12": 67, "OBJECTID": 112547, "FEA_ID": 3383.0, "BUILDING_N": "MASJID ASSYAKIRIN", "HOUSE_BLK_": "550", "ROAD_NAME": "YUNG AN ROAD", "POSTAL_COD": "618617", "ADDRESS_TY": "S", "DATA_TYPE_": "extg", "MULTI_ADDR": "n", "X_ADDR": 15341.6007157, "Y_ADDR": 35284.388128600003, "BUILDING_I": "109000000111611380601272605000", "FID_": 40, "OBJECTID_1": 80896, "postalnew": 618617.0, "Mosque_Nam": "ASSYAKIRIN MOSQUE", "Mosque_Add": "550 Yung An Road Singapore 618617", "Mosque_Cod": 618617.0, "PosCode": "618617" }, "geometry": { "type": "Point", "coordinates": [ 103.719575634112744, 1.33537134552455 ] } },
{ "type": "Feature", "properties": { "OBJECTID_12": 68, "OBJECTID": 112662, "FEA_ID": 76630.0, "BUILDING_N": "MASJID SULTAN", "HOUSE_BLK_": "3", "ROAD_NAME": "MUSCAT STREET", "POSTAL_COD": "198833", "ADDRESS_TY": "S", "DATA_TYPE_": "extg", "MULTI_ADDR": "n", "X_ADDR": 30861.3520035, "Y_ADDR": 31582.385317799999, "BUILDING_I": "109000000124159880803632605000", "FID_": 4, "OBJECTID_1": 21809, "postalnew": 198833.0, "Mosque_Nam": "SULTAN MOSQUE", "Mosque_Add": "3 Muscat Street Singapore 198833", "Mosque_Cod": 198833.0, "PosCode": "198833" }, "geometry": { "type": "Point", "coordinates": [ 103.859029133237641, 1.301894257235232 ] } },
{ "type": "Feature", "properties": { "OBJECTID_12": 69, "OBJECTID": 112741, "FEA_ID": 152300.0, "BUILDING_N": "MASJID DARUL MAKMUR", "HOUSE_BLK_": "950", "ROAD_NAME": "YISHUN AVENUE 2", "POSTAL_COD": "769099", "ADDRESS_TY": "S", "DATA_TYPE_": "extg", "MULTI_ADDR": "n", "X_ADDR": 28118.7150927, "Y_ADDR": 46523.062283899999, "BUILDING_I": "109000001040706090049398616905", "FID_": 58, "OBJECTID_1": 122784, "postalnew": 769099.0, "Mosque_Nam": "DARUL MAKMUR MOSQUE", "Mosque_Add": "950 Yishun Avenue 2 Singapore 769099", "Mosque_Cod": 769099.0, "PosCode": "769099" }, "geometry": { "type": "Point", "coordinates": [ 103.834385347530286, 1.43701253560993 ] } },
{ "type": "Feature", "properties": { "OBJECTID_12": 70, "OBJECTID": 113750, "FEA_ID": 93336.0, "BUILDING_N": "MASJID ALKAFF UPPER SERANGOON", "HOUSE_BLK_": "66", "ROAD_NAME": "PHENG GECK AVENUE", "POSTAL_COD": "348261", "ADDRESS_TY": "S", "DATA_TYPE_": "extg", "MULTI_ADDR": "n", "X_ADDR": 32157.291617, "Y_ADDR": 35027.600123999997, "BUILDING_I": "109000000010304680216111090906", "FID_": 39, "OBJECTID_1": 79403, "postalnew": 348261.0, "Mosque_Nam": "ALKAFF MOSQUE SERANGOON", "Mosque_Add": "66 Pheng Geck Avenue Singapore 348261", "Mosque_Cod": 348261.0, "PosCode": "348261" }, "geometry": { "type": "Point", "coordinates": [ 103.870674204655288, 1.333051409759165 ] } },
{ "type": "Feature", "properties": { "OBJECTID_12": 71, "OBJECTID": 114050, "FEA_ID": 14688.0, "BUILDING_N": "MASJID KHALID", "HOUSE_BLK_": "130", "ROAD_NAME": "JOO CHIAT ROAD", "POSTAL_COD": "427727", "ADDRESS_TY": "S", "DATA_TYPE_": "extg", "MULTI_ADDR": "n", "X_ADDR": 35315.340168800001, "Y_ADDR": 32867.914682100003, "BUILDING_I": "109000000010402272772571090908", "FID_": 21, "OBJECTID_1": 38736, "postalnew": 427727.0, "Mosque_Nam": "KHALID MOSQUE", "Mosque_Add": "130 Joo Chiat Road Singapore 427727", "Mosque_Cod": 427727.0, "PosCode": "427727" }, "geometry": { "type": "Point", "coordinates": [ 103.89905054067971, 1.313519394178517 ] } },
{ "type": "Feature", "properties": { "OBJECTID_12": 72, "OBJECTID": 115612, "FEA_ID": 232535.0, "BUILDING_N": "MASJID KAMPONG SIGLAP", "HOUSE_BLK_": "451", "ROAD_NAME": "MARINE PARADE ROAD", "POSTAL_COD": "449283", "ADDRESS_TY": "S", "DATA_TYPE_": "extg", "MULTI_ADDR": "n", "X_ADDR": 38480.1296124, "Y_ADDR": 32510.618477799999, "BUILDING_I": "100001020316404090208332605006", "FID_": 13, "OBJECTID_1": 31305, "postalnew": 449283.0, "Mosque_Nam": "KAMPONG SIGLAP MOSQUE", "Mosque_Add": "451 Marine Parade Road Singapore 449283", "Mosque_Cod": 449283.0, "PosCode": "449283" }, "geometry": { "type": "Point", "coordinates": [ 103.927487601111793, 1.310287222463133 ] } },
{ "type": "Feature", "properties": { "OBJECTID_12": 73, "OBJECTID": 117001, "FEA_ID": 74931.0, "BUILDING_N": "MASJID BA'ALWIE", "HOUSE_BLK_": "2", "ROAD_NAME": "LEWIS ROAD", "POSTAL_COD": "258590", "ADDRESS_TY": "S", "DATA_TYPE_": "extg", "MULTI_ADDR": "n", "X_ADDR": 26806.0789329, "Y_ADDR": 33665.871958199998, "BUILDING_I": "100000000010205080509000000002", "FID_": 28, "OBJECTID_1": 59328, "postalnew": 258590.0, "Mosque_Nam": "BA' ALWIE MOSQUE", "Mosque_Add": "2 Lewis Road Singapore 258590", "Mosque_Cod": 258590.0, "PosCode": "258590" }, "geometry": { "type": "Point", "coordinates": [ 103.82259057243634, 1.320736683410956 ] } },
{ "type": "Feature", "properties": { "OBJECTID_12": 74, "OBJECTID": 117113, "FEA_ID": 152298.0, "BUILDING_N": "MASJID DARUL MAKMUR", "HOUSE_BLK_": "950", "ROAD_NAME": "YISHUN AVENUE 2", "POSTAL_COD": "769099", "ADDRESS_TY": "S", "DATA_TYPE_": "extg", "MULTI_ADDR": "n", "X_ADDR": 28102.171036600001, "Y_ADDR": 46526.071103100003, "BUILDING_I": "109000001020706090049398616905", "FID_": 58, "OBJECTID_1": 122784, "postalnew": 769099.0, "Mosque_Nam": "DARUL MAKMUR MOSQUE", "Mosque_Add": "950 Yishun Avenue 2 Singapore 769099", "Mosque_Cod": 769099.0, "PosCode": "769099" }, "geometry": { "type": "Point", "coordinates": [ 103.834236682919638, 1.437039746170934 ] } },
{ "type": "Feature", "properties": { "OBJECTID_12": 75, "OBJECTID": 117141, "FEA_ID": 16015.0, "BUILDING_N": "MASJID AL'FIRDAUS", "HOUSE_BLK_": "11", "ROAD_NAME": "JALAN IBADAT", "POSTAL_COD": "698955", "ADDRESS_TY": "S", "DATA_TYPE_": "extg", "MULTI_ADDR": "n", "X_ADDR": 14994.2871043, "Y_ADDR": 39661.374301199998, "BUILDING_I": "109000000010689480925851090906", "FID_": 54, "OBJECTID_1": 110080, "postalnew": 698955.0, "Mosque_Nam": "ALFIRDAUS MOSQUE", "Mosque_Add": "11 Jalan Ibadat Singapore 698955", "Mosque_Cod": 698955.0, "PosCode": "698955" }, "geometry": { "type": "Point", "coordinates": [ 103.71645292998187, 1.37495502015468 ] } },
{ "type": "Feature", "properties": { "OBJECTID_12": 76, "OBJECTID": 120674, "FEA_ID": 107633.0, "BUILDING_N": "MASJID MUJAHIDIN", "HOUSE_BLK_": "590", "ROAD_NAME": "STIRLING ROAD", "POSTAL_COD": "148952", "ADDRESS_TY": "S", "DATA_TYPE_": "extg", "MULTI_ADDR": "n", "X_ADDR": 24397.889924300001, "Y_ADDR": 31166.2254522, "BUILDING_I": "100000000010104080905020050900", "FID_": 2, "OBJECTID_1": 20593, "postalnew": 148952.0, "Mosque_Nam": "MUJAHIDIN MOSQUE", "Mosque_Add": "590 Stirling Road Singapore 148952", "Mosque_Cod": 148952.0, "PosCode": "148952" }, "geometry": { "type": "Point", "coordinates": [ 103.800952024069133, 1.298130577602668 ] } },
{ "type": "Feature", "properties": { "OBJECTID_12": 77, "OBJECTID": 128406, "FEA_ID": 105105.0, "BUILDING_N": "MASJID DARUL AMAN", "HOUSE_BLK_": "1", "ROAD_NAME": "JALAN EUNOS", "POSTAL_COD": "419493", "ADDRESS_TY": "S", "DATA_TYPE_": "extg", "MULTI_ADDR": "n", "X_ADDR": 35929.1307781, "Y_ADDR": 33359.244056099997, "BUILDING_I": "100000000010401090409030000001", "FID_": 25, "OBJECTID_1": 52755, "postalnew": 419493.0, "Mosque_Nam": "DARUL AMAN MOSQUE", "Mosque_Add": "1 Jalan Eunos Singapore 419493", "Mosque_Cod": 419493.0, "PosCode": "419493" }, "geometry": { "type": "Point", "coordinates": [ 103.904565877060932, 1.317962647345442 ] } },
{ "type": "Feature", "properties": { "OBJECTID_12": 78, "OBJECTID": 128959, "FEA_ID": 92666.0, "BUILDING_N": "MASJID HAJJAH RAHIMABI KEBUN LIMAU", "HOUSE_BLK_": "76", "ROAD_NAME": "KIM KEAT ROAD", "POSTAL_COD": "328835", "ADDRESS_TY": "S", "DATA_TYPE_": "extg", "MULTI_ADDR": "n", "X_ADDR": 30393.202456700001, "Y_ADDR": 34259.738939700001, "BUILDING_I": "100000000010302080803050000706", "FID_": 38, "OBJECTID_1": 69170, "postalnew": 328835.0, "Mosque_Nam": "HAJAH RAHIMABI KEBUN LIMAU MOSQUE", "Mosque_Add": "76 Kim Keat Road Singapore 328835", "Mosque_Cod": 328835.0, "PosCode": "328835" }, "geometry": { "type": "Point", "coordinates": [ 103.854822802484719, 1.326107336020953 ] } },
{ "type": "Feature", "properties": { "OBJECTID_12": 79, "OBJECTID": 130562, "FEA_ID": 805.0, "BUILDING_N": "MASJID MALABAR", "HOUSE_BLK_": "471", "ROAD_NAME": "VICTORIA STREET", "POSTAL_COD": "198370", "ADDRESS_TY": "S", "DATA_TYPE_": "uc", "MULTI_ADDR": "n", "X_ADDR": 30951.845314300001, "Y_ADDR": 31950.3694497, "BUILDING_I": "309000000020109080337008606808", "FID_": 8, "OBJECTID_1": 25696, "postalnew": 198370.0, "Mosque_Nam": "MALABAR MOSQUE", "Mosque_Add": "471 Victoria Street Singapore 198370", "Mosque_Cod": 198370.0, "PosCode": "198370" }, "geometry": { "type": "Point", "coordinates": [ 103.859842291596308, 1.305222167895986 ] } },
{ "type": "Feature", "properties": { "OBJECTID_12": 80, "OBJECTID": 130709, "FEA_ID": 84690.0, "BUILDING_N": "MASJID HAJI MOHD SALLEH", "HOUSE_BLK_": "245", "ROAD_NAME": "GEYLANG ROAD", "POSTAL_COD": "389304", "ADDRESS_TY": "S", "DATA_TYPE_": "extg", "MULTI_ADDR": "n", "X_ADDR": 32848.873486999997, "Y_ADDR": 32744.677859899999, "BUILDING_I": "109000000010308092310041090908", "FID_": 22, "OBJECTID_1": 39661, "postalnew": 389304.0, "Mosque_Nam": "MOHD SALLEH MOSQUE", "Mosque_Add": "245 Geylang Road Singapore 389304", "Mosque_Cod": 389304.0, "PosCode": "389304" }, "geometry": { "type": "Point", "coordinates": [ 103.876888099637966, 1.312405371960531 ] } },
{ "type": "Feature", "properties": { "OBJECTID_12": 81, "OBJECTID": 132081, "FEA_ID": 24691.0, "BUILDING_N": "MASJID WAK TANJONG", "HOUSE_BLK_": "25", "ROAD_NAME": "PAYA LEBAR ROAD", "POSTAL_COD": "409004", "ADDRESS_TY": "S", "DATA_TYPE_": "extg", "MULTI_ADDR": "n", "X_ADDR": 34510.915411399998, "Y_ADDR": 33306.919126699999, "BUILDING_I": "109000000010480094030741090906", "FID_": 26, "OBJECTID_1": 52831, "postalnew": 409004.0, "Mosque_Nam": "WAK TANJONG MOSQUE", "Mosque_Add": "25 Paya Lebar Road Singapore 409004", "Mosque_Cod": 409004.0, "PosCode": "409004" }, "geometry": { "type": "Point", "coordinates": [ 103.891822479833024, 1.317489773637091 ] } },
{ "type": "Feature", "properties": { "OBJECTID_12": 82, "OBJECTID": 132857, "FEA_ID": 26546.0, "BUILDING_N": "MASJID ALKAFF KAMPUNG MELAYU", "HOUSE_BLK_": "200", "ROAD_NAME": "BEDOK RESERVOIR ROAD", "POSTAL_COD": "479221", "ADDRESS_TY": "S", "DATA_TYPE_": "extg", "MULTI_ADDR": "n", "X_ADDR": 36977.641943800001, "Y_ADDR": 35424.408487200002, "BUILDING_I": "100000000010407090252510616901", "FID_": 42, "OBJECTID_1": 84614, "postalnew": 479221.0, "Mosque_Nam": "ALKAFF MOSQUE KAMPONG MELAYU", "Mosque_Add": "200 Bedok Reservoir Road Singapore 479221", "Mosque_Cod": 479221.0, "PosCode": "479221" }, "geometry": { "type": "Point", "coordinates": [ 103.913987885041806, 1.336638956391189 ] } },
{ "type": "Feature", "properties": { "OBJECTID_12": 83, "OBJECTID": 132882, "FEA_ID": 42482.0, "BUILDING_N": "MASJID KHADIJAH", "HOUSE_BLK_": "583", "ROAD_NAME": "GEYLANG ROAD", "POSTAL_COD": "389522", "ADDRESS_TY": "S", "DATA_TYPE_": "extg", "MULTI_ADDR": "n", "X_ADDR": 33873.783071400001, "Y_ADDR": 32941.555294099999, "BUILDING_I": "100000000010308090502020050803", "FID_": 24, "OBJECTID_1": 45130, "postalnew": 389522.0, "Mosque_Nam": "KHADIJAH MOSQUE", "Mosque_Add": "583 Geylang Road Singapore 389522", "Mosque_Cod": 389522.0, "PosCode": "389522" }, "geometry": { "type": "Point", "coordinates": [ 103.886097452956037, 1.314185682480314 ] } },
{ "type": "Feature", "properties": { "OBJECTID_12": 84, "OBJECTID": 133250, "FEA_ID": 6929.0, "BUILDING_N": "MASJID TENTERA DIRAJA", "HOUSE_BLK_": "81", "ROAD_NAME": "CLEMENTI ROAD", "POSTAL_COD": "129797", "ADDRESS_TY": "S", "DATA_TYPE_": "extg", "MULTI_ADDR": "n", "X_ADDR": 20856.847559400001, "Y_ADDR": 31230.994276099998, "BUILDING_I": "109000000010102090719479656804", "FID_": 1, "OBJECTID_1": 19444, "postalnew": 129797.0, "Mosque_Nam": "TENTERA DIRAJA MOSQUE", "Mosque_Add": "81 Clementi Road Singapore 129797", "Mosque_Cod": 129797.0, "PosCode": "129797" }, "geometry": { "type": "Point", "coordinates": [ 103.76913418545405, 1.298715712007781 ] } },
{ "type": "Feature", "properties": { "OBJECTID_12": 85, "OBJECTID": 133786, "FEA_ID": 110228.0, "BUILDING_N": "MASJID ANGULLIA", "HOUSE_BLK_": "265", "ROAD_NAME": "SERANGOON ROAD", "POSTAL_COD": "218099", "ADDRESS_TY": "S", "DATA_TYPE_": "extg", "MULTI_ADDR": "n", "X_ADDR": 30304.349277099998, "Y_ADDR": 32552.367925, "BUILDING_I": "100000000010201080009898636608", "FID_": 18, "OBJECTID_1": 34896, "postalnew": 218099.0, "Mosque_Nam": "ANGULLIA MOSQUE", "Mosque_Add": "265 Serangoon Road Singapore 218099", "Mosque_Cod": 218099.0, "PosCode": "218099" }, "geometry": { "type": "Point", "coordinates": [ 103.854024281685824, 1.310666483777101 ] } },
{ "type": "Feature", "properties": { "OBJECTID_12": 86, "OBJECTID": 135212, "FEA_ID": 33633.0, "BUILDING_N": "CAIRNHILL PLACE", "HOUSE_BLK_": "15", "ROAD_NAME": "CAIRNHILL ROAD", "POSTAL_COD": "229650", "ADDRESS_TY": "S", "DATA_TYPE_": "extg", "MULTI_ADDR": "y", "X_ADDR": 28410.647616400001, "Y_ADDR": 31782.62271, "BUILDING_I": "101000000010202090605000000105", "FID_": 7, "OBJECTID_1": 25668, "postalnew": 229650.0, "Mosque_Nam": "ALFALAH MOSQUE", "Mosque_Add": "15 Cairnhill Road Singapore 229650", "Mosque_Cod": 229650.0, "PosCode": "229650" }, "geometry": { "type": "Point", "coordinates": [ 103.837008438119398, 1.303705262825657 ] } },
{ "type": "Feature", "properties": { "OBJECTID_12": 87, "OBJECTID": 135218, "FEA_ID": 81015.0, "BUILDING_N": "MASJID ABDUL HAMID (KG PASIRAN)", "HOUSE_BLK_": "10", "ROAD_NAME": "GENTLE ROAD", "POSTAL_COD": "309194", "ADDRESS_TY": "S", "DATA_TYPE_": "extg", "MULTI_ADDR": "n", "X_ADDR": 28860.9124471, "Y_ADDR": 33583.665960799997, "BUILDING_I": "100000000018300194119342605000", "FID_": 30, "OBJECTID_1": 59851, "postalnew": 309194.0, "Mosque_Nam": "ABDUL HAMID MOSQUE", "Mosque_Add": "10 Gentle Road Singapore 309194", "Mosque_Cod": 309194.0, "PosCode": "309194" }, "geometry": { "type": "Point", "coordinates": [ 103.841054326738671, 1.31999325360858 ] } },
{ "type": "Feature", "properties": { "OBJECTID_12": 88, "OBJECTID": 135256, "FEA_ID": 113553.0, "BUILDING_N": "SURAU PUSARA AMAN", "HOUSE_BLK_": "50", "ROAD_NAME": "MUSLIM CEMETERY PATH 17", "POSTAL_COD": "698954", "ADDRESS_TY": "S", "DATA_TYPE_": "extg", "MULTI_ADDR": "n", "X_ADDR": 12498.902390900001, "Y_ADDR": 40530.783239099997, "BUILDING_I": "100000000010609182935941090907", "FID_": 55, "OBJECTID_1": 113920, "postalnew": 698954.0, "Mosque_Nam": "SURAU PUSARA AMAN", "Mosque_Add": "50 Muslim Cemetery Path 17 Singapore 698954", "Mosque_Cod": 698954.0, "PosCode": "698954" }, "geometry": { "type": "Point", "coordinates": [ 103.694029694402573, 1.382816409155384 ] } },
{ "type": "Feature", "properties": { "OBJECTID_12": 89, "OBJECTID": 135911, "FEA_ID": 87654.0, "BUILDING_N": "MASJID KHADIJAH", "HOUSE_BLK_": "583", "ROAD_NAME": "GEYLANG ROAD", "POSTAL_COD": "389522", "ADDRESS_TY": "S", "DATA_TYPE_": "extg", "MULTI_ADDR": "n", "X_ADDR": 33897.154949000003, "Y_ADDR": 32941.021851199999, "BUILDING_I": "100000000121318391502221695908", "FID_": 24, "OBJECTID_1": 45130, "postalnew": 389522.0, "Mosque_Nam": "KHADIJAH MOSQUE", "Mosque_Add": "583 Geylang Road Singapore 389522", "Mosque_Cod": 389522.0, "PosCode": "389522" }, "geometry": { "type": "Point", "coordinates": [ 103.886307460984838, 1.314180853223577 ] } },
{ "type": "Feature", "properties": { "OBJECTID_12": 90, "OBJECTID": 139673, "FEA_ID": 213823.0, "BUILDING_N": " ", "HOUSE_BLK_": "271", "ROAD_NAME": "JURONG EAST STREET 21", "POSTAL_COD": "609603", "ADDRESS_TY": "S", "DATA_TYPE_": "extg", "MULTI_ADDR": "n", "X_ADDR": 17790.853843699999, "Y_ADDR": 35691.489573600003, "BUILDING_I": "100001010515600092630132605003", "FID_": 41, "OBJECTID_1": 83126, "postalnew": 609603.0, "Mosque_Nam": "ALMUKMININ MOSQUE", "Mosque_Add": "271 Jurong East Street 21 Singapore 609603", "Mosque_Cod": 609603.0, "PosCode": "609603" }, "geometry": { "type": "Point", "coordinates": [ 103.741583413674448, 1.339053948091919 ] } },
{ "type": "Feature", "properties": { "OBJECTID_12": 91, "OBJECTID": 139716, "FEA_ID": 219532.0, "BUILDING_N": " ", "HOUSE_BLK_": "11A", "ROAD_NAME": "JALAN BILAL", "POSTAL_COD": "468862", "ADDRESS_TY": " ", "DATA_TYPE_": "extg", "MULTI_ADDR": "n", "X_ADDR": 41375.131860399997, "Y_ADDR": 33783.38571, "BUILDING_I": "100001010113406080806422605006", "FID_": 31, "OBJECTID_1": 61678, "postalnew": 468862.0, "Mosque_Nam": "ALTAQUA MOSQUE", "Mosque_Add": "11A Jalan Bilal Singapore 468862", "Mosque_Cod": 468862.0, "PosCode": "468862" }, "geometry": { "type": "Point", "coordinates": [ 103.953501110472658, 1.321796534353031 ] } },
{ "type": "Feature", "properties": { "OBJECTID_12": 92, "OBJECTID": 148973, "FEA_ID": 153533.0, "BUILDING_N": "MASJID AL-ISTIQAMAH", "HOUSE_BLK_": "2", "ROAD_NAME": "SERANGOON NORTH AVENUE 2", "POSTAL_COD": "555876", "ADDRESS_TY": "S", "DATA_TYPE_": "extg", "MULTI_ADDR": "n", "X_ADDR": 32739.510085999998, "Y_ADDR": 39001.958187199998, "BUILDING_I": "109000900010505259847261090907", "FID_": 48, "OBJECTID_1": 105889, "postalnew": 555876.0, "Mosque_Nam": "ALISTIQAMAH MOSQUE", "Mosque_Add": "2 Serangoon North Avenue 2 Singapore 555876", "Mosque_Cod": 555876.0, "PosCode": "555876" }, "geometry": { "type": "Point", "coordinates": [ 103.87590639320365, 1.368993995261229 ] } },
{ "type": "Feature", "properties": { "OBJECTID_12": 93, "OBJECTID": 151561, "FEA_ID": 152295.0, "BUILDING_N": "MASJID DARUL MAKMUR", "HOUSE_BLK_": "950", "ROAD_NAME": "YISHUN AVENUE 2", "POSTAL_COD": "769099", "ADDRESS_TY": "S", "DATA_TYPE_": "extg", "MULTI_ADDR": "n", "X_ADDR": 28094.5614838, "Y_ADDR": 46507.890457100002, "BUILDING_I": "109000000090706090049398616905", "FID_": 58, "OBJECTID_1": 122784, "postalnew": 769099.0, "Mosque_Nam": "DARUL MAKMUR MOSQUE", "Mosque_Add": "950 Yishun Avenue 2 Singapore 769099", "Mosque_Cod": 769099.0, "PosCode": "769099" }, "geometry": { "type": "Point", "coordinates": [ 103.834168304196268, 1.436875326533882 ] } },
{ "type": "Feature", "properties": { "OBJECTID_12": 94, "OBJECTID": 152132, "FEA_ID": 123102.0, "BUILDING_N": "MASJID MALABAR", "HOUSE_BLK_": "471", "ROAD_NAME": "VICTORIA STREET", "POSTAL_COD": "198370", "ADDRESS_TY": "S", "DATA_TYPE_": "uc", "MULTI_ADDR": "n", "X_ADDR": 30946.129447700001, "Y_ADDR": 31936.811844700002, "BUILDING_I": "309000000010109080337008606808", "FID_": 8, "OBJECTID_1": 25696, "postalnew": 198370.0, "Mosque_Nam": "MALABAR MOSQUE", "Mosque_Add": "471 Victoria Street Singapore 198370", "Mosque_Cod": 198370.0, "PosCode": "198370" }, "geometry": { "type": "Point", "coordinates": [ 103.85979093028034, 1.305099557391569 ] } },
{ "type": "Feature", "properties": { "OBJECTID_12": 95, "OBJECTID": 152200, "FEA_ID": 9204.0, "BUILDING_N": "MASJID WAK TANJONG", "HOUSE_BLK_": "25", "ROAD_NAME": "PAYA LEBAR ROAD", "POSTAL_COD": "409004", "ADDRESS_TY": "S", "DATA_TYPE_": "extg", "MULTI_ADDR": "n", "X_ADDR": 34518.042522700001, "Y_ADDR": 33289.170586400003, "BUILDING_I": "100000000020400090000040000205", "FID_": 26, "OBJECTID_1": 52831, "postalnew": 409004.0, "Mosque_Nam": "WAK TANJONG MOSQUE", "Mosque_Add": "25 Paya Lebar Road Singapore 409004", "Mosque_Cod": 409004.0, "PosCode": "409004" }, "geometry": { "type": "Point", "coordinates": [ 103.891886516697596, 1.31732926104315 ] } },
{ "type": "Feature", "properties": { "OBJECTID_12": 96, "OBJECTID": 155225, "FEA_ID": 7081.0, "BUILDING_N": "MASJID AL-ABDUL RAZAK", "HOUSE_BLK_": "30", "ROAD_NAME": "JALAN ISMAIL", "POSTAL_COD": "419285", "ADDRESS_TY": "S", "DATA_TYPE_": "extg", "MULTI_ADDR": "n", "X_ADDR": 36230.787617900001, "Y_ADDR": 33954.200654699998, "BUILDING_I": "100000000010401090208050000300", "FID_": 34, "OBJECTID_1": 63383, "postalnew": 419285.0, "Mosque_Nam": "ABDUL RAZAK MOSQUE", "Mosque_Add": "30 Jalan Ismail Singapore 419285", "Mosque_Cod": 419285.0, "PosCode": "419285" }, "geometry": { "type": "Point", "coordinates": [ 103.90727657530519, 1.323343140531209 ] } },
{ "type": "Feature", "properties": { "OBJECTID_12": 97, "OBJECTID": 157234, "FEA_ID": 231600.0, "BUILDING_N": "MASJID AL-ABDUL RAZAK", "HOUSE_BLK_": "30", "ROAD_NAME": "JALAN ISMAIL", "POSTAL_COD": "419285", "ADDRESS_TY": "S", "DATA_TYPE_": "PROP", "MULTI_ADDR": "n", "X_ADDR": 36226.163335899997, "Y_ADDR": 33960.998117399999, "BUILDING_I": "300000000010401090208050605000", "FID_": 34, "OBJECTID_1": 63383, "postalnew": 419285.0, "Mosque_Nam": "ABDUL RAZAK MOSQUE", "Mosque_Add": "30 Jalan Ismail Singapore 419285", "Mosque_Cod": 419285.0, "PosCode": "419285" }, "geometry": { "type": "Point", "coordinates": [ 103.90723502535738, 1.32340461591177 ] } },
{ "type": "Feature", "properties": { "OBJECTID_12": 98, "OBJECTID": 163170, "FEA_ID": 238865.0, "BUILDING_N": "MASJID AL-ABDUL RAZAK", "HOUSE_BLK_": "30", "ROAD_NAME": "JALAN ISMAIL", "POSTAL_COD": "419285", "ADDRESS_TY": "S", "DATA_TYPE_": "extg", "MULTI_ADDR": "n", "X_ADDR": 36226.163335899997, "Y_ADDR": 33960.998117399999, "BUILDING_I": "100001010113401090208352605005", "FID_": 34, "OBJECTID_1": 63383, "postalnew": 419285.0, "Mosque_Nam": "ABDUL RAZAK MOSQUE", "Mosque_Add": "30 Jalan Ismail Singapore 419285", "Mosque_Cod": 419285.0, "PosCode": "419285" }, "geometry": { "type": "Point", "coordinates": [ 103.90723502535738, 1.32340461591177 ] } },
{ "type": "Feature", "properties": { "OBJECTID_12": 99, "OBJECTID": 165413, "FEA_ID": 233330.0, "BUILDING_N": "MASJID MUHAJIRIN", "HOUSE_BLK_": "275", "ROAD_NAME": "BRADDELL ROAD", "POSTAL_COD": "579704", "ADDRESS_TY": "S", "DATA_TYPE_": "extg", "MULTI_ADDR": "n", "X_ADDR": 30089.984242899998, "Y_ADDR": 36128.081387600003, "BUILDING_I": "100000060011507090700642605005", "FID_": 47, "OBJECTID_1": 103375, "postalnew": 579704.0, "Mosque_Nam": "MUHAJIRIN MOSQUE", "Mosque_Add": "275 Braddell Road Singapore 579704", "Mosque_Cod": 579704.0, "PosCode": "579704" }, "geometry": { "type": "Point", "coordinates": [ 103.852098351327484, 1.343003984662545 ] } }
]
}
