{
"type": "FeatureCollection",
"name": "sg_hindu_temples",
"crs": { "type": "name", "properties": { "name": "urn:ogc:def:crs:OGC:1.3:CRS84" } },
"features": [
{ "type": "Feature", "properties": { "OBJECTID_1": 1, "OBJECTID": 6677, "FEA_ID": 52065.0, "BUILDING_N": "SRI VADAPATHIRA KALIAMMAN TEMPLE", "HOUSE_BLK_": "555", "ROAD_NAME": "SERANGOON ROAD", "POSTAL_COD": "218174", "ADDRESS_TY": "S", "DATA_TYPE_": "extg", "MULTI_ADDR": "n", "X_ADDR": 30742.468625400001, "Y_ADDR": 33072.606885900001, "BUILDING_I": "100000000116231181117342605000", "OID_": 0, "CHURCH_NAM": " ", "CHURCH_ADD": " ", "CHURCH_COD": 0.0, "PosCode": " ", "OID_1": 20, "HINDU_TEMP": "SRI VADAPATHIRA KALIAMMAN TEMPLE", "HINDU_ADD": "555 Serangoon Road Singapore 218174", "HINDU_CODE": 218174.0, "PosCode_1": "218174" }, "geometry": { "type": "Point", "coordinates": [ 103.857961043128768, 1.315371305414468 ] } },
{ "type": "Feature", "properties": { "OBJECTID_1": 2, "OBJECTID": 8974, "FEA_ID": 186079.0, "BUILDING_N": "SRI THENDAYUTHAPANI TEMPLE", "HOUSE_BLK_": "15", "ROAD_NAME": "TANK ROAD", "POSTAL_COD": "238065", "ADDRESS_TY": "U", "DATA_TYPE_": "extg", "MULTI_ADDR": "n", "X_ADDR": 29070.227271399999, "Y_ADDR": 30747.842431699999, "BUILDING_I": "100000000010203080006050605105", "OID_": 0, "CHURCH_NAM": " ", "CHURCH_ADD": " ", "CHURCH_COD": 0.0, "PosCode": " ", "OID_1": 12, "HINDU_TEMP": "SRI THANDAYUTHAPANI TEMPLE", "HINDU_ADD": "15 Tank Road Singapore 238065", "HINDU_CODE": 238065.0, "PosCode_1": "238065" }, "geometry": { "type": "Point", "coordinates": [ 103.842935031909064, 1.294347058342112 ] } },
{ "type": "Feature", "properties": { "OBJECTID_1": 3, "OBJECTID": 10652, "FEA_ID": 119098.0, "BUILDING_N": "SRI LANKARAMAYA BUDDHIST TEMPLE", "HOUSE_BLK_": "30C", "ROAD_NAME": "ST. MICHAEL'S ROAD", "POSTAL_COD": "328002", "ADDRESS_TY": "S", "DATA_TYPE_": "extg", "MULTI_ADDR": "n", "X_ADDR": 31312.203094799999, "Y_ADDR": 34393.587384, "BUILDING_I": "109000000030302080000020607300", "OID_": 0, "CHURCH_NAM": " ", "CHURCH_ADD": " ", "CHURCH_COD": 0.0, "PosCode": " ", "OID_1": 3, "HINDU_TEMP": "SRI LANKARAMAYA TEMPLE", "HINDU_ADD": "30C Saint Michael's Road Singapore 328002", "HINDU_CODE": 328002.0, "PosCode_1": "328002" }, "geometry": { "type": "Point", "coordinates": [ 103.863080536736405, 1.327317728318788 ] } },
{ "type": "Feature", "properties": { "OBJECTID_1": 4, "OBJECTID": 16522, "FEA_ID": 118493.0, "BUILDING_N": "SRI MURUGAN HILL TEMPLE", "HOUSE_BLK_": "931", "ROAD_NAME": "UPPER BUKIT TIMAH ROAD", "POSTAL_COD": "678207", "ADDRESS_TY": "S", "DATA_TYPE_": "extg", "MULTI_ADDR": "n", "X_ADDR": 20041.811210200001, "Y_ADDR": 39884.373762000003, "BUILDING_I": "100000900010607080220675626903", "OID_": 0, "CHURCH_NAM": " ", "CHURCH_ADD": " ", "CHURCH_COD": 0.0, "PosCode": " ", "OID_1": 5, "HINDU_TEMP": "Show mapSRI MURUGAN HILL TEMPLE", "HINDU_ADD": "931 Upper Bukit Timah Road Singapore 678207", "HINDU_CODE": 678207.0, "PosCode_1": "678207" }, "geometry": { "type": "Point", "coordinates": [ 103.761808459171959, 1.376973547194112 ] } },
{ "type": "Feature", "properties": { "OBJECTID_1": 5, "OBJECTID": 23561, "FEA_ID": 207433.0, "BUILDING_N": "ARULMIGU VELMURUGAN GNANA MUNEESWARAR TEMPLE", "HOUSE_BLK_": "50", "ROAD_NAME": "RIVERVALE CRESCENT", "POSTAL_COD": "545029", "ADDRESS_TY": "S", "DATA_TYPE_": "extg", "MULTI_ADDR": "n", "X_ADDR": 36326.791608699998, "Y_ADDR": 41190.939193400001, "BUILDING_I": "100000060810504050002692605002", "OID_": 0, "CHURCH_NAM": " ", "CHURCH_ADD": " ", "CHURCH_COD": 0.0, "PosCode": " ", "OID_1": 2, "HINDU_TEMP": "ARULMIGU VELMURUGAN GNANA MUNEESWARAR TEMPLE", "HINDU_ADD": "50 Rivervale Crescent Singapore 545029", "HINDU_CODE": 545029.0, "PosCode_1": "545029" }, "geometry": { "type": "Point", "coordinates": [ 103.908141230949497, 1.388789545240499 ] } },
{ "type": "Feature", "properties": { "OBJECTID_1": 6, "OBJECTID": 31557, "FEA_ID": 10846.0, "BUILDING_N": "RAMAKRISHNA MISSION SINGAPORE", "HOUSE_BLK_": "179", "ROAD_NAME": "BARTLEY ROAD", "POSTAL_COD": "539784", "ADDRESS_TY": "S", "DATA_TYPE_": "extg", "MULTI_ADDR": "n", "X_ADDR": 33215.895006300001, "Y_ADDR": 36266.5874692, "BUILDING_I": "109000000010503090708343616601", "OID_": 0, "CHURCH_NAM": " ", "CHURCH_ADD": " ", "CHURCH_COD": 0.0, "PosCode": " ", "OID_1": 28, "HINDU_TEMP": "RAMAKRISHNA MISSION & BOYS' HOME", "HINDU_ADD": "179 Bartley Road Singapore 539784", "HINDU_CODE": 539784.0, "PosCode_1": "539784" }, "geometry": { "type": "Point", "coordinates": [ 103.880186568067273, 1.344256204809004 ] } },
{ "type": "Feature", "properties": { "OBJECTID_1": 7, "OBJECTID": 46316, "FEA_ID": 4395.0, "BUILDING_N": "SRI SENPAGA VINAYAGAR TEMPLE", "HOUSE_BLK_": "21", "ROAD_NAME": "CEYLON ROAD", "POSTAL_COD": "429613", "ADDRESS_TY": "K", "DATA_TYPE_": "extg", "MULTI_ADDR": "n", "X_ADDR": 35688.654492599999, "Y_ADDR": 32008.300917699999, "BUILDING_I": "109000000110422990611052605002", "OID_": 0, "CHURCH_NAM": " ", "CHURCH_ADD": " ", "CHURCH_COD": 0.0, "PosCode": " ", "OID_1": 13, "HINDU_TEMP": "SRI SENPAGA VINAYAGAR TEMPLE", "HINDU_ADD": "19 Ceylon Road Singapore 429613", "HINDU_CODE": 429613.0, "PosCode_1": "429613" }, "geometry": { "type": "Point", "coordinates": [ 103.902404740486006, 1.305745264783922 ] } },
{ "type": "Feature", "properties": { "OBJECTID_1": 8, "OBJECTID": 47395, "FEA_ID": 212250.0, "BUILDING_N": "SRI SIVAN TEMPLE", "HOUSE_BLK_": "24", "ROAD_NAME": "GEYLANG EAST AVENUE 2", "POSTAL_COD": "389752", "ADDRESS_TY": "S", "DATA_TYPE_": "extg", "MULTI_ADDR": "n", "X_ADDR": 34136.233640600003, "Y_ADDR": 33405.523984799998, "BUILDING_I": "100000030814308090705222605004", "OID_": 0, "CHURCH_NAM": " ", "CHURCH_ADD": " ", "CHURCH_COD": 0.0, "PosCode": " ", "OID_1": 27, "HINDU_TEMP": "SRI SIVAN TEMPLE GEYLANG EAST AVENUE 2", "HINDU_ADD": "24 Geylang East Avenue 2 Singapore 389752", "HINDU_CODE": 389752.0, "PosCode_1": "389752" }, "geometry": { "type": "Point", "coordinates": [ 103.888455793152687, 1.318381598346602 ] } },
{ "type": "Feature", "properties": { "OBJECTID_1": 9, "OBJECTID": 49225, "FEA_ID": 34216.0, "BUILDING_N": "SRI ARULMIGU MURUGAN TEMPLE", "HOUSE_BLK_": "281", "ROAD_NAME": "JURONG EAST STREET 21", "POSTAL_COD": "609605", "ADDRESS_TY": "S", "DATA_TYPE_": "extg", "MULTI_ADDR": "n", "X_ADDR": 17455.572815299998, "Y_ADDR": 35938.7132585, "BUILDING_I": "109000000020600290650251090908", "OID_": 0, "CHURCH_NAM": " ", "CHURCH_ADD": " ", "CHURCH_COD": 0.0, "PosCode": " ", "OID_1": 6, "HINDU_TEMP": "ARULMIGU MURUGAN TEMPLE", "HINDU_ADD": "281 Jurong East Street 21 Singapore 609605", "HINDU_CODE": 609605.0, "PosCode_1": "609605" }, "geometry": { "type": "Point", "coordinates": [ 103.738570634070314, 1.341289633084865 ] } },
{ "type": "Feature", "properties": { "OBJECTID_1": 10, "OBJECTID": 58578, "FEA_ID": 84830.0, "BUILDING_N": "SRI VEERAMA KALIAMMAN TEMPLE", "HOUSE_BLK_": "141", "ROAD_NAME": "SERANGOON ROAD", "POSTAL_COD": "218042", "ADDRESS_TY": "S", "DATA_TYPE_": "extg", "MULTI_ADDR": "n", "X_ADDR": 30126.736143300001, "Y_ADDR": 32244.57973, "BUILDING_I": "100000000010201080004020010401", "OID_": 0, "CHURCH_NAM": " ", "CHURCH_ADD": " ", "CHURCH_COD": 0.0, "PosCode": " ", "OID_1": 16, "HINDU_TEMP": "SRI VEERAMAKALIAMMAN TEMPLE", "HINDU_ADD": "141 Serangoon Road Singapore 218042", "HINDU_CODE": 218042.0, "PosCode_1": "218042" }, "geometry": { "type": "Point", "coordinates": [ 103.852428319445863, 1.307882968747191 ] } },
{ "type": "Feature", "properties": { "OBJECTID_1": 11, "OBJECTID": 58793, "FEA_ID": 60407.0, "BUILDING_N": "SHREE LAKSHMINARAYAN TEMPLE", "HOUSE_BLK_": "5", "ROAD_NAME": "CHANDER ROAD", "POSTAL_COD": "219528", "ADDRESS_TY": "S", "DATA_TYPE_": "extg", "MULTI_ADDR": "n", "X_ADDR": 29960.6238142, "Y_ADDR": 32234.395007499999, "BUILDING_I": "100000000010201090502289696600", "OID_": 0, "CHURCH_NAM": " ", "CHURCH_ADD": " ", "CHURCH_COD": 0.0, "PosCode": " ", "OID_1": 15, "HINDU_TEMP": "SHREE LAKSHMINARAYAN TEMPLE", "HINDU_ADD": "5 Chander Road Singapore 219528", "HINDU_CODE": 219528.0, "PosCode_1": "219528" }, "geometry": { "type": "Point", "coordinates": [ 103.850935720449627, 1.307790872896104 ] } },
{ "type": "Feature", "properties": { "OBJECTID_1": 12, "OBJECTID": 70226, "FEA_ID": 112066.0, "BUILDING_N": "SRI SIVA DURGA TEMPLE", "HOUSE_BLK_": "8", "ROAD_NAME": "POTONG PASIR AVENUE 2", "POSTAL_COD": "358362", "ADDRESS_TY": "S", "DATA_TYPE_": "extg", "MULTI_ADDR": "n", "X_ADDR": 31700.7061956, "Y_ADDR": 34891.563486200001, "BUILDING_I": "100000000010305080306020000008", "OID_": 0, "CHURCH_NAM": " ", "CHURCH_ADD": " ", "CHURCH_COD": 0.0, "PosCode": " ", "OID_1": 24, "HINDU_TEMP": "SRI SIVAN TEMPLE POTONG PASIR AVENUE 2", "HINDU_ADD": "8 Potong Pasir Avenue 2 Singapore 358362", "HINDU_CODE": 358362.0, "PosCode_1": "358362" }, "geometry": { "type": "Point", "coordinates": [ 103.866571509580339, 1.331821202325726 ] } },
{ "type": "Feature", "properties": { "OBJECTID_1": 13, "OBJECTID": 104206, "FEA_ID": 36358.0, "BUILDING_N": "SRI ARULMIGU MURUGAN TEMPLE", "HOUSE_BLK_": "281", "ROAD_NAME": "JURONG EAST STREET 21", "POSTAL_COD": "609605", "ADDRESS_TY": "S", "DATA_TYPE_": "extg", "MULTI_ADDR": "n", "X_ADDR": 17468.350807899998, "Y_ADDR": 35962.335301, "BUILDING_I": "100000000010600290650251090908", "OID_": 0, "CHURCH_NAM": " ", "CHURCH_ADD": " ", "CHURCH_COD": 0.0, "PosCode": " ", "OID_1": 6, "HINDU_TEMP": "ARULMIGU MURUGAN TEMPLE", "HINDU_ADD": "281 Jurong East Street 21 Singapore 609605", "HINDU_CODE": 609605.0, "PosCode_1": "609605" }, "geometry": { "type": "Point", "coordinates": [ 103.738685443680808, 1.341503266244844 ] } },
{ "type": "Feature", "properties": { "OBJECTID_1": 14, "OBJECTID": 118317, "FEA_ID": 118672.0, "BUILDING_N": "HOLY TREE SRI BALASUBRAMANIAM", "HOUSE_BLK_": "10", "ROAD_NAME": "YISHUN INDUSTRIAL PARK A", "POSTAL_COD": "768772", "ADDRESS_TY": "S", "DATA_TYPE_": "extg", "MULTI_ADDR": "n", "X_ADDR": 27831.839229199999, "Y_ADDR": 47040.463863500001, "BUILDING_I": "100000000010706080737121090907", "OID_": 0, "CHURCH_NAM": " ", "CHURCH_ADD": " ", "CHURCH_COD": 0.0, "PosCode": " ", "OID_1": 22, "HINDU_TEMP": "HOLY TREE SRI BALASUBRAMANIYAR TEMPLE", "HINDU_ADD": "10 Yishun Industrial Park A Singapore 768772", "HINDU_CODE": 768772.0, "PosCode_1": "768772" }, "geometry": { "type": "Point", "coordinates": [ 103.831807489049027, 1.441691727836949 ] } },
{ "type": "Feature", "properties": { "OBJECTID_1": 15, "OBJECTID": 119159, "FEA_ID": 133009.0, "BUILDING_N": "SRI GURU SINGH SABHA", "HOUSE_BLK_": "92", "ROAD_NAME": "WILKIE ROAD", "POSTAL_COD": "228086", "ADDRESS_TY": "S", "DATA_TYPE_": "extg", "MULTI_ADDR": "n", "X_ADDR": 29504.012301800001, "Y_ADDR": 31781.5331534, "BUILDING_I": "100000900010202080008060000902", "OID_": 0, "CHURCH_NAM": " ", "CHURCH_ADD": " ", "CHURCH_COD": 0.0, "PosCode": " ", "OID_1": 9, "HINDU_TEMP": "SRI GURU SINGH SABHA", "HINDU_ADD": "92 Wilkie Road Singapore 228086", "HINDU_CODE": 228086.0, "PosCode_1": "228086" }, "geometry": { "type": "Point", "coordinates": [ 103.846832826277279, 1.303695376053679 ] } },
{ "type": "Feature", "properties": { "OBJECTID_1": 16, "OBJECTID": 128944, "FEA_ID": 61233.0, "BUILDING_N": "SRI RUTHRA KALIMMAN TEMPLE", "HOUSE_BLK_": "100", "ROAD_NAME": "DEPOT ROAD", "POSTAL_COD": "109670", "ADDRESS_TY": "S", "DATA_TYPE_": "extg", "MULTI_ADDR": "n", "X_ADDR": 25845.1154584, "Y_ADDR": 29335.332097499999, "BUILDING_I": "100000000020100090607000010000", "OID_": 0, "CHURCH_NAM": " ", "CHURCH_ADD": " ", "CHURCH_COD": 0.0, "PosCode": " ", "OID_1": 11, "HINDU_TEMP": "SRI RUTHRA KALIAMMAN TEMPLE", "HINDU_ADD": "100 Depot Road Singapore 109670", "HINDU_CODE": 109670.0, "PosCode_1": "109670" }, "geometry": { "type": "Point", "coordinates": [ 103.813956111855248, 1.281572755667657 ] } },
{ "type": "Feature", "properties": { "OBJECTID_1": 17, "OBJECTID": 129919, "FEA_ID": 225134.0, "BUILDING_N": "GURDWARA SRI GURU SINGH SABHA", "HOUSE_BLK_": "92", "ROAD_NAME": "WILKIE ROAD", "POSTAL_COD": "228086", "ADDRESS_TY": "S", "DATA_TYPE_": "prop", "MULTI_ADDR": "n", "X_ADDR": 29518.4472546, "Y_ADDR": 31771.230385800001, "BUILDING_I": "300000080018202080008162605006", "OID_": 0, "CHURCH_NAM": " ", "CHURCH_ADD": " ", "CHURCH_COD": 0.0, "PosCode": " ", "OID_1": 9, "HINDU_TEMP": "SRI GURU SINGH SABHA", "HINDU_ADD": "92 Wilkie Road Singapore 228086", "HINDU_CODE": 228086.0, "PosCode_1": "228086" }, "geometry": { "type": "Point", "coordinates": [ 103.846962530035626, 1.30360220045899 ] } },
{ "type": "Feature", "properties": { "OBJECTID_1": 18, "OBJECTID": 133032, "FEA_ID": 144145.0, "BUILDING_N": " ", "HOUSE_BLK_": "17", "ROAD_NAME": "SERANGOON NORTH AVENUE 1", "POSTAL_COD": "555894", "ADDRESS_TY": "S", "DATA_TYPE_": "extg", "MULTI_ADDR": "n", "X_ADDR": 32080.211411799999, "Y_ADDR": 38922.339527299999, "BUILDING_I": "109000900010505058889241090908", "OID_": 0, "CHURCH_NAM": " ", "CHURCH_ADD": " ", "CHURCH_COD": 0.0, "PosCode": " ", "OID_1": 18, "HINDU_TEMP": "DARMA MUNEESWARAN TEMPLE", "HINDU_ADD": "17 Serangoon North Avenue 1 Singapore 555894", "HINDU_CODE": 555894.0, "PosCode_1": "555894" }, "geometry": { "type": "Point", "coordinates": [ 103.869982123035413, 1.368274050795274 ] } },
{ "type": "Feature", "properties": { "OBJECTID_1": 19, "OBJECTID": 136578, "FEA_ID": 66736.0, "BUILDING_N": "SRI MUNEESWARAN TEMPLE", "HOUSE_BLK_": "3", "ROAD_NAME": "COMMONWEALTH DRIVE", "POSTAL_COD": "149594", "ADDRESS_TY": "S", "DATA_TYPE_": "extg", "MULTI_ADDR": "n", "X_ADDR": 24142.5041447, "Y_ADDR": 30917.4675135, "BUILDING_I": "100000000020104090519342616905", "OID_": 0, "CHURCH_NAM": " ", "CHURCH_ADD": " ", "CHURCH_COD": 0.0, "PosCode": " ", "OID_1": 7, "HINDU_TEMP": "SRI MUNEESWARAN TEMPLE", "HINDU_ADD": "3 Commonwealth Drive Singapore 149594", "HINDU_CODE": 149594.0, "PosCode_1": "149594" }, "geometry": { "type": "Point", "coordinates": [ 103.798657300400137, 1.295880867548722 ] } },
{ "type": "Feature", "properties": { "OBJECTID_1": 20, "OBJECTID": 139014, "FEA_ID": 53837.0, "BUILDING_N": "SRI SRINIVASA PERUMAL TEMPLE", "HOUSE_BLK_": "397", "ROAD_NAME": "SERANGOON ROAD", "POSTAL_COD": "218123", "ADDRESS_TY": "S", "DATA_TYPE_": "extg", "MULTI_ADDR": "n", "X_ADDR": 30550.438729900001, "Y_ADDR": 32882.882048699998, "BUILDING_I": "100000000040201080102030030907", "OID_": 0, "CHURCH_NAM": " ", "CHURCH_ADD": " ", "CHURCH_COD": 0.0, "PosCode": " ", "OID_1": 19, "HINDU_TEMP": "SRI SRINIVASA PERUMAL TEMPLE", "HINDU_ADD": "397 Serangoon Road Singapore 218123", "HINDU_CODE": 218123.0, "PosCode_1": "218123" }, "geometry": { "type": "Point", "coordinates": [ 103.856235542058485, 1.31365551706924 ] } },
{ "type": "Feature", "properties": { "OBJECTID_1": 21, "OBJECTID": 147362, "FEA_ID": 80261.0, "BUILDING_N": "SREE MAHA MARIAMMAN TEMPLE", "HOUSE_BLK_": "251", "ROAD_NAME": "YISHUN AVENUE 3", "POSTAL_COD": "769061", "ADDRESS_TY": "S", "DATA_TYPE_": "extg", "MULTI_ADDR": "n", "X_ADDR": 27730.234965299998, "Y_ADDR": 45044.720869099998, "BUILDING_I": "100000000010706090046012636905", "OID_": 0, "CHURCH_NAM": " ", "CHURCH_ADD": " ", "CHURCH_COD": 0.0, "PosCode": " ", "OID_1": 21, "HINDU_TEMP": "SREE MAHA MARIAMMAN TEMPLE", "HINDU_ADD": "251 Yishun Avenue 3 Singapore 769061", "HINDU_CODE": 769061.0, "PosCode_1": "769061" }, "geometry": { "type": "Point", "coordinates": [ 103.830894494095489, 1.423642948912225 ] } },
{ "type": "Feature", "properties": { "OBJECTID_1": 22, "OBJECTID": 149188, "FEA_ID": 164462.0, "BUILDING_N": "HOCK HUAT KENG TEMPLE", "HOUSE_BLK_": "523", "ROAD_NAME": "YISHUN INDUSTRIAL PARK A", "POSTAL_COD": "768770", "ADDRESS_TY": "S", "DATA_TYPE_": "extg", "MULTI_ADDR": "n", "X_ADDR": 28282.5435511, "Y_ADDR": 47223.129904200003, "BUILDING_I": "100000000020706080747407626905", "OID_": 0, "CHURCH_NAM": " ", "CHURCH_ADD": " ", "CHURCH_COD": 0.0, "PosCode": " ", "OID_1": 17, "HINDU_TEMP": "SREE VEERAMUTHU MUNEESWARAM TEMPLE", "HINDU_ADD": "523 Yishun Industrial Park A Singapore 768770", "HINDU_CODE": 768770.0, "PosCode_1": "768770" }, "geometry": { "type": "Point", "coordinates": [ 103.835857510847973, 1.443343691978247 ] } },
{ "type": "Feature", "properties": { "OBJECTID_1": 23, "OBJECTID": 154093, "FEA_ID": 174901.0, "BUILDING_N": " ", "HOUSE_BLK_": "51", "ROAD_NAME": "CHANGI VILLAGE ROAD", "POSTAL_COD": "509908", "ADDRESS_TY": "S", "DATA_TYPE_": "extg", "MULTI_ADDR": "n", "X_ADDR": 45110.759949500003, "Y_ADDR": 41026.262444499996, "BUILDING_I": "100000000000500090900080000000", "OID_": 0, "CHURCH_NAM": " ", "CHURCH_ADD": " ", "CHURCH_COD": 0.0, "PosCode": " ", "OID_1": 26, "HINDU_TEMP": "SREE RAMAR TEMPLE", "HINDU_ADD": "51 Changi Village Road Singapore 509908", "HINDU_CODE": 509908.0, "PosCode_1": "509908" }, "geometry": { "type": "Point", "coordinates": [ 103.987071731760025, 1.387296433646108 ] } },
{ "type": "Feature", "properties": { "OBJECTID_1": 24, "OBJECTID": 158225, "FEA_ID": 241305.0, "BUILDING_N": "SRI SIVA KRISHNA TEMPLE", "HOUSE_BLK_": "31", "ROAD_NAME": "MARSILING RISE", "POSTAL_COD": "739127", "ADDRESS_TY": "S", "DATA_TYPE_": "extg", "MULTI_ADDR": "n", "X_ADDR": 22005.839048000002, "Y_ADDR": 46858.761343400001, "BUILDING_I": "100000000020703090172175646805", "OID_": 0, "CHURCH_NAM": " ", "CHURCH_ADD": " ", "CHURCH_COD": 0.0, "PosCode": " ", "OID_1": 4, "HINDU_TEMP": "SRI SIVA KRISHNA TEMPLE", "HINDU_ADD": "31 Marsiling Rise Singapore 739127", "HINDU_CODE": 739127.0, "PosCode_1": "739127" }, "geometry": { "type": "Point", "coordinates": [ 103.779455224005559, 1.440047836129518 ] } },
{ "type": "Feature", "properties": { "OBJECTID_1": 25, "OBJECTID": 159097, "FEA_ID": 101672.0, "BUILDING_N": "SRI MANMATHA KARUNEESWARAR TEMPLE", "HOUSE_BLK_": "226", "ROAD_NAME": "KALLANG ROAD", "POSTAL_COD": "339096", "ADDRESS_TY": "S", "DATA_TYPE_": "extg", "MULTI_ADDR": "n", "X_ADDR": 31628.156350900001, "Y_ADDR": 32352.496926700001, "BUILDING_I": "100000000010303090019061060702", "OID_": 0, "CHURCH_NAM": " ", "CHURCH_ADD": " ", "CHURCH_COD": 0.0, "PosCode": " ", "OID_1": 25, "HINDU_TEMP": "SRI MANMATHA KARUNESHVARAR TEMPLE", "HINDU_ADD": "226 Kallang Road Singapore 339096", "HINDU_CODE": 339096.0, "PosCode_1": "339096" }, "geometry": { "type": "Point", "coordinates": [ 103.865919309830332, 1.308858793920172 ] } },
{ "type": "Feature", "properties": { "OBJECTID_1": 26, "OBJECTID": 159775, "FEA_ID": 118695.0, "BUILDING_N": "SRI ARASAKESARI SIVAN TEMPLE", "HOUSE_BLK_": "25", "ROAD_NAME": "SUNGEI KADUT AVENUE", "POSTAL_COD": "729679", "ADDRESS_TY": "S", "DATA_TYPE_": "extg", "MULTI_ADDR": "n", "X_ADDR": 19284.637620599999, "Y_ADDR": 43126.059169599997, "BUILDING_I": "100000000026782090607292605001", "OID_": 0, "CHURCH_NAM": " ", "CHURCH_ADD": " ", "CHURCH_COD": 0.0, "PosCode": " ", "OID_1": 0, "HINDU_TEMP": "SRI ARASAKESARI SIVAN TEMPLE", "HINDU_ADD": "25 Sungei Kadut Avenue Singapore 729679", "HINDU_CODE": 729679.0, "PosCode_1": "729679" }, "geometry": { "type": "Point", "coordinates": [ 103.755003740136274, 1.40628994318215 ] } },
{ "type": "Feature", "properties": { "OBJECTID_1": 27, "OBJECTID": 160413, "FEA_ID": 239994.0, "BUILDING_N": "SRI VAIRAVIMADA KALIAMMAN TEMPLE", "HOUSE_BLK_": "2001", "ROAD_NAME": "LORONG 8 TOA PAYOH", "POSTAL_COD": "319259", "ADDRESS_TY": "S", "DATA_TYPE_": "extg", "MULTI_ADDR": "n", "X_ADDR": 30879.015944700001, "Y_ADDR": 35258.047627599997, "BUILDING_I": "100000000033381490205191695909", "OID_": 0, "CHURCH_NAM": " ", "CHURCH_ADD": " ", "CHURCH_COD": 0.0, "PosCode": " ", "OID_1": 23, "HINDU_TEMP": "SRI VAIRAVIMADA KALIAMMAN TEMPLE", "HINDU_ADD": "2001 Lorong 8 Toa Payoh Singapore 319259", "HINDU_CODE": 319259.0, "PosCode_1": "319259" }, "geometry": { "type": "Point", "coordinates": [ 103.859188194373502, 1.335135643368165 ] } },
{ "type": "Feature", "properties": { "OBJECTID_1": 28, "OBJECTID": 161058, "FEA_ID": 180322.0, "BUILDING_N": "KRISHNAN TEMPLE", "HOUSE_BLK_": "152", "ROAD_NAME": "WATERLOO STREET", "POSTAL_COD": "187961", "ADDRESS_TY": "S", "DATA_TYPE_": "extg", "MULTI_ADDR": "n", "X_ADDR": 30141.08005, "Y_ADDR": 31442.166976299999, "BUILDING_I": "100000000018108873946212605000", "OID_": 0, "CHURCH_NAM": " ", "CHURCH_ADD": " ", "CHURCH_COD": 0.0, "PosCode": " ", "OID_1": 14, "HINDU_TEMP": "SRI KRISHNAN TEMPLE", "HINDU_ADD": "152 Waterloo Street Singapore 187961", "HINDU_CODE": 187961.0, "PosCode_1": "187961" }, "geometry": { "type": "Point", "coordinates": [ 103.852557152073487, 1.300626230382423 ] } }
]
}
