{
"type": "FeatureCollection",
"name": "sg_religious_clan_halls",
"crs": { "type": "name", "properties": { "name": "urn:ogc:def:crs:OGC:1.3:CRS84" } },
"features": [
{ "type": "Feature", "properties": { "OBJECTID_1": 1, "OBJECTID": 56, "FEA_ID": 27672.0, "BUILDING_N": "BEACH ROAD CONSERVATION AREA", "HOUSE_BLK_": "11", "ROAD_NAME": "PURVIS STREET", "POSTAL_COD": "188590", "ADDRESS_TY": "K", "DATA_TYPE_": "extg", "MULTI_ADDR": "y", "X_ADDR": 30445.817171800001, "Y_ADDR": 30999.938658399999, "BUILDING_I": "101000000110188580509401695909", "OID_": 54, "S_N": 55.0, "NAME_OF_CL": "THE SONG HENG ASSOCIATION", "ADDRESS": "11 PURVIS STREET #02-01", "POSTAL_C_1": "188590" }, "geometry": { "type": "Point", "coordinates": [ 103.855295318067348, 1.296626851058323 ] } },
{ "type": "Feature", "properties": { "OBJECTID_1": 2, "OBJECTID": 2194, "FEA_ID": 92115.0, "BUILDING_N": "PETAIN RD/TYRWHITT RD CON AREA", "HOUSE_BLK_": "277", "ROAD_NAME": "JALAN BESAR", "POSTAL_COD": "208942", "ADDRESS_TY": "S", "DATA_TYPE_": "extg", "MULTI_ADDR": "n", "X_ADDR": 30805.0013717, "Y_ADDR": 32553.962260799999, "BUILDING_I": "100000000010200080904020020707", "OID_": 27, "S_N": 28.0, "NAME_OF_CL": "THE SINGAPORE KIANGSI ASSOCIATION", "ADDRESS": "277 JALAN BESAR", "POSTAL_C_1": "208942" }, "geometry": { "type": "Point", "coordinates": [ 103.858522884900978, 1.310680860597027 ] } },
{ "type": "Feature", "properties": { "OBJECTID_1": 3, "OBJECTID": 5260, "FEA_ID": 96255.0, "BUILDING_N": "PHO LENG BUILDING", "HOUSE_BLK_": "115", "ROAD_NAME": "KENG LEE ROAD", "POSTAL_COD": "308401", "ADDRESS_TY": "S", "DATA_TYPE_": "extg", "MULTI_ADDR": "n", "X_ADDR": 29289.7788425, "Y_ADDR": 32943.320977000003, "BUILDING_I": "100000000010300080400010010105", "OID_": 42, "S_N": 43.0, "NAME_OF_CL": "NANYANG PHO LENG HUI KUAN", "ADDRESS": "115 KENG LEE ROAD", "POSTAL_C_1": "308401" }, "geometry": { "type": "Point", "coordinates": [ 103.844907887263361, 1.314202184678995 ] } },
{ "type": "Feature", "properties": { "OBJECTID_1": 4, "OBJECTID": 7548, "FEA_ID": 25452.0, "BUILDING_N": " ", "HOUSE_BLK_": "794", "ROAD_NAME": "UPPER BUKIT TIMAH ROAD", "POSTAL_COD": "678133", "ADDRESS_TY": "S", "DATA_TYPE_": "extg", "MULTI_ADDR": "n", "X_ADDR": 20218.174094599999, "Y_ADDR": 39426.245551200002, "BUILDING_I": "100000000020607080103030070904", "OID_": 116, "S_N": 117.0, "NAME_OF_CL": "SINGAPORE BUKIT PANJANG HOKKIEN KONGHUAY", "ADDRESS": "794 UPPER BUKIT TIMAH ROAD", "POSTAL_C_1": "678133" }, "geometry": { "type": "Point", "coordinates": [ 103.763393327984573, 1.372830449963538 ] } },
{ "type": "Feature", "properties": { "OBJECTID_1": 5, "OBJECTID": 11139, "FEA_ID": 71554.0, "BUILDING_N": "HONG HENG GARDEN", "HOUSE_BLK_": "33", "ROAD_NAME": "SEMBAWANG ROAD", "POSTAL_COD": "779084", "ADDRESS_TY": "R", "DATA_TYPE_": "extg", "MULTI_ADDR": "n", "X_ADDR": 26240.718338499999, "Y_ADDR": 42873.836091500001, "BUILDING_I": "100000000010707090008040000303", "OID_": 59, "S_N": 60.0, "NAME_OF_CL": "SEMBAWANG KHENG JAI TUNG YEO HUAY", "ADDRESS": "33 SEMBAWANG ROAD #02-06", "POSTAL_C_1": "779084" }, "geometry": { "type": "Point", "coordinates": [ 103.817509968050544, 1.404010197739435 ] } },
{ "type": "Feature", "properties": { "OBJECTID_1": 6, "OBJECTID": 12125, "FEA_ID": 63441.0, "BUILDING_N": " ", "HOUSE_BLK_": "22", "ROAD_NAME": "LORONG 25 GEYLANG", "POSTAL_COD": "388300", "ADDRESS_TY": "S", "DATA_TYPE_": "extg", "MULTI_ADDR": "n", "X_ADDR": 33492.462744700002, "Y_ADDR": 32958.730922000002, "BUILDING_I": "100000000010308080300000000202", "OID_": 46, "S_N": 47.0, "NAME_OF_CL": "PHOR TIONG KOH PENG ASSOCIATION", "ADDRESS": "22 LORONG 25 GEYLANG", "POSTAL_C_1": "388300" }, "geometry": { "type": "Point", "coordinates": [ 103.882671102707363, 1.314341082956758 ] } },
{ "type": "Feature", "properties": { "OBJECTID_1": 7, "OBJECTID": 15484, "FEA_ID": 120871.0, "BUILDING_N": " ", "HOUSE_BLK_": "21", "ROAD_NAME": "KRETA AYER ROAD", "POSTAL_COD": "088991", "ADDRESS_TY": "K", "DATA_TYPE_": "extg", "MULTI_ADDR": "n", "X_ADDR": 28996.765146500002, "Y_ADDR": 29209.337892299998, "BUILDING_I": "101000000010008080909010000201", "OID_": 94, "S_N": 95.0, "NAME_OF_CL": "SINAGPORE HOK SAN ASSOCIATION", "ADDRESS": "21 KRETA AYER ROAD", "POSTAL_C_1": "088991" }, "geometry": { "type": "Point", "coordinates": [ 103.842274893976935, 1.280433366366591 ] } },
{ "type": "Feature", "properties": { "OBJECTID_1": 8, "OBJECTID": 16459, "FEA_ID": 98853.0, "BUILDING_N": "HOLLAND VILLAGE", "HOUSE_BLK_": "44", "ROAD_NAME": "LORONG MAMBONG", "POSTAL_COD": "277697", "ADDRESS_TY": "U", "DATA_TYPE_": "extg", "MULTI_ADDR": "y", "X_ADDR": 23665.360254700001, "Y_ADDR": 32696.273663600001, "BUILDING_I": "101000000010207070609070000404", "OID_": 9, "S_N": 10.0, "NAME_OF_CL": "TANGLIN HENG JOW TANG YEO WEE", "ADDRESS": "44-A LORONG MAMBANG OFF HOLLAND ROAD", "POSTAL_C_1": "277697" }, "geometry": { "type": "Point", "coordinates": [ 103.794369709065506, 1.311967697769891 ] } },
{ "type": "Feature", "properties": { "OBJECTID_1": 9, "OBJECTID": 18316, "FEA_ID": 106957.0, "BUILDING_N": "YISHUN NEW TOWN", "HOUSE_BLK_": "846", "ROAD_NAME": "YISHUN RING ROAD", "POSTAL_COD": "760846", "ADDRESS_TY": "H", "DATA_TYPE_": "extg", "MULTI_ADDR": "n", "X_ADDR": 28147.256106299999, "Y_ADDR": 44286.551826100003, "BUILDING_I": "100000000000706000804060000000", "OID_": 29, "S_N": 30.0, "NAME_OF_CL": "SELETAR JHENG KEOW TUNG YEOH HWEE", "ADDRESS": "BLK 846 YISHUN RING ROAD #02-3675", "POSTAL_C_1": "760846" }, "geometry": { "type": "Point", "coordinates": [ 103.834641804386621, 1.416786343112714 ] } },
{ "type": "Feature", "properties": { "OBJECTID_1": 10, "OBJECTID": 18923, "FEA_ID": 156913.0, "BUILDING_N": "CHAR YONG BUILDING", "HOUSE_BLK_": "29", "ROAD_NAME": "LORONG 22 GEYLANG", "POSTAL_COD": "398686", "ADDRESS_TY": "K", "DATA_TYPE_": "extg", "MULTI_ADDR": "n", "X_ADDR": 33470.379284299997, "Y_ADDR": 32670.0064112, "BUILDING_I": "100000000110359380618461695909", "OID_": 71, "S_N": 72.0, "NAME_OF_CL": "CHAR YONG (DABU) ASSOCIATION,SINGAPORE", "ADDRESS": "29 LORONG 22 GEYLANG ROAD", "POSTAL_C_1": "398686" }, "geometry": { "type": "Point", "coordinates": [ 103.882472621380231, 1.311729965377262 ] } },
{ "type": "Feature", "properties": { "OBJECTID_1": 11, "OBJECTID": 21900, "FEA_ID": 94118.0, "BUILDING_N": "BUKIT PASOH EXTNSN CONSTN AREA", "HOUSE_BLK_": "27", "ROAD_NAME": "KEONG SAIK ROAD", "POSTAL_COD": "089134", "ADDRESS_TY": "U", "DATA_TYPE_": "extg", "MULTI_ADDR": "y", "X_ADDR": 28895.117781000001, "Y_ADDR": 29151.6915185, "BUILDING_I": "101000000010008090103040000207", "OID_": 81, "S_N": 82.0, "NAME_OF_CL": "SINGAPORE FOOCHOW FONG KONG TONG HIONG HUAY", "ADDRESS": "27 KEONG SAIK ROAD", "POSTAL_C_1": "089134" }, "geometry": { "type": "Point", "coordinates": [ 103.841361552597874, 1.279912035580546 ] } },
{ "type": "Feature", "properties": { "OBJECTID_1": 12, "OBJECTID": 23111, "FEA_ID": 170084.0, "BUILDING_N": "GEYLANG CONSERVATION AREA", "HOUSE_BLK_": "574", "ROAD_NAME": "GEYLANG ROAD", "POSTAL_COD": "389517", "ADDRESS_TY": "S", "DATA_TYPE_": "extg", "MULTI_ADDR": "n", "X_ADDR": 34006.682190599997, "Y_ADDR": 32905.778355800001, "BUILDING_I": "100000000010308090551371686905", "OID_": 19, "S_N": 20.0, "NAME_OF_CL": "HO SAN KONG HOEY", "ADDRESS": "574B/576A GEYLANG ROAD", "POSTAL_C_1": "389517" }, "geometry": { "type": "Point", "coordinates": [ 103.88729161042906, 1.313862103297623 ] } },
{ "type": "Feature", "properties": { "OBJECTID_1": 13, "OBJECTID": 26728, "FEA_ID": 86435.0, "BUILDING_N": "FOOCHOW BUILDING", "HOUSE_BLK_": "21", "ROAD_NAME": "TYRWHITT ROAD", "POSTAL_COD": "207530", "ADDRESS_TY": "K", "DATA_TYPE_": "extg", "MULTI_ADDR": "n", "X_ADDR": 30795.915982400002, "Y_ADDR": 32413.387423, "BUILDING_I": "100000000010200070503000000201", "OID_": 80, "S_N": 81.0, "NAME_OF_CL": "SINGAPORE FOOCHOW DIONGLOK ASSOCIATION", "ADDRESS": "21 TYRWHITT ROAD #06-07", "POSTAL_C_1": "207530" }, "geometry": { "type": "Point", "coordinates": [ 103.858441235500777, 1.309409553538343 ] } },
{ "type": "Feature", "properties": { "OBJECTID_1": 14, "OBJECTID": 27662, "FEA_ID": 56833.0, "BUILDING_N": " ", "HOUSE_BLK_": "102", "ROAD_NAME": "YISHUN AVENUE 5", "POSTAL_COD": "760102", "ADDRESS_TY": "H", "DATA_TYPE_": "extg", "MULTI_ADDR": "n", "X_ADDR": 27493.030709400002, "Y_ADDR": 45816.020799099999, "BUILDING_I": "100000000000706000100020000000", "OID_": 26, "S_N": 27.0, "NAME_OF_CL": "THE KHA KHIU ASSOCIATION", "ADDRESS": "BLK 102 YISHUN AVE 5 #02-137", "POSTAL_C_1": "760102" }, "geometry": { "type": "Point", "coordinates": [ 103.828762985205813, 1.430618303959028 ] } },
{ "type": "Feature", "properties": { "OBJECTID_1": 15, "OBJECTID": 29349, "FEA_ID": 102639.0, "BUILDING_N": "FUTSING BUILDING", "HOUSE_BLK_": "2", "ROAD_NAME": "ALLENBY ROAD", "POSTAL_COD": "209973", "ADDRESS_TY": "K", "DATA_TYPE_": "extg", "MULTI_ADDR": "n", "X_ADDR": 30897.707968300001, "Y_ADDR": 32561.1663133, "BUILDING_I": "100000000010200090907030000002", "OID_": 79, "S_N": 80.0, "NAME_OF_CL": "SINGAPORE FUTSING ASSICATION", "ADDRESS": "2 ALLENBY ROAD #02-01 FUTSING BUILDING", "POSTAL_C_1": "209973" }, "geometry": { "type": "Point", "coordinates": [ 103.859355899536027, 1.310746003358853 ] } },
{ "type": "Feature", "properties": { "OBJECTID_1": 16, "OBJECTID": 29400, "FEA_ID": 84413.0, "BUILDING_N": "GOLDHILL SHOPPING CENTRE", "HOUSE_BLK_": "155", "ROAD_NAME": "THOMSON ROAD", "POSTAL_COD": "307608", "ADDRESS_TY": "U", "DATA_TYPE_": "extg", "MULTI_ADDR": "y", "X_ADDR": 29164.432977600001, "Y_ADDR": 33372.456303400002, "BUILDING_I": "101000000010300070600080010505", "OID_": 34, "S_N": 35.0, "NAME_OF_CL": "MONG LIH NAM LI TANG YEO WUI", "ADDRESS": "155A THOMSON ROAD", "POSTAL_C_1": "307608" }, "geometry": { "type": "Point", "coordinates": [ 103.843781608672288, 1.318083137718944 ] } },
{ "type": "Feature", "properties": { "OBJECTID_1": 17, "OBJECTID": 29543, "FEA_ID": 72819.0, "BUILDING_N": " ", "HOUSE_BLK_": "21", "ROAD_NAME": "BUKIT PASOH ROAD", "POSTAL_COD": "089835", "ADDRESS_TY": "U", "DATA_TYPE_": "extg", "MULTI_ADDR": "y", "X_ADDR": 28802.441543199999, "Y_ADDR": 29052.447945399999, "BUILDING_I": "101000000010008090803050000201", "OID_": 75, "S_N": 76.0, "NAME_OF_CL": "SINGAPORE TUNG ON WUI KUN", "ADDRESS": "21 BUKIT PASOH ROAD", "POSTAL_C_1": "089835" }, "geometry": { "type": "Point", "coordinates": [ 103.8405288183625, 1.279014513742011 ] } },
{ "type": "Feature", "properties": { "OBJECTID_1": 18, "OBJECTID": 31009, "FEA_ID": 113282.0, "BUILDING_N": "TELOK AYER CONSERVATION AREA", "HOUSE_BLK_": "15", "ROAD_NAME": "ANN SIANG ROAD", "POSTAL_COD": "069695", "ADDRESS_TY": "K", "DATA_TYPE_": "extg", "MULTI_ADDR": "n", "X_ADDR": 29394.6758696, "Y_ADDR": 29292.181091300001, "BUILDING_I": "101000000018006893629151695908", "OID_": 22, "S_N": 23.0, "NAME_OF_CL": "FA YUN WUI KWUN", "ADDRESS": "15 ANN SIANG ROAD", "POSTAL_C_1": "069695" }, "geometry": { "type": "Point", "coordinates": [ 103.845850276985573, 1.281182556146117 ] } },
{ "type": "Feature", "properties": { "OBJECTID_1": 19, "OBJECTID": 33667, "FEA_ID": 20158.0, "BUILDING_N": " ", "HOUSE_BLK_": "30", "ROAD_NAME": "LORONG 24A GEYLANG", "POSTAL_COD": "398554", "ADDRESS_TY": "S", "DATA_TYPE_": "extg", "MULTI_ADDR": "n", "X_ADDR": 33624.793733899998, "Y_ADDR": 32734.247543000001, "BUILDING_I": "100000000010309080505040000300", "OID_": 20, "S_N": 21.0, "NAME_OF_CL": "OVERSEAS HONG ANN VILLAGERS' ASSOCIATION", "ADDRESS": "30 LORONG 24-A GEYLANG", "POSTAL_C_1": "398554" }, "geometry": { "type": "Point", "coordinates": [ 103.883860121830764, 1.312310912091573 ] } },
{ "type": "Feature", "properties": { "OBJECTID_1": 20, "OBJECTID": 33871, "FEA_ID": 39393.0, "BUILDING_N": " ", "HOUSE_BLK_": "27", "ROAD_NAME": "LORONG 17 GEYLANG", "POSTAL_COD": "388553", "ADDRESS_TY": "U", "DATA_TYPE_": "extg", "MULTI_ADDR": "y", "X_ADDR": 33035.7940561, "Y_ADDR": 32872.446162499997, "BUILDING_I": "101000000010308080505030000207", "OID_": 35, "S_N": 36.0, "NAME_OF_CL": "MO TAK CO-VILLAGERS' ASSOCIATION", "ADDRESS": "27A GEYLANG ROAD LORONG 17", "POSTAL_C_1": "388553" }, "geometry": { "type": "Point", "coordinates": [ 103.878567693865932, 1.313560832108507 ] } },
{ "type": "Feature", "properties": { "OBJECTID_1": 21, "OBJECTID": 34050, "FEA_ID": 70963.0, "BUILDING_N": "FOONG SHOON FUI KUAN BUILDING", "HOUSE_BLK_": "6", "ROAD_NAME": "LORONG 32 GEYLANG", "POSTAL_COD": "398269", "ADDRESS_TY": "U", "DATA_TYPE_": "extg", "MULTI_ADDR": "y", "X_ADDR": 33944.771088100002, "Y_ADDR": 32863.111062199998, "BUILDING_I": "101000000010309080206090000006", "OID_": 12, "S_N": 13.0, "NAME_OF_CL": "FOONG SOON FUI KUAN", "ADDRESS": "6-LORONG 32 GEYLANG ROAD", "POSTAL_C_1": "398269" }, "geometry": { "type": "Point", "coordinates": [ 103.886735300330756, 1.313476246588604 ] } },
{ "type": "Feature", "properties": { "OBJECTID_1": 22, "OBJECTID": 34106, "FEA_ID": 108072.0, "BUILDING_N": " ", "HOUSE_BLK_": "14", "ROAD_NAME": "YAN KIT ROAD", "POSTAL_COD": "088266", "ADDRESS_TY": "U", "DATA_TYPE_": "extg", "MULTI_ADDR": "y", "X_ADDR": 28957.076162000001, "Y_ADDR": 28777.1600282, "BUILDING_I": "101000000010008080206060000104", "OID_": 135, "S_N": 136.0, "NAME_OF_CL": "SINGAPORE CHANG CHOW GENERAL ASSOCIATION", "ADDRESS": "14 YAN KIT ROAD", "POSTAL_C_1": "088266" }, "geometry": { "type": "Point", "coordinates": [ 103.841918261091621, 1.276524903065709 ] } },
{ "type": "Feature", "properties": { "OBJECTID_1": 23, "OBJECTID": 37894, "FEA_ID": 222397.0, "BUILDING_N": "TEOCHEW BUILDING", "HOUSE_BLK_": "97", "ROAD_NAME": "TANK ROAD", "POSTAL_COD": "238066", "ADDRESS_TY": "K", "DATA_TYPE_": "extg", "MULTI_ADDR": "n", "X_ADDR": 29109.052767699999, "Y_ADDR": 30884.676662999998, "BUILDING_I": "100000000010203080036060656905", "OID_": 72, "S_N": 73.0, "NAME_OF_CL": "SINGAPORE TEO CHEW POIT IP HUAY KUAN", "ADDRESS": "97 TANK ROAD", "POSTAL_C_1": "238066" }, "geometry": { "type": "Point", "coordinates": [ 103.843283899651126, 1.295584538266781 ] } },
{ "type": "Feature", "properties": { "OBJECTID_1": 24, "OBJECTID": 43102, "FEA_ID": 117729.0, "BUILDING_N": " ", "HOUSE_BLK_": "20", "ROAD_NAME": "PECK SEAH STREET", "POSTAL_COD": "079312", "ADDRESS_TY": "K", "DATA_TYPE_": "extg", "MULTI_ADDR": "n", "X_ADDR": 29288.5598298, "Y_ADDR": 29012.4023739, "BUILDING_I": "100000000010007090301020000200", "OID_": 41, "S_N": 42.0, "NAME_OF_CL": "THE NANYANG KHEK COMMUNITY GUILD", "ADDRESS": "20 PECK SEAH STREET", "POSTAL_C_1": "079312" }, "geometry": { "type": "Point", "coordinates": [ 103.844896772655119, 1.278652340217749 ] } },
{ "type": "Feature", "properties": { "OBJECTID_1": 25, "OBJECTID": 43408, "FEA_ID": 50411.0, "BUILDING_N": " ", "HOUSE_BLK_": "37", "ROAD_NAME": "DESKER ROAD", "POSTAL_COD": "209569", "ADDRESS_TY": "S", "DATA_TYPE_": "extg", "MULTI_ADDR": "n", "X_ADDR": 30418.727114500001, "Y_ADDR": 32406.977511599998, "BUILDING_I": "100000000010200090506090000307", "OID_": 130, "S_N": 131.0, "NAME_OF_CL": "SENG CHOW CHUNG SAN KOO CHAN THONG HIONG WUI", "ADDRESS": "37 DESKER ROAD", "POSTAL_C_1": "209569" }, "geometry": { "type": "Point", "coordinates": [ 103.855052010642538, 1.309351615616533 ] } },
{ "type": "Feature", "properties": { "OBJECTID_1": 26, "OBJECTID": 43595, "FEA_ID": 33311.0, "BUILDING_N": "HDB-ROWELL COURT", "HOUSE_BLK_": "637", "ROAD_NAME": "VEERASAMY ROAD", "POSTAL_COD": "200637", "ADDRESS_TY": "H", "DATA_TYPE_": "extg", "MULTI_ADDR": "n", "X_ADDR": 30488.638105499998, "Y_ADDR": 32125.418007600001, "BUILDING_I": "100000000000200000603070000000", "OID_": 102, "S_N": 103.0, "NAME_OF_CL": "SINGAPORE LAM ANN ASSOCIATION", "ADDRESS": "BLK 637 VEERASAMY ROAD #03*109", "POSTAL_C_1": "200637" }, "geometry": { "type": "Point", "coordinates": [ 103.855680172193985, 1.306805285403085 ] } },
{ "type": "Feature", "properties": { "OBJECTID_1": 27, "OBJECTID": 43707, "FEA_ID": 92460.0, "BUILDING_N": " ", "HOUSE_BLK_": "25", "ROAD_NAME": "LORONG 33 GEYLANG", "POSTAL_COD": "387985", "ADDRESS_TY": "S", "DATA_TYPE_": "extg", "MULTI_ADDR": "n", "X_ADDR": 34036.772743399997, "Y_ADDR": 33060.999537900003, "BUILDING_I": "100000000010308070908050000205", "OID_": 109, "S_N": 110.0, "NAME_OF_CL": "PUTIAN ASSOCIATION SINGAPORE", "ADDRESS": "25 LORONG 33 GEYLANG", "POSTAL_C_1": "387985" }, "geometry": { "type": "Point", "coordinates": [ 103.887562018761969, 1.315265862509511 ] } },
{ "type": "Feature", "properties": { "OBJECTID_1": 28, "OBJECTID": 46359, "FEA_ID": 23780.0, "BUILDING_N": " ", "HOUSE_BLK_": "7", "ROAD_NAME": "LORONG 37 GEYLANG", "POSTAL_COD": "387905", "ADDRESS_TY": "S", "DATA_TYPE_": "extg", "MULTI_ADDR": "n", "X_ADDR": 34217.894360300001, "Y_ADDR": 33121.214997700001, "BUILDING_I": "109000000020308071930859646705", "OID_": 64, "S_N": 65.0, "NAME_OF_CL": "WEN CHOW WEI KHAN", "ADDRESS": "7 LORONG 37 GEYLANG", "POSTAL_C_1": "387905" }, "geometry": { "type": "Point", "coordinates": [ 103.889189499052875, 1.315810392945292 ] } },
{ "type": "Feature", "properties": { "OBJECTID_1": 29, "OBJECTID": 49428, "FEA_ID": 91850.0, "BUILDING_N": "LAM ANN BUILDING", "HOUSE_BLK_": "30", "ROAD_NAME": "MOHAMED SULTAN ROAD", "POSTAL_COD": "238974", "ADDRESS_TY": "K", "DATA_TYPE_": "extg", "MULTI_ADDR": "n", "X_ADDR": 28849.8991991, "Y_ADDR": 30581.489837100002, "BUILDING_I": "100000000010203080907040000300", "OID_": 103, "S_N": 104.0, "NAME_OF_CL": "SINGAPORE LAM ANN ASSOCIATION", "ADDRESS": "30 MOHAMED SULTAN ROAD #02-00 LAM ANN BUILDING", "POSTAL_C_1": "238974" }, "geometry": { "type": "Point", "coordinates": [ 103.840955284679964, 1.29284263158571 ] } },
{ "type": "Feature", "properties": { "OBJECTID_1": 30, "OBJECTID": 49953, "FEA_ID": 105151.0, "BUILDING_N": "TELOK AYER CONSERVATION AREA", "HOUSE_BLK_": "20", "ROAD_NAME": "ANN SIANG ROAD", "POSTAL_COD": "069700", "ADDRESS_TY": "U", "DATA_TYPE_": "extg", "MULTI_ADDR": "y", "X_ADDR": 29364.123790599999, "Y_ADDR": 29276.103131899999, "BUILDING_I": "101000000010006090700000000200", "OID_": 63, "S_N": 64.0, "NAME_OF_CL": "THIN HO THUNG HEONG WUI", "ADDRESS": "20 ANN SIANG ROAD", "POSTAL_C_1": "069700" }, "geometry": { "type": "Point", "coordinates": [ 103.845575754846948, 1.281037153689611 ] } },
{ "type": "Feature", "properties": { "OBJECTID_1": 31, "OBJECTID": 50440, "FEA_ID": 110539.0, "BUILDING_N": " ", "HOUSE_BLK_": "46", "ROAD_NAME": "CRAIG ROAD", "POSTAL_COD": "089684", "ADDRESS_TY": "S", "DATA_TYPE_": "extg", "MULTI_ADDR": "n", "X_ADDR": 28969.359757300001, "Y_ADDR": 28935.2865432, "BUILDING_I": "100000000010008090608040000406", "OID_": 25, "S_N": 26.0, "NAME_OF_CL": "WUI CHIU FUI KUN", "ADDRESS": "46 CRAIG ROAD", "POSTAL_C_1": "089684" }, "geometry": { "type": "Point", "coordinates": [ 103.842028638561857, 1.277954942437928 ] } },
{ "type": "Feature", "properties": { "OBJECTID_1": 32, "OBJECTID": 51150, "FEA_ID": 115867.0, "BUILDING_N": "BUKIT PASOH CONSERVATION AREA", "HOUSE_BLK_": "281", "ROAD_NAME": "NEW BRIDGE ROAD", "POSTAL_COD": "088753", "ADDRESS_TY": "S", "DATA_TYPE_": "extg", "MULTI_ADDR": "n", "X_ADDR": 28983.94266, "Y_ADDR": 29402.746706400001, "BUILDING_I": "100000000010008080705030020801", "OID_": 108, "S_N": 109.0, "NAME_OF_CL": "SINGAPORE POON YUE ASSOCIATION", "ADDRESS": "281 NEW BRIDGE ROAD", "POSTAL_C_1": "088753" }, "geometry": { "type": "Point", "coordinates": [ 103.842159685809136, 1.282182488118224 ] } },
{ "type": "Feature", "properties": { "OBJECTID_1": 33, "OBJECTID": 55552, "FEA_ID": 168108.0, "BUILDING_N": " ", "HOUSE_BLK_": "17", "ROAD_NAME": "LORONG 11 GEYLANG", "POSTAL_COD": "388709", "ADDRESS_TY": "S", "DATA_TYPE_": "extg", "MULTI_ADDR": "n", "X_ADDR": 32836.270867200001, "Y_ADDR": 32806.311798499999, "BUILDING_I": "100000000010308081710096616707", "OID_": 14, "S_N": 15.0, "NAME_OF_CL": "HOK TEK CHI LOKE YAH TENG ASSOCIATION", "ADDRESS": "17-LORONG 11 GEYLANG", "POSTAL_C_1": "388709" }, "geometry": { "type": "Point", "coordinates": [ 103.87677486870092, 1.31296276902273 ] } },
{ "type": "Feature", "properties": { "OBJECTID_1": 34, "OBJECTID": 56781, "FEA_ID": 118848.0, "BUILDING_N": "GEYLANG (LORONG 7) ASSOCIATION BUILDING", "HOUSE_BLK_": "4A", "ROAD_NAME": "LORONG 7 GEYLANG", "POSTAL_COD": "388788", "ADDRESS_TY": "U", "DATA_TYPE_": "extg", "MULTI_ADDR": "y", "X_ADDR": 32756.919836699999, "Y_ADDR": 32751.537160100001, "BUILDING_I": "101000000010308080708080605004", "OID_": 88, "S_N": 89.0, "NAME_OF_CL": "SINGAPORE KOH LENG ASSOCIATION", "ADDRESS": "4-A LORONG 7 GEYLANG", "POSTAL_C_1": "388788" }, "geometry": { "type": "Point", "coordinates": [ 103.876061851488629, 1.312467419373412 ] } },
{ "type": "Feature", "properties": { "OBJECTID_1": 35, "OBJECTID": 56831, "FEA_ID": 192468.0, "BUILDING_N": "YING FO FUI KUN", "HOUSE_BLK_": "98", "ROAD_NAME": "TELOK AYER STREET", "POSTAL_COD": "048474", "ADDRESS_TY": "S", "DATA_TYPE_": "extg", "MULTI_ADDR": "n", "X_ADDR": 29684.350401700001, "Y_ADDR": 29438.626979600002, "BUILDING_I": "100000000010004080417942040608", "OID_": 97, "S_N": 98.0, "NAME_OF_CL": "FEDERATION OF KA YIN CHU ASSOCIATION OF SINGAPORE", "ADDRESS": "98 TEOLK AYER ATREET", "POSTAL_C_1": "048474" }, "geometry": { "type": "Point", "coordinates": [ 103.848453122221258, 1.282506947337553 ] } },
{ "type": "Feature", "properties": { "OBJECTID_1": 36, "OBJECTID": 61636, "FEA_ID": 183396.0, "BUILDING_N": "CHIN KANG BUILDING", "HOUSE_BLK_": "29", "ROAD_NAME": "BUKIT PASOH ROAD", "POSTAL_COD": "089843", "ADDRESS_TY": "S", "DATA_TYPE_": "extg", "MULTI_ADDR": "n", "X_ADDR": 28792.5862194, "Y_ADDR": 29073.340718, "BUILDING_I": "100000000027048391844532605003", "OID_": 100, "S_N": 101.0, "NAME_OF_CL": "SINGAPORE CHIN KANG HUAY KUAN", "ADDRESS": "NO 29 BUKIT PASOH ROAD #04-01", "POSTAL_C_1": "089843" }, "geometry": { "type": "Point", "coordinates": [ 103.840440265301496, 1.279203461149512 ] } },
{ "type": "Feature", "properties": { "OBJECTID_1": 37, "OBJECTID": 63665, "FEA_ID": 72873.0, "BUILDING_N": " ", "HOUSE_BLK_": "44", "ROAD_NAME": "LORONG 32 GEYLANG", "POSTAL_COD": "398304", "ADDRESS_TY": "U", "DATA_TYPE_": "extg", "MULTI_ADDR": "y", "X_ADDR": 33953.377183899996, "Y_ADDR": 32750.574668500001, "BUILDING_I": "101000000010309080300040000404", "OID_": 30, "S_N": 31.0, "NAME_OF_CL": "LIU CHIU HOE KUAN", "ADDRESS": "44 LORONG 32 GEYLANG", "POSTAL_C_1": "398304" }, "geometry": { "type": "Point", "coordinates": [ 103.8868126087647, 1.312458506788796 ] } },
{ "type": "Feature", "properties": { "OBJECTID_1": 38, "OBJECTID": 65402, "FEA_ID": 103148.0, "BUILDING_N": "ANN KWAY BUILDING", "HOUSE_BLK_": "265", "ROAD_NAME": "NEW BRIDGE ROAD", "POSTAL_COD": "088745", "ADDRESS_TY": "U", "DATA_TYPE_": "extg", "MULTI_ADDR": "y", "X_ADDR": 29007.0918561, "Y_ADDR": 29447.128650899998, "BUILDING_I": "101000000010008080704050020605", "OID_": 70, "S_N": 71.0, "NAME_OF_CL": "SINGAPORE ANN KWAY ASSOCIATION", "ADDRESS": "265C NEW BRIDGE ROAD", "POSTAL_C_1": "088745" }, "geometry": { "type": "Point", "coordinates": [ 103.842367690849528, 1.28258386172128 ] } },
{ "type": "Feature", "properties": { "OBJECTID_1": 39, "OBJECTID": 65509, "FEA_ID": 24192.0, "BUILDING_N": "TELOK AYER CONSERVATION AREA", "HOUSE_BLK_": "92", "ROAD_NAME": "AMOY STREET", "POSTAL_COD": "069911", "ADDRESS_TY": "U", "DATA_TYPE_": "extg", "MULTI_ADDR": "y", "X_ADDR": 29526.082444299998, "Y_ADDR": 29302.829458799999, "BUILDING_I": "101000000010006090901010000902", "OID_": 32, "S_N": 33.0, "NAME_OF_CL": "LEONG KHAY HUAY KWAN", "ADDRESS": "92 AMOY STREET #01-02", "POSTAL_C_1": "069911" }, "geometry": { "type": "Point", "coordinates": [ 103.84703101623974, 1.281278849556295 ] } },
{ "type": "Feature", "properties": { "OBJECTID_1": 40, "OBJECTID": 67877, "FEA_ID": 63977.0, "BUILDING_N": " ", "HOUSE_BLK_": "151A", "ROAD_NAME": "SERANGOON NORTH AVENUE 2", "POSTAL_COD": "551151", "ADDRESS_TY": "H", "DATA_TYPE_": "extg", "MULTI_ADDR": "n", "X_ADDR": 32472.6269522, "Y_ADDR": 39060.323213800002, "BUILDING_I": "100000000000505010105010000000", "OID_": 120, "S_N": 121.0, "NAME_OF_CL": "SINGAPORE YIO CHU KANG KHENG ZAI TUNG YEO HUI", "ADDRESS": "BLK 151A SERANGOON NORTH AVE 2 #02-83", "POSTAL_C_1": "551151" }, "geometry": { "type": "Point", "coordinates": [ 103.873508271012426, 1.369521868988999 ] } },
{ "type": "Feature", "properties": { "OBJECTID_1": 41, "OBJECTID": 68171, "FEA_ID": 90254.0, "BUILDING_N": "MANHATTAN HOUSE", "HOUSE_BLK_": "151", "ROAD_NAME": "CHIN SWEE ROAD", "POSTAL_COD": "169876", "ADDRESS_TY": "K", "DATA_TYPE_": "extg", "MULTI_ADDR": "n", "X_ADDR": 28833.047499200002, "Y_ADDR": 29941.2724026, "BUILDING_I": "100000000010106090807060010501", "OID_": 89, "S_N": 90.0, "NAME_OF_CL": "SINGAPORE KWANGTUNG HUIKUAN", "ADDRESS": "151 CHIN SWEE ROAD #15-01 MANHATTAN HOUSE", "POSTAL_C_1": "169876" }, "geometry": { "type": "Point", "coordinates": [ 103.840803848111207, 1.287052729896016 ] } },
{ "type": "Feature", "properties": { "OBJECTID_1": 42, "OBJECTID": 71957, "FEA_ID": 4283.0, "BUILDING_N": "BUKIT PANJANG KHECK COMMUNITY GUILD", "HOUSE_BLK_": "921", "ROAD_NAME": "UPPER BUKIT TIMAH ROAD", "POSTAL_COD": "678202", "ADDRESS_TY": "U", "DATA_TYPE_": "extg", "MULTI_ADDR": "y", "X_ADDR": 20030.189000599999, "Y_ADDR": 39862.9587398, "BUILDING_I": "101000000010607080220026626806", "OID_": 65, "S_N": 66.0, "NAME_OF_CL": "BUKIT PANJANG KHEK COMMUNITY GUILD", "ADDRESS": "921 UPPER BUKIT TIMAH ROAD", "POSTAL_C_1": "678202" }, "geometry": { "type": "Point", "coordinates": [ 103.76170403107983, 1.376779873686131 ] } },
{ "type": "Feature", "properties": { "OBJECTID_1": 43, "OBJECTID": 72256, "FEA_ID": 107038.0, "BUILDING_N": " ", "HOUSE_BLK_": "15", "ROAD_NAME": "YAN KIT ROAD", "POSTAL_COD": "088267", "ADDRESS_TY": "S", "DATA_TYPE_": "extg", "MULTI_ADDR": "n", "X_ADDR": 28953.5417696, "Y_ADDR": 28772.334797, "BUILDING_I": "100000000010008080206070000105", "OID_": 138, "S_N": 139.0, "NAME_OF_CL": "SINGAPORE CHAO ANN ASSOCIATION", "ADDRESS": "15 YAN KIT ROAD", "POSTAL_C_1": "088267" }, "geometry": { "type": "Point", "coordinates": [ 103.841886503063492, 1.276481264849783 ] } },
{ "type": "Feature", "properties": { "OBJECTID_1": 44, "OBJECTID": 74204, "FEA_ID": 116095.0, "BUILDING_N": "TELOK AYER CONSERVATION AREA", "HOUSE_BLK_": "27", "ROAD_NAME": "ANN SIANG ROAD", "POSTAL_COD": "069707", "ADDRESS_TY": "U", "DATA_TYPE_": "extg", "MULTI_ADDR": "y", "X_ADDR": 29410.836097399999, "Y_ADDR": 29267.471368800001, "BUILDING_I": "101000000010006090700070000207", "OID_": 141, "S_N": 142.0, "NAME_OF_CL": "HOU CHOW WUI KWUN", "ADDRESS": "27 ANN SIANG HILL", "POSTAL_C_1": "069707" }, "geometry": { "type": "Point", "coordinates": [ 103.845995482387664, 1.280959089570544 ] } },
{ "type": "Feature", "properties": { "OBJECTID_1": 45, "OBJECTID": 75515, "FEA_ID": 105152.0, "BUILDING_N": " ", "HOUSE_BLK_": "7", "ROAD_NAME": "LORONG 37 GEYLANG", "POSTAL_COD": "387905", "ADDRESS_TY": "S", "DATA_TYPE_": "extg", "MULTI_ADDR": "n", "X_ADDR": 34238.709531599998, "Y_ADDR": 33113.871561100001, "BUILDING_I": "100000000010308070900050000007", "OID_": 64, "S_N": 65.0, "NAME_OF_CL": "WEN CHOW WEI KHAN", "ADDRESS": "7 LORONG 37 GEYLANG", "POSTAL_C_1": "387905" }, "geometry": { "type": "Point", "coordinates": [ 103.889376532593175, 1.315743977639574 ] } },
{ "type": "Feature", "properties": { "OBJECTID_1": 46, "OBJECTID": 77488, "FEA_ID": 45474.0, "BUILDING_N": " ", "HOUSE_BLK_": "5", "ROAD_NAME": "LORONG BACHOK", "POSTAL_COD": "387782", "ADDRESS_TY": "S", "DATA_TYPE_": "extg", "MULTI_ADDR": "n", "X_ADDR": 33122.689048499997, "Y_ADDR": 32920.133612899997, "BUILDING_I": "100000000010308070708020000005", "OID_": 111, "S_N": 112.0, "NAME_OF_CL": "SINGAPORE JIN HOE LIAN GHEE SIA", "ADDRESS": "5 LORONG BACHOK (LORONG 19, GEYLANG)", "POSTAL_C_1": "387782" }, "geometry": { "type": "Point", "coordinates": [ 103.879348495485218, 1.31399208654117 ] } },
{ "type": "Feature", "properties": { "OBJECTID_1": 47, "OBJECTID": 77690, "FEA_ID": 18322.0, "BUILDING_N": "TUNG ANN ASSOCIATION BUILDING", "HOUSE_BLK_": "141", "ROAD_NAME": "CECIL STREET", "POSTAL_COD": "069541", "ADDRESS_TY": "K", "DATA_TYPE_": "extg", "MULTI_ADDR": "n", "X_ADDR": 29680.201115100001, "Y_ADDR": 29078.618067899999, "BUILDING_I": "100000000010006090504010010401", "OID_": 114, "S_N": 115.0, "NAME_OF_CL": "TUNG ANN DISTRICT GUILD", "ADDRESS": "141 CECIL STREET #09-00 TUNG ANN BUILDING", "POSTAL_C_1": "069541" }, "geometry": { "type": "Point", "coordinates": [ 103.848415820114312, 1.279251152498364 ] } },
{ "type": "Feature", "properties": { "OBJECTID_1": 48, "OBJECTID": 78287, "FEA_ID": 105478.0, "BUILDING_N": " ", "HOUSE_BLK_": "39", "ROAD_NAME": "LORONG 4 GEYLANG", "POSTAL_COD": "399287", "ADDRESS_TY": "U", "DATA_TYPE_": "extg", "MULTI_ADDR": "y", "X_ADDR": 32779.6521822, "Y_ADDR": 32456.353370699999, "BUILDING_I": "101000000010309090208070000309", "OID_": 139, "S_N": 140.0, "NAME_OF_CL": "SIU HENG WUI KUN", "ADDRESS": "39-A LORONG 4 GEYLANG", "POSTAL_C_1": "399287" }, "geometry": { "type": "Point", "coordinates": [ 103.876266067808075, 1.30979787755007 ] } },
{ "type": "Feature", "properties": { "OBJECTID_1": 49, "OBJECTID": 78738, "FEA_ID": 46083.0, "BUILDING_N": "GEYLANG CONSERVATION AREA", "HOUSE_BLK_": "9", "ROAD_NAME": "LORONG BACHOK", "POSTAL_COD": "387784", "ADDRESS_TY": "S", "DATA_TYPE_": "extg", "MULTI_ADDR": "n", "X_ADDR": 33132.678875400001, "Y_ADDR": 32922.402864199998, "BUILDING_I": "100000000010308070708040000009", "OID_": 56, "S_N": 57.0, "NAME_OF_CL": "CHUANG KHOON KANG KONG SO", "ADDRESS": "9 LORONG BACHOK", "POSTAL_C_1": "387784" }, "geometry": { "type": "Point", "coordinates": [ 103.879438260077379, 1.314012607617167 ] } },
{ "type": "Feature", "properties": { "OBJECTID_1": 50, "OBJECTID": 80036, "FEA_ID": 109082.0, "BUILDING_N": " ", "HOUSE_BLK_": "218", "ROAD_NAME": "TANJONG KATONG ROAD", "POSTAL_COD": "437010", "ADDRESS_TY": "U", "DATA_TYPE_": "extg", "MULTI_ADDR": "y", "X_ADDR": 34896.101595200002, "Y_ADDR": 32169.117045800002, "BUILDING_I": "101000000010403070001000020108", "OID_": 24, "S_N": 25.0, "NAME_OF_CL": "WUI NENG ASSOCAITION", "ADDRESS": "218A TANJONG KATONG ROAD", "POSTAL_C_1": "437010" }, "geometry": { "type": "Point", "coordinates": [ 103.895283320104497, 1.307199815712563 ] } },
{ "type": "Feature", "properties": { "OBJECTID_1": 51, "OBJECTID": 85166, "FEA_ID": 102331.0, "BUILDING_N": " ", "HOUSE_BLK_": "17", "ROAD_NAME": "ANN SIANG ROAD", "POSTAL_COD": "069697", "ADDRESS_TY": "K", "DATA_TYPE_": "extg", "MULTI_ADDR": "n", "X_ADDR": 29397.303312200002, "Y_ADDR": 29288.036284400001, "BUILDING_I": "109000000017086494609072605002", "OID_": 48, "S_N": 49.0, "NAME_OF_CL": "CHING YUEN WOOI KWOON", "ADDRESS": "17 ANN SIANG ROAD", "POSTAL_C_1": "069697" }, "geometry": { "type": "Point", "coordinates": [ 103.845873885899451, 1.281145071912926 ] } },
{ "type": "Feature", "properties": { "OBJECTID_1": 52, "OBJECTID": 85387, "FEA_ID": 88886.0, "BUILDING_N": " ", "HOUSE_BLK_": "132", "ROAD_NAME": "NEIL ROAD", "POSTAL_COD": "088861", "ADDRESS_TY": "S", "DATA_TYPE_": "extg", "MULTI_ADDR": "n", "X_ADDR": 28863.638866000001, "Y_ADDR": 28997.3983224, "BUILDING_I": "100000000010008080806010010302", "OID_": 134, "S_N": 135.0, "NAME_OF_CL": "SINGAPORE ENG TEWNG ASSOCIATION", "ADDRESS": "132 NEIL ROAD", "POSTAL_C_1": "088861" }, "geometry": { "type": "Point", "coordinates": [ 103.841078698548429, 1.278516662846059 ] } },
{ "type": "Feature", "properties": { "OBJECTID_1": 53, "OBJECTID": 87276, "FEA_ID": 112027.0, "BUILDING_N": " ", "HOUSE_BLK_": "43", "ROAD_NAME": "WILKIE ROAD", "POSTAL_COD": "228056", "ADDRESS_TY": "S", "DATA_TYPE_": "extg", "MULTI_ADDR": "n", "X_ADDR": 29679.292107000001, "Y_ADDR": 31591.969311600002, "BUILDING_I": "100000000010202080005060000403", "OID_": 60, "S_N": 61.0, "NAME_OF_CL": "SHANGHAI CLUB SINGAPORE", "ADDRESS": "43 WILKIE ROAD", "POSTAL_C_1": "228056" }, "geometry": { "type": "Point", "coordinates": [ 103.848407786234304, 1.301981017968676 ] } },
{ "type": "Feature", "properties": { "OBJECTID_1": 54, "OBJECTID": 91258, "FEA_ID": 101195.0, "BUILDING_N": "BUKIT PASOH EXTNSN CONSTN AREA", "HOUSE_BLK_": "20", "ROAD_NAME": "KEONG SAIK ROAD", "POSTAL_COD": "089127", "ADDRESS_TY": "U", "DATA_TYPE_": "extg", "MULTI_ADDR": "y", "X_ADDR": 28929.650130099999, "Y_ADDR": 29160.646876499999, "BUILDING_I": "101000000010008090102070000200", "OID_": 0, "S_N": 1.0, "NAME_OF_CL": "PAT WO WUI KUN", "ADDRESS": "20A KEONG SAIK ROAD", "POSTAL_C_1": "089127" }, "geometry": { "type": "Point", "coordinates": [ 103.841671838682743, 1.279993024081712 ] } },
{ "type": "Feature", "properties": { "OBJECTID_1": 55, "OBJECTID": 95504, "FEA_ID": 219570.0, "BUILDING_N": "TANJONG KATONG COMPLEX", "HOUSE_BLK_": "845", "ROAD_NAME": "GEYLANG ROAD", "POSTAL_COD": "400845", "ADDRESS_TY": "S", "DATA_TYPE_": "prop", "MULTI_ADDR": "n", "X_ADDR": 34773.119115000001, "Y_ADDR": 33153.264585199999, "BUILDING_I": "300000070814400008814052605006", "OID_": 104, "S_N": 105.0, "NAME_OF_CL": "SINAGPORE NANYANG HUPEI TIEN MEN ASSOCIATION", "ADDRESS": "BLK 845 GEYLANG ROAD #01-34 TANJONG KATONG COMPLEX", "POSTAL_C_1": "400845" }, "geometry": { "type": "Point", "coordinates": [ 103.894178479445245, 1.316100120618598 ] } },
{ "type": "Feature", "properties": { "OBJECTID_1": 56, "OBJECTID": 96303, "FEA_ID": 9702.0, "BUILDING_N": " ", "HOUSE_BLK_": "234", "ROAD_NAME": "SERANGOON ROAD", "POSTAL_COD": "218083", "ADDRESS_TY": "U", "DATA_TYPE_": "extg", "MULTI_ADDR": "y", "X_ADDR": 30299.724692399999, "Y_ADDR": 32432.826975, "BUILDING_I": "101000000010201080008030020304", "OID_": 82, "S_N": 83.0, "NAME_OF_CL": "SINGAPORE FOOCHOW KUAN HONG VILLAGERS' ASSOCIATION", "ADDRESS": "234-A SERANGOON ROAD", "POSTAL_C_1": "218083" }, "geometry": { "type": "Point", "coordinates": [ 103.853982718549688, 1.30958539845574 ] } },
{ "type": "Feature", "properties": { "OBJECTID_1": 57, "OBJECTID": 97669, "FEA_ID": 98457.0, "BUILDING_N": "LITTLE INDIA CONSERVATION AREA", "HOUSE_BLK_": "28", "ROAD_NAME": "CUFF ROAD", "POSTAL_COD": "209737", "ADDRESS_TY": "U", "DATA_TYPE_": "extg", "MULTI_ADDR": "y", "X_ADDR": 30196.300505499999, "Y_ADDR": 32122.3754396, "BUILDING_I": "101000000010200090703070000208", "OID_": 85, "S_N": 86.0, "NAME_OF_CL": "SINGAPORE YING-CHEW (FOOCHOW) ASSOCIATION", "ADDRESS": "NO 30A CUFF ROAD", "POSTAL_C_1": "209737" }, "geometry": { "type": "Point", "coordinates": [ 103.853053380178991, 1.306777791337066 ] } },
{ "type": "Feature", "properties": { "OBJECTID_1": 58, "OBJECTID": 101001, "FEA_ID": 90933.0, "BUILDING_N": "BEDOK INDUSTRIAL PARK", "HOUSE_BLK_": "3013", "ROAD_NAME": "BEDOK INDUSTRIAL PARK E", "POSTAL_COD": "489979", "ADDRESS_TY": "I", "DATA_TYPE_": "extg", "MULTI_ADDR": "n", "X_ADDR": 41061.700018199997, "Y_ADDR": 35311.385475100004, "BUILDING_I": "100000000000408090907090000000", "OID_": 137, "S_N": 138.0, "NAME_OF_CL": "KHENG KIEW ASSOCIATION,CHANGI SINGAPORE", "ADDRESS": "BLK 3013 BEDOK INDUSTRIAL PARK E #02-2098", "POSTAL_C_1": "489979" }, "geometry": { "type": "Point", "coordinates": [ 103.950685417583742, 1.335615329891806 ] } },
{ "type": "Feature", "properties": { "OBJECTID_1": 59, "OBJECTID": 101811, "FEA_ID": 121229.0, "BUILDING_N": "TELOK AYER CONSERVATION AREA", "HOUSE_BLK_": "83", "ROAD_NAME": "CLUB STREET", "POSTAL_COD": "069451", "ADDRESS_TY": "U", "DATA_TYPE_": "extg", "MULTI_ADDR": "y", "X_ADDR": 29393.4849455, "Y_ADDR": 29348.7527701, "BUILDING_I": "101000000010006090405010000803", "OID_": 86, "S_N": 87.0, "NAME_OF_CL": "SINGAPORE KOH YIU WOOI KWOON", "ADDRESS": "83-B CLUB STREET", "POSTAL_C_1": "069451" }, "geometry": { "type": "Point", "coordinates": [ 103.845839578773194, 1.281694170804536 ] } },
{ "type": "Feature", "properties": { "OBJECTID_1": 60, "OBJECTID": 102357, "FEA_ID": 11257.0, "BUILDING_N": "DESKER ROAD CONSERVATION AREA", "HOUSE_BLK_": "39", "ROAD_NAME": "SAM LEONG ROAD", "POSTAL_COD": "207929", "ADDRESS_TY": "S", "DATA_TYPE_": "prop", "MULTI_ADDR": "n", "X_ADDR": 30573.2070337, "Y_ADDR": 32429.5379651, "BUILDING_I": "309000000115200479992192605002", "OID_": 140, "S_N": 141.0, "NAME_OF_CL": "SINGAPORE CHUNG SAAN CHO PO THUNG HEUNG WAI", "ADDRESS": "39 SAM LEONG ROAD", "POSTAL_C_1": "207929" }, "geometry": { "type": "Point", "coordinates": [ 103.856440088967517, 1.309555632318059 ] } },
{ "type": "Feature", "properties": { "OBJECTID_1": 61, "OBJECTID": 103742, "FEA_ID": 60771.0, "BUILDING_N": " ", "HOUSE_BLK_": "161", "ROAD_NAME": "KITCHENER ROAD", "POSTAL_COD": "208531", "ADDRESS_TY": "U", "DATA_TYPE_": "extg", "MULTI_ADDR": "y", "X_ADDR": 30604.1057416, "Y_ADDR": 32493.142137499999, "BUILDING_I": "101000000010200080503010010601", "OID_": 77, "S_N": 78.0, "NAME_OF_CL": "SINGAPORE HOCKPOSIAN ASSOCIATION", "ADDRESS": "161B KITCHENER ROAD", "POSTAL_C_1": "208531" }, "geometry": { "type": "Point", "coordinates": [ 103.856717734052197, 1.310130842727184 ] } },
{ "type": "Feature", "properties": { "OBJECTID_1": 62, "OBJECTID": 103974, "FEA_ID": 54694.0, "BUILDING_N": " ", "HOUSE_BLK_": "142", "ROAD_NAME": "SIMS AVENUE", "POSTAL_COD": "387464", "ADDRESS_TY": "U", "DATA_TYPE_": "extg", "MULTI_ADDR": "y", "X_ADDR": 33072.001163000001, "Y_ADDR": 32948.076985200001, "BUILDING_I": "101000000010308070406040010402", "OID_": 18, "S_N": 19.0, "NAME_OF_CL": "GUANGXI AND GAOZHOU ASSOCAITION", "ADDRESS": "142-A SIMS AVE", "POSTAL_C_1": "387464" }, "geometry": { "type": "Point", "coordinates": [ 103.878893044990392, 1.314244805106966 ] } },
{ "type": "Feature", "properties": { "OBJECTID_1": 63, "OBJECTID": 103994, "FEA_ID": 84292.0, "BUILDING_N": " ", "HOUSE_BLK_": "28", "ROAD_NAME": "LORONG 25A GEYLANG", "POSTAL_COD": "388233", "ADDRESS_TY": "S", "DATA_TYPE_": "extg", "MULTI_ADDR": "n", "X_ADDR": 33558.212190699996, "Y_ADDR": 32964.142958600001, "BUILDING_I": "100000000010308080203030000208", "OID_": 8, "S_N": 9.0, "NAME_OF_CL": "THENG HAI HUAY KUAN", "ADDRESS": "28 LORONG 25A GEYLANG", "POSTAL_C_1": "388233" }, "geometry": { "type": "Point", "coordinates": [ 103.883261895661619, 1.314390016244933 ] } },
{ "type": "Feature", "properties": { "OBJECTID_1": 64, "OBJECTID": 107154, "FEA_ID": 73581.0, "BUILDING_N": " ", "HOUSE_BLK_": "72", "ROAD_NAME": "LORONG 8 GEYLANG", "POSTAL_COD": "399136", "ADDRESS_TY": "S", "DATA_TYPE_": "extg", "MULTI_ADDR": "n", "X_ADDR": 32887.282135699999, "Y_ADDR": 32384.796013200001, "BUILDING_I": "100000000020309090153367606807", "OID_": 107, "S_N": 108.0, "NAME_OF_CL": "NING YEUNG WUI KUAN SINGAPORE", "ADDRESS": "72 LORONG 8 GEYLANG", "POSTAL_C_1": "399136" }, "geometry": { "type": "Point", "coordinates": [ 103.87723316311174, 1.30915072189549 ] } },
{ "type": "Feature", "properties": { "OBJECTID_1": 65, "OBJECTID": 108500, "FEA_ID": 122534.0, "BUILDING_N": "TELOK AYER CONSERVATION AREA", "HOUSE_BLK_": "29", "ROAD_NAME": "ANN SIANG ROAD", "POSTAL_COD": "069709", "ADDRESS_TY": "U", "DATA_TYPE_": "extg", "MULTI_ADDR": "y", "X_ADDR": 29413.592330300002, "Y_ADDR": 29263.388641500002, "BUILDING_I": "101000000010006090700090000209", "OID_": 66, "S_N": 67.0, "NAME_OF_CL": "SAI CHIEW VILLAGERS ASSOCIATION", "ADDRESS": "29 ANN SIANG HILL", "POSTAL_C_1": "069709" }, "geometry": { "type": "Point", "coordinates": [ 103.846020247718954, 1.280922166940824 ] } },
{ "type": "Feature", "properties": { "OBJECTID_1": 66, "OBJECTID": 110701, "FEA_ID": 9105.0, "BUILDING_N": "FONG YUN TAI ASSOCIATION'S COLUMBARIUM", "HOUSE_BLK_": "33", "ROAD_NAME": "HOLLAND LINK", "POSTAL_COD": "277711", "ADDRESS_TY": "S", "DATA_TYPE_": "extg", "MULTI_ADDR": "n", "X_ADDR": 23118.522304300001, "Y_ADDR": 34470.676790700003, "BUILDING_I": "109000000010207070721016696809", "OID_": 13, "S_N": 14.0, "NAME_OF_CL": "FONG YUN THAI ASSOCIATION", "ADDRESS": "33 HOLLAND LINK (OFF OLD HOLLAND ROAD)", "POSTAL_C_1": "277711" }, "geometry": { "type": "Point", "coordinates": [ 103.789455820266994, 1.328014685700271 ] } },
{ "type": "Feature", "properties": { "OBJECTID_1": 67, "OBJECTID": 111103, "FEA_ID": 44574.0, "BUILDING_N": " ", "HOUSE_BLK_": "3", "ROAD_NAME": "LORONG BACHOK", "POSTAL_COD": "387781", "ADDRESS_TY": "S", "DATA_TYPE_": "extg", "MULTI_ADDR": "n", "X_ADDR": 33118.4203547, "Y_ADDR": 32922.479714599998, "BUILDING_I": "100000000010308070708010000003", "OID_": 78, "S_N": 79.0, "NAME_OF_CL": "SINGAPORE FUTSING TUNG CHIANG CHUN CIANSMEN'S ASSOCIATION", "ADDRESS": "NO 3 LORONG BACHOK (OFF LORONG 19)", "POSTAL_C_1": "387781" }, "geometry": { "type": "Point", "coordinates": [ 103.879310140380852, 1.3140133045452 ] } },
{ "type": "Feature", "properties": { "OBJECTID_1": 68, "OBJECTID": 112101, "FEA_ID": 13219.0, "BUILDING_N": " ", "HOUSE_BLK_": "38", "ROAD_NAME": "LORONG 28 GEYLANG", "POSTAL_COD": "398442", "ADDRESS_TY": "S", "DATA_TYPE_": "extg", "MULTI_ADDR": "n", "X_ADDR": 33795.736712099999, "Y_ADDR": 32723.595815799999, "BUILDING_I": "100000000010309080404020000308", "OID_": 69, "S_N": 70.0, "NAME_OF_CL": "SINGAPRE AN HAI ASSOCIATION", "ADDRESS": "38 LORONG 28 GEYLANG", "POSTAL_C_1": "398442" }, "geometry": { "type": "Point", "coordinates": [ 103.885396126496488, 1.31221454931372 ] } },
{ "type": "Feature", "properties": { "OBJECTID_1": 69, "OBJECTID": 112630, "FEA_ID": 60713.0, "BUILDING_N": " ", "HOUSE_BLK_": "780", "ROAD_NAME": "UPPER BUKIT TIMAH ROAD", "POSTAL_COD": "678125", "ADDRESS_TY": "S", "DATA_TYPE_": "extg", "MULTI_ADDR": "n", "X_ADDR": 20211.919367099999, "Y_ADDR": 39399.812551299998, "BUILDING_I": "100000000010607080102050070800", "OID_": 117, "S_N": 118.0, "NAME_OF_CL": "SINAGPORE BUKIT TIMAH HENG-JAI FRIENDLY ASSOCIATION", "ADDRESS": "780 UPPER BUKIT TIMAH ROAD 16 KM", "POSTAL_C_1": "678125" }, "geometry": { "type": "Point", "coordinates": [ 103.76333713202763, 1.372591396977563 ] } },
{ "type": "Feature", "properties": { "OBJECTID_1": 70, "OBJECTID": 112716, "FEA_ID": 112291.0, "BUILDING_N": " ", "HOUSE_BLK_": "41", "ROAD_NAME": "WILKIE ROAD", "POSTAL_COD": "228055", "ADDRESS_TY": "S", "DATA_TYPE_": "extg", "MULTI_ADDR": "n", "X_ADDR": 29684.590154400001, "Y_ADDR": 31591.132311000001, "BUILDING_I": "100000000010202080005050000401", "OID_": 57, "S_N": 58.0, "NAME_OF_CL": "SAM KIANG HUAY KWAN", "ADDRESS": "41 WILKIE ROAD", "POSTAL_C_1": "228055" }, "geometry": { "type": "Point", "coordinates": [ 103.848455392038034, 1.301973448148779 ] } },
{ "type": "Feature", "properties": { "OBJECTID_1": 71, "OBJECTID": 113346, "FEA_ID": 71851.0, "BUILDING_N": " ", "HOUSE_BLK_": "62", "ROAD_NAME": "LORONG 20 GEYLANG", "POSTAL_COD": "398765", "ADDRESS_TY": "U", "DATA_TYPE_": "extg", "MULTI_ADDR": "y", "X_ADDR": 33333.289471900003, "Y_ADDR": 32554.952659499999, "BUILDING_I": "101000000010309080706050000602", "OID_": 43, "S_N": 44.0, "NAME_OF_CL": "NANYANG NG FAH ASSOCIATION", "ADDRESS": "62D LORONG 20 GEYLANG", "POSTAL_C_1": "398765" }, "geometry": { "type": "Point", "coordinates": [ 103.881240782772309, 1.310689483801044 ] } },
{ "type": "Feature", "properties": { "OBJECTID_1": 72, "OBJECTID": 113397, "FEA_ID": 108338.0, "BUILDING_N": " ", "HOUSE_BLK_": "38", "ROAD_NAME": "CHANGI ROAD", "POSTAL_COD": "419701", "ADDRESS_TY": "U", "DATA_TYPE_": "extg", "MULTI_ADDR": "y", "X_ADDR": 35290.484191299998, "Y_ADDR": 33165.1515488, "BUILDING_I": "101000000010401090700010000308", "OID_": 49, "S_N": 50.0, "NAME_OF_CL": "KENG JAI SUAN SOON", "ADDRESS": "38-C CHANGI ROAD", "POSTAL_C_1": "419701" }, "geometry": { "type": "Point", "coordinates": [ 103.898827267340081, 1.316207503895719 ] } },
{ "type": "Feature", "properties": { "OBJECTID_1": 73, "OBJECTID": 116160, "FEA_ID": 110605.0, "BUILDING_N": "PEOPLE'S PARK CENTRE", "HOUSE_BLK_": "101", "ROAD_NAME": "UPPER CROSS STREET", "POSTAL_COD": "058357", "ADDRESS_TY": "K", "DATA_TYPE_": "extg", "MULTI_ADDR": "y", "X_ADDR": 29183.221646800001, "Y_ADDR": 29789.723816500002, "BUILDING_I": "101000000010005080305070010001", "OID_": 5, "S_N": 6.0, "NAME_OF_CL": "TEOH-ANN LENG HO TANG HEOH HUAY", "ADDRESS": "101 UPPER CROSS STREET #03-56 PEOPLE'S PARK CENTRE", "POSTAL_C_1": "058357" }, "geometry": { "type": "Point", "coordinates": [ 103.84395029837367, 1.285682166346752 ] } },
{ "type": "Feature", "properties": { "OBJECTID_1": 74, "OBJECTID": 116331, "FEA_ID": 88971.0, "BUILDING_N": " ", "HOUSE_BLK_": "321", "ROAD_NAME": "NEW BRIDGE ROAD", "POSTAL_COD": "088758", "ADDRESS_TY": "S", "DATA_TYPE_": "extg", "MULTI_ADDR": "n", "X_ADDR": 28860.652808399998, "Y_ADDR": 29267.9987884, "BUILDING_I": "100000000010008080705080030201", "OID_": 15, "S_N": 16.0, "NAME_OF_CL": "KONG CHOW WUI KOON", "ADDRESS": "321 NEW BRIDGE ROAD", "POSTAL_C_1": "088758" }, "geometry": { "type": "Point", "coordinates": [ 103.841051874636364, 1.280963878974264 ] } },
{ "type": "Feature", "properties": { "OBJECTID_1": 75, "OBJECTID": 116470, "FEA_ID": 20695.0, "BUILDING_N": " ", "HOUSE_BLK_": "26", "ROAD_NAME": "LORONG 15 GEYLANG", "POSTAL_COD": "388613", "ADDRESS_TY": "U", "DATA_TYPE_": "extg", "MULTI_ADDR": "y", "X_ADDR": 32999.022935499997, "Y_ADDR": 32897.805345100001, "BUILDING_I": "101000000010308080601030000206", "OID_": 73, "S_N": 74.0, "NAME_OF_CL": "SINAGPORE TECK KHEOW ASSOCIATION", "ADDRESS": "26-A LORONG 15 GEYLANG", "POSTAL_C_1": "388613" }, "geometry": { "type": "Point", "coordinates": [ 103.878237290507073, 1.313790178592468 ] } },
{ "type": "Feature", "properties": { "OBJECTID_1": 76, "OBJECTID": 117722, "FEA_ID": 19728.0, "BUILDING_N": "HONG LIM COMPLEX", "HOUSE_BLK_": "531A", "ROAD_NAME": "UPPER CROSS STREET", "POSTAL_COD": "051531", "ADDRESS_TY": "H", "DATA_TYPE_": "extg", "MULTI_ADDR": "n", "X_ADDR": 29391.780706699999, "Y_ADDR": 29746.922647700001, "BUILDING_I": "100000000000005010503010000000", "OID_": 126, "S_N": 127.0, "NAME_OF_CL": "SINAGPORE KUAN SUN SIA", "ADDRESS": "BLK 531A UPPER CROSS STREET #04-104", "POSTAL_C_1": "051531" }, "geometry": { "type": "Point", "coordinates": [ 103.845824283349756, 1.285295078789576 ] } },
{ "type": "Feature", "properties": { "OBJECTID_1": 77, "OBJECTID": 117999, "FEA_ID": 80332.0, "BUILDING_N": " ", "HOUSE_BLK_": "148", "ROAD_NAME": "RACE COURSE ROAD", "POSTAL_COD": "218596", "ADDRESS_TY": "U", "DATA_TYPE_": "extg", "MULTI_ADDR": "y", "X_ADDR": 30135.120132700002, "Y_ADDR": 32488.224377099999, "BUILDING_I": "101000000010201080509060010408", "OID_": 128, "S_N": 129.0, "NAME_OF_CL": "SENG CHEW NANYANG TONG SAN ASSOCIATION", "ADDRESS": "148 RACE COURSE ROAD", "POSTAL_C_1": "218596" }, "geometry": { "type": "Point", "coordinates": [ 103.852503670423133, 1.310086404797816 ] } },
{ "type": "Feature", "properties": { "OBJECTID_1": 78, "OBJECTID": 120990, "FEA_ID": 57719.0, "BUILDING_N": "DESKER ROAD CONSERVATION AREA", "HOUSE_BLK_": "35", "ROAD_NAME": "SAM LEONG ROAD", "POSTAL_COD": "207925", "ADDRESS_TY": "S", "DATA_TYPE_": "extg", "MULTI_ADDR": "n", "X_ADDR": 30581.223448600002, "Y_ADDR": 32423.141432100001, "BUILDING_I": "100000000010200070902050000305", "OID_": 125, "S_N": 126.0, "NAME_OF_CL": "SINAGPORE HIN ANN HUAY KWAN", "ADDRESS": "35 SAM LEONG ROAD", "POSTAL_C_1": "207925" }, "geometry": { "type": "Point", "coordinates": [ 103.856512119664472, 1.309497783059008 ] } },
{ "type": "Feature", "properties": { "OBJECTID_1": 79, "OBJECTID": 121795, "FEA_ID": 43166.0, "BUILDING_N": " ", "HOUSE_BLK_": "30", "ROAD_NAME": "LORONG 30 GEYLANG", "POSTAL_COD": "398363", "ADDRESS_TY": "S", "DATA_TYPE_": "extg", "MULTI_ADDR": "n", "X_ADDR": 33871.1582318, "Y_ADDR": 32756.874888800001, "BUILDING_I": "100000000010309080306030000300", "OID_": 119, "S_N": 120.0, "NAME_OF_CL": "SINAGPORE SHING NENG FELLOW COUNTRY-MEN ASSOCIATION", "ADDRESS": "30 LORONG 30 GEYLANG ROAD", "POSTAL_C_1": "398363" }, "geometry": { "type": "Point", "coordinates": [ 103.886073831914686, 1.312515499336896 ] } },
{ "type": "Feature", "properties": { "OBJECTID_1": 80, "OBJECTID": 122158, "FEA_ID": 81148.0, "BUILDING_N": " ", "HOUSE_BLK_": "71", "ROAD_NAME": "WESTERHOUT ROAD", "POSTAL_COD": "397665", "ADDRESS_TY": "U", "DATA_TYPE_": "extg", "MULTI_ADDR": "y", "X_ADDR": 33333.602594199998, "Y_ADDR": 32618.442509699998, "BUILDING_I": "101000000010309070606050000701", "OID_": 44, "S_N": 45.0, "NAME_OF_CL": "NAM YEUNG SUN HING WUI KOON", "ADDRESS": "71-A, Westerhout Road, Off Lorong 20, Geylang", "POSTAL_C_1": "397665" }, "geometry": { "type": "Point", "coordinates": [ 103.881243607041711, 1.3112636638034 ] } },
{ "type": "Feature", "properties": { "OBJECTID_1": 81, "OBJECTID": 123041, "FEA_ID": 12022.0, "BUILDING_N": " ", "HOUSE_BLK_": "7", "ROAD_NAME": "LORONG 29 GEYLANG", "POSTAL_COD": "388063", "ADDRESS_TY": "S", "DATA_TYPE_": "extg", "MULTI_ADDR": "n", "X_ADDR": 33802.105489399997, "Y_ADDR": 32963.251475700003, "BUILDING_I": "100000000010308080006030000007", "OID_": 95, "S_N": 96.0, "NAME_OF_CL": "SINGAPORE HUI ANN ASSOCIATION", "ADDRESS": "7 LORONG 29 GEYLANG", "POSTAL_C_1": "388063" }, "geometry": { "type": "Point", "coordinates": [ 103.885453398180502, 1.314381908780085 ] } },
{ "type": "Feature", "properties": { "OBJECTID_1": 82, "OBJECTID": 123137, "FEA_ID": 74245.0, "BUILDING_N": " ", "HOUSE_BLK_": "8", "ROAD_NAME": "LORONG 24 GEYLANG", "POSTAL_COD": "398620", "ADDRESS_TY": "S", "DATA_TYPE_": "extg", "MULTI_ADDR": "n", "X_ADDR": 33547.7742765, "Y_ADDR": 32781.880117599998, "BUILDING_I": "100000000010309080602000000008", "OID_": 31, "S_N": 32.0, "NAME_OF_CL": "LOW LENG ASSOCIATION", "ADDRESS": "8 LORONG 24 GEYLANG", "POSTAL_C_1": "398620" }, "geometry": { "type": "Point", "coordinates": [ 103.883168073279165, 1.312741697420335 ] } },
{ "type": "Feature", "properties": { "OBJECTID_1": 83, "OBJECTID": 124932, "FEA_ID": 209491.0, "BUILDING_N": "BUKIT PASOH CONSERVATION AREA", "HOUSE_BLK_": "19", "ROAD_NAME": "TEO HONG ROAD", "POSTAL_COD": "088330", "ADDRESS_TY": "U", "DATA_TYPE_": "extg", "MULTI_ADDR": "n", "X_ADDR": 28838.364706199998, "Y_ADDR": 29155.241831899999, "BUILDING_I": "100001030813008080303502605005", "OID_": 118, "S_N": 119.0, "NAME_OF_CL": "SINGAPORE AMOY ASSOCIATION", "ADDRESS": "19 TEO HONG ROAD", "POSTAL_C_1": "088330" }, "geometry": { "type": "Point", "coordinates": [ 103.840851604544994, 1.279944145708683 ] } },
{ "type": "Feature", "properties": { "OBJECTID_1": 84, "OBJECTID": 125427, "FEA_ID": 38464.0, "BUILDING_N": "PHOENIX HEIGHTS", "HOUSE_BLK_": "12", "ROAD_NAME": "PHOENIX ROAD", "POSTAL_COD": "668162", "ADDRESS_TY": "U", "DATA_TYPE_": "extg", "MULTI_ADDR": "y", "X_ADDR": 19496.1178435, "Y_ADDR": 39890.446730299998, "BUILDING_I": "101000000010606080106020000102", "OID_": 93, "S_N": 94.0, "NAME_OF_CL": "HPOP CORPORATION SINGAPORE", "ADDRESS": "12A PHOENIX ROAD", "POSTAL_C_1": "668162" }, "geometry": { "type": "Point", "coordinates": [ 103.756905007817409, 1.377028315162906 ] } },
{ "type": "Feature", "properties": { "OBJECTID_1": 85, "OBJECTID": 125475, "FEA_ID": 62546.0, "BUILDING_N": "WATERLOO CENTRE", "HOUSE_BLK_": "261", "ROAD_NAME": "WATERLOO STREET", "POSTAL_COD": "180261", "ADDRESS_TY": "H", "DATA_TYPE_": "extg", "MULTI_ADDR": "n", "X_ADDR": 30087.017012, "Y_ADDR": 31234.704586100001, "BUILDING_I": "100000000000108000206010000000", "OID_": 62, "S_N": 63.0, "NAME_OF_CL": "HYE KIA NAM LI TANG YEO WUI", "ADDRESS": "BLK 261 WATERLOO STREET #04-06", "POSTAL_C_1": "180261" }, "geometry": { "type": "Point", "coordinates": [ 103.852071356863377, 1.298750017230677 ] } },
{ "type": "Feature", "properties": { "OBJECTID_1": 86, "OBJECTID": 126386, "FEA_ID": 106742.0, "BUILDING_N": "TELOK AYER CONSERVATION AREA", "HOUSE_BLK_": "84", "ROAD_NAME": "CLUB STREET", "POSTAL_COD": "069452", "ADDRESS_TY": "U", "DATA_TYPE_": "extg", "MULTI_ADDR": "y", "X_ADDR": 29367.450453900001, "Y_ADDR": 29372.7356373, "BUILDING_I": "101000000010006090405020000804", "OID_": 38, "S_N": 39.0, "NAME_OF_CL": "NAM SUM WUI KUN", "ADDRESS": "84 CLUB STREET", "POSTAL_C_1": "069452" }, "geometry": { "type": "Point", "coordinates": [ 103.845605649782556, 1.281911063971387 ] } },
{ "type": "Feature", "properties": { "OBJECTID_1": 87, "OBJECTID": 126397, "FEA_ID": 112391.0, "BUILDING_N": "ASSOCIATION BUILDING", "HOUSE_BLK_": "68", "ROAD_NAME": "LORONG 16 GEYLANG", "POSTAL_COD": "398889", "ADDRESS_TY": "K", "DATA_TYPE_": "extg", "MULTI_ADDR": "n", "X_ADDR": 33180.144643200001, "Y_ADDR": 32522.357764, "BUILDING_I": "100000000010309080808090000608", "OID_": 61, "S_N": 62.0, "NAME_OF_CL": "SHUN TAK COMMUNITY GUILD SINGAPORE", "ADDRESS": "68 GEYLANG ROAD LORONG 16 ASSOCIATION BUILDING #05-08", "POSTAL_C_1": "398889" }, "geometry": { "type": "Point", "coordinates": [ 103.879864697027969, 1.310394734133536 ] } },
{ "type": "Feature", "properties": { "OBJECTID_1": 88, "OBJECTID": 127153, "FEA_ID": 24391.0, "BUILDING_N": " ", "HOUSE_BLK_": "32", "ROAD_NAME": "SEAH STREET", "POSTAL_COD": "188388", "ADDRESS_TY": "U", "DATA_TYPE_": "extg", "MULTI_ADDR": "y", "X_ADDR": 30399.027015600001, "Y_ADDR": 30945.0913769, "BUILDING_I": "101000000010108080308080000302", "OID_": 92, "S_N": 93.0, "NAME_OF_CL": "SINGAPORE HAINAN SOCIETY", "ADDRESS": "32A SEAH STREET", "POSTAL_C_1": "188388" }, "geometry": { "type": "Point", "coordinates": [ 103.85487488345413, 1.296130835038057 ] } },
{ "type": "Feature", "properties": { "OBJECTID_1": 89, "OBJECTID": 131173, "FEA_ID": 74933.0, "BUILDING_N": "KRETA AYER CONSERVATION AREA", "HOUSE_BLK_": "22", "ROAD_NAME": "SMITH STREET", "POSTAL_COD": "058936", "ADDRESS_TY": "U", "DATA_TYPE_": "extg", "MULTI_ADDR": "y", "X_ADDR": 29241.440660699998, "Y_ADDR": 29414.9562964, "BUILDING_I": "101000000010005080903060000202", "OID_": 37, "S_N": 38.0, "NAME_OF_CL": "NAM HOI CLAN ASSOCIATION", "ADDRESS": "22-B SMITH STREET", "POSTAL_C_1": "058936" }, "geometry": { "type": "Point", "coordinates": [ 103.844473404683924, 1.28229289837719 ] } },
{ "type": "Feature", "properties": { "OBJECTID_1": 90, "OBJECTID": 131950, "FEA_ID": 101907.0, "BUILDING_N": "BUKIT PASOH EXTNSN CONSTN AREA", "HOUSE_BLK_": "24", "ROAD_NAME": "KEONG SAIK ROAD", "POSTAL_COD": "089131", "ADDRESS_TY": "K", "DATA_TYPE_": "extg", "MULTI_ADDR": "y", "X_ADDR": 28931.2880821, "Y_ADDR": 29171.448339499999, "BUILDING_I": "101000000010008090103010000204", "OID_": 11, "S_N": 12.0, "NAME_OF_CL": "SINGAPORE YEN PENG WUI KUAN", "ADDRESS": "24A KEONG SAIK ROAD", "POSTAL_C_1": "089131" }, "geometry": { "type": "Point", "coordinates": [ 103.841686557051034, 1.280090708107656 ] } },
{ "type": "Feature", "properties": { "OBJECTID_1": 91, "OBJECTID": 133633, "FEA_ID": 40401.0, "BUILDING_N": " ", "HOUSE_BLK_": "11", "ROAD_NAME": "LORONG 40 GEYLANG", "POSTAL_COD": "398057", "ADDRESS_TY": "S", "DATA_TYPE_": "extg", "MULTI_ADDR": "n", "X_ADDR": 34295.696214700001, "Y_ADDR": 32919.726538800001, "BUILDING_I": "100000000010309080005070000101", "OID_": 10, "S_N": 11.0, "NAME_OF_CL": "TANG SAN LEE CHEE SIA", "ADDRESS": "11 LORONG 40 GEYLANG", "POSTAL_C_1": "398057" }, "geometry": { "type": "Point", "coordinates": [ 103.889888547173456, 1.313988187130601 ] } },
{ "type": "Feature", "properties": { "OBJECTID_1": 92, "OBJECTID": 135925, "FEA_ID": 93828.0, "BUILDING_N": " ", "HOUSE_BLK_": "137", "ROAD_NAME": "TELOK AYER STREET", "POSTAL_COD": "068602", "ADDRESS_TY": "S", "DATA_TYPE_": "extg", "MULTI_ADDR": "n", "X_ADDR": 29636.1802374, "Y_ADDR": 29249.892087100001, "BUILDING_I": "109000000014076880600422605000", "OID_": 76, "S_N": 77.0, "NAME_OF_CL": "SINGAPORE HOKKIEN HUAY KUAN", "ADDRESS": "137 TELOK AYER ATREET #08-01", "POSTAL_C_1": "068602" }, "geometry": { "type": "Point", "coordinates": [ 103.848020284541406, 1.280800097676858 ] } },
{ "type": "Feature", "properties": { "OBJECTID_1": 93, "OBJECTID": 139987, "FEA_ID": 51966.0, "BUILDING_N": " ", "HOUSE_BLK_": "299", "ROAD_NAME": "RIVER VALLEY ROAD", "POSTAL_COD": "238340", "ADDRESS_TY": "S", "DATA_TYPE_": "extg", "MULTI_ADDR": "n", "X_ADDR": 28660.801605299999, "Y_ADDR": 30861.502526100001, "BUILDING_I": "100000000010203080304000020909", "OID_": 7, "S_N": 8.0, "NAME_OF_CL": "TEO YEONH HUAI KUAN", "ADDRESS": "299 RIVER VALLERY ROAD", "POSTAL_C_1": "238340" }, "geometry": { "type": "Point", "coordinates": [ 103.839256168281722, 1.295374971648894 ] } },
{ "type": "Feature", "properties": { "OBJECTID_1": 94, "OBJECTID": 142803, "FEA_ID": 44113.0, "BUILDING_N": " ", "HOUSE_BLK_": "15", "ROAD_NAME": "LORONG 17 GEYLANG", "POSTAL_COD": "388546", "ADDRESS_TY": "U", "DATA_TYPE_": "extg", "MULTI_ADDR": "y", "X_ADDR": 33045.518674899999, "Y_ADDR": 32832.130358299997, "BUILDING_I": "101000000010308080504060000105", "OID_": 1, "S_N": 2.0, "NAME_OF_CL": "CHAR YANG (DABU) LEE CHEE ASSOCIATION", "ADDRESS": "13A-15A LORONG 17 GEYLANG", "POSTAL_C_1": "388546" }, "geometry": { "type": "Point", "coordinates": [ 103.878655067647543, 1.313196229668327 ] } },
{ "type": "Feature", "properties": { "OBJECTID_1": 95, "OBJECTID": 145753, "FEA_ID": 17411.0, "BUILDING_N": "KAR YENG FIVE DISTRICTS GENERAL ASSOCIATION BUILDING", "HOUSE_BLK_": "2", "ROAD_NAME": "HINDHEDE ROAD", "POSTAL_COD": "589239", "ADDRESS_TY": "U", "DATA_TYPE_": "extg", "MULTI_ADDR": "y", "X_ADDR": 21565.071432699999, "Y_ADDR": 36333.176609599999, "BUILDING_I": "101000000010508090203090000002", "OID_": 98, "S_N": 99.0, "NAME_OF_CL": "KAR YENG FIVE DISTRICTS GENERAL ASSOCIATION SINGAPORE", "ADDRESS": "2A,4A HINDHEDE ROAD", "POSTAL_C_1": "589239" }, "geometry": { "type": "Point", "coordinates": [ 103.77549682072582, 1.344858175747784 ] } },
{ "type": "Feature", "properties": { "OBJECTID_1": 96, "OBJECTID": 146004, "FEA_ID": 7920.0, "BUILDING_N": "ENG CHOON HWAY KUAN", "HOUSE_BLK_": "105", "ROAD_NAME": "AMOY STREET", "POSTAL_COD": "069925", "ADDRESS_TY": "U", "DATA_TYPE_": "extg", "MULTI_ADDR": "y", "X_ADDR": 29566.232470700001, "Y_ADDR": 29363.129880799999, "BUILDING_I": "101000000010006090902050010005", "OID_": 121, "S_N": 122.0, "NAME_OF_CL": "ENG CHOON HWAY KUAN SINGAPORE", "ADDRESS": "105 AMOY STREET", "POSTAL_C_1": "069925" }, "geometry": { "type": "Point", "coordinates": [ 103.847391783285943, 1.28182418415046 ] } },
{ "type": "Feature", "properties": { "OBJECTID_1": 97, "OBJECTID": 146025, "FEA_ID": 27102.0, "BUILDING_N": " ", "HOUSE_BLK_": "337", "ROAD_NAME": "JOO CHIAT ROAD", "POSTAL_COD": "427590", "ADDRESS_TY": "U", "DATA_TYPE_": "extg", "MULTI_ADDR": "y", "X_ADDR": 35756.019915999997, "Y_ADDR": 32373.877715800001, "BUILDING_I": "101000000010402070509000030307", "OID_": 113, "S_N": 114.0, "NAME_OF_CL": "THE SINGAPORE THIEN CHEE SOCIETY", "ADDRESS": "335 JOO CHIAT ROAD", "POSTAL_C_1": "427590" }, "geometry": { "type": "Point", "coordinates": [ 103.90301014099802, 1.309051393224637 ] } },
{ "type": "Feature", "properties": { "OBJECTID_1": 98, "OBJECTID": 146158, "FEA_ID": 119407.0, "BUILDING_N": " ", "HOUSE_BLK_": "72", "ROAD_NAME": "KENG LEE ROAD", "POSTAL_COD": "219248", "ADDRESS_TY": "S", "DATA_TYPE_": "extg", "MULTI_ADDR": "n", "X_ADDR": 29569.414029200001, "Y_ADDR": 32760.632568199999, "BUILDING_I": "100000000010201090204080712000", "OID_": 28, "S_N": 29.0, "NAME_OF_CL": "KIM MUI JOEY KUAN", "ADDRESS": "72 KENG LEE ROAD", "POSTAL_C_1": "219248" }, "geometry": { "type": "Point", "coordinates": [ 103.847420540210607, 1.312550002328655 ] } },
{ "type": "Feature", "properties": { "OBJECTID_1": 99, "OBJECTID": 146862, "FEA_ID": 68415.0, "BUILDING_N": " ", "HOUSE_BLK_": "25", "ROAD_NAME": "LORONG 13 GEYLANG", "POSTAL_COD": "388668", "ADDRESS_TY": "U", "DATA_TYPE_": "extg", "MULTI_ADDR": "y", "X_ADDR": 32885.985182900004, "Y_ADDR": 32884.649033000002, "BUILDING_I": "101000000010308080606080000205", "OID_": 36, "S_N": 37.0, "NAME_OF_CL": "NAN PIH ASSOCIATION", "ADDRESS": "25-B GEYLANG LORONG 13", "POSTAL_C_1": "388668" }, "geometry": { "type": "Point", "coordinates": [ 103.877221588581392, 1.313671214951363 ] } },
{ "type": "Feature", "properties": { "OBJECTID_1": 100, "OBJECTID": 147794, "FEA_ID": 42823.0, "BUILDING_N": "KHENG CHIU BUILDING", "HOUSE_BLK_": "47", "ROAD_NAME": "BEACH ROAD", "POSTAL_COD": "189683", "ADDRESS_TY": "K", "DATA_TYPE_": "extg", "MULTI_ADDR": "y", "X_ADDR": 30515.898692700001, "Y_ADDR": 30974.176215399999, "BUILDING_I": "101000000010108090608030000407", "OID_": 91, "S_N": 92.0, "NAME_OF_CL": "SINGAPORE HAI NAN HWEE KUAN", "ADDRESS": "47 BEACH ROAD #01-01", "POSTAL_C_1": "189683" }, "geometry": { "type": "Point", "coordinates": [ 103.85592502894329, 1.296393858511657 ] } },
{ "type": "Feature", "properties": { "OBJECTID_1": 101, "OBJECTID": 147990, "FEA_ID": 141831.0, "BUILDING_N": " ", "HOUSE_BLK_": "102", "ROAD_NAME": "LORONG AH SOO", "POSTAL_COD": "536725", "ADDRESS_TY": "S", "DATA_TYPE_": "extg", "MULTI_ADDR": "n", "X_ADDR": 33612.6536996, "Y_ADDR": 36996.935634399997, "BUILDING_I": "109000000010503163712453646803", "OID_": 21, "S_N": 22.0, "NAME_OF_CL": "SERANGOON KHIUNG JAI-CO VILLAGERS ASSOCIATION", "ADDRESS": "102 LORONG AH SOO", "POSTAL_C_1": "536725" }, "geometry": { "type": "Point", "coordinates": [ 103.883751821227378, 1.350861139392171 ] } },
{ "type": "Feature", "properties": { "OBJECTID_1": 102, "OBJECTID": 149190, "FEA_ID": 164554.0, "BUILDING_N": " ", "HOUSE_BLK_": "48", "ROAD_NAME": "LORONG 8 GEYLANG", "POSTAL_COD": "399108", "ADDRESS_TY": "K", "DATA_TYPE_": "extg", "MULTI_ADDR": "n", "X_ADDR": 32861.127934199998, "Y_ADDR": 32541.3654221, "BUILDING_I": "100000000112399092100082605000", "OID_": 3, "S_N": 4.0, "NAME_OF_CL": "TEO ANN KUAY KUAN", "ADDRESS": "48-LORONG 8 GEYLANG", "POSTAL_C_1": "399108" }, "geometry": { "type": "Point", "coordinates": [ 103.876998179580639, 1.31056668404508 ] } },
{ "type": "Feature", "properties": { "OBJECTID_1": 103, "OBJECTID": 149927, "FEA_ID": 78861.0, "BUILDING_N": " ", "HOUSE_BLK_": "19", "ROAD_NAME": "LORONG 13 GEYLANG", "POSTAL_COD": "388662", "ADDRESS_TY": "S", "DATA_TYPE_": "extg", "MULTI_ADDR": "y", "X_ADDR": 32891.020504100001, "Y_ADDR": 32860.5376177, "BUILDING_I": "101000000010308080606020000109", "OID_": 52, "S_N": 53.0, "NAME_OF_CL": "KHENG JAI SAR KUNG ASSOCIATION", "ADDRESS": "19 #02-00 LORONG 13 GEYLANG", "POSTAL_C_1": "388662" }, "geometry": { "type": "Point", "coordinates": [ 103.877266829441439, 1.313453159224367 ] } },
{ "type": "Feature", "properties": { "OBJECTID_1": 104, "OBJECTID": 152746, "FEA_ID": 79096.0, "BUILDING_N": "HDB-HOUGANG", "HOUSE_BLK_": "501", "ROAD_NAME": "HOUGANG AVENUE 8", "POSTAL_COD": "530501", "ADDRESS_TY": "H", "DATA_TYPE_": "extg", "MULTI_ADDR": "n", "X_ADDR": 33943.833597899997, "Y_ADDR": 39333.841846299998, "BUILDING_I": "100000000000503000500010000000", "OID_": 45, "S_N": 46.0, "NAME_OF_CL": "PHONG CHEW FELLOW COUNTRYMEN SOCIETY", "ADDRESS": "BLK 501 HOUGANG AVE 8 #01-634", "POSTAL_C_1": "530501" }, "geometry": { "type": "Point", "coordinates": [ 103.886728146126799, 1.371995213670389 ] } },
{ "type": "Feature", "properties": { "OBJECTID_1": 105, "OBJECTID": 153430, "FEA_ID": 41067.0, "BUILDING_N": " ", "HOUSE_BLK_": "23", "ROAD_NAME": "LORONG 24A GEYLANG", "POSTAL_COD": "398547", "ADDRESS_TY": "K", "DATA_TYPE_": "extg", "MULTI_ADDR": "n", "X_ADDR": 33659.955475499999, "Y_ADDR": 32759.480175199998, "BUILDING_I": "100000000010309080504070000203", "OID_": 90, "S_N": 91.0, "NAME_OF_CL": " ", "ADDRESS": "23 LORONG 24A #01-01", "POSTAL_C_1": "398547" }, "geometry": { "type": "Point", "coordinates": [ 103.884176072452505, 1.31253910028933 ] } },
{ "type": "Feature", "properties": { "OBJECTID_1": 106, "OBJECTID": 153650, "FEA_ID": 17013.0, "BUILDING_N": "LITTLE INDIA CONSERVATION AREA", "HOUSE_BLK_": "28", "ROAD_NAME": "DICKSON ROAD", "POSTAL_COD": "209511", "ADDRESS_TY": "U", "DATA_TYPE_": "extg", "MULTI_ADDR": "y", "X_ADDR": 30321.510225000002, "Y_ADDR": 31976.738372299998, "BUILDING_I": "101000000010200090501010000208", "OID_": 122, "S_N": 123.0, "NAME_OF_CL": "SINAGPORE GEOK SHEE ASSOCIATION", "ADDRESS": "28-A DICKSON ROAD", "POSTAL_C_1": "209511" }, "geometry": { "type": "Point", "coordinates": [ 103.854178437779538, 1.305460692579595 ] } },
{ "type": "Feature", "properties": { "OBJECTID_1": 107, "OBJECTID": 155974, "FEA_ID": 18486.0, "BUILDING_N": "HDB-CENTRAL AREA", "HOUSE_BLK_": "34", "ROAD_NAME": "UPPER CROSS STREET", "POSTAL_COD": "050034", "ADDRESS_TY": "H", "DATA_TYPE_": "extg", "MULTI_ADDR": "n", "X_ADDR": 29003.047448099998, "Y_ADDR": 29833.054372300001, "BUILDING_I": "100000000000005000003040000000", "OID_": 127, "S_N": 128.0, "NAME_OF_CL": "KIM GOH SAN CO0VILLAGERS ASSOCIATION", "ADDRESS": "BLK 34 UPPER CROSS STREET #04-142", "POSTAL_C_1": "050034" }, "geometry": { "type": "Point", "coordinates": [ 103.842331362549047, 1.286074039339041 ] } },
{ "type": "Feature", "properties": { "OBJECTID_1": 108, "OBJECTID": 163390, "FEA_ID": 229107.0, "BUILDING_N": "KWONG WAI SIEW PECK SAN THENG BUILDING", "HOUSE_BLK_": "50", "ROAD_NAME": "KAMPONG SAN TENG", "POSTAL_COD": "576498", "ADDRESS_TY": "S", "DATA_TYPE_": "extg", "MULTI_ADDR": "n", "X_ADDR": 29114.5600878, "Y_ADDR": 36358.6188779, "BUILDING_I": "100000060327507060409382605007", "OID_": 17, "S_N": 18.0, "NAME_OF_CL": "KWONG WAI SIEW PECK SAN THENG", "ADDRESS": "50 KAMPONG SAN TENG", "POSTAL_C_1": "576498" }, "geometry": { "type": "Point", "coordinates": [ 103.843333583843972, 1.345088935795349 ] } },
{ "type": "Feature", "properties": { "OBJECTID_1": 109, "OBJECTID": 165499, "FEA_ID": 127451.0, "BUILDING_N": "KENG TECK WHAY", "HOUSE_BLK_": "150", "ROAD_NAME": "TELOK AYER STREET", "POSTAL_COD": "068608", "ADDRESS_TY": "S", "DATA_TYPE_": "extg", "MULTI_ADDR": "n", "X_ADDR": 29610.9228157, "Y_ADDR": 29301.421119800001, "BUILDING_I": "100000000010006080610287040501", "OID_": 47, "S_N": 48.0, "NAME_OF_CL": "SINGAPORE KENG TEK WHAY", "ADDRESS": "150 TELOK AYER STREET", "POSTAL_C_1": "068608" }, "geometry": { "type": "Point", "coordinates": [ 103.847793339754531, 1.281266109169552 ] } }
]
}
