{
"type": "FeatureCollection",
"name": "sg_lianhemiao_all",
"crs": { "type": "name", "properties": { "name": "urn:ogc:def:crs:OGC:1.3:CRS84" } },
"features": [
{ "type": "Feature", "properties": { "OBJECTID": 1, "Official_N": "Ci Yi Tang Jiang Jun Miao (United Temple)", "United_Tem": "Ci Yi Tang(1 of 3)", "Compose": 3, "Address": "3302 Clementi Service Rd / \n3302 Commonwealth Avenue West", "Postal_Cod": "129582" }, "geometry": { "type": "Point", "coordinates": [ 103.761624959714041, 1.322248159308844 ] } },
{ "type": "Feature", "properties": { "OBJECTID": 2, "Official_N": "Shang Di Miao Ji Gong Tan (United Temple)", "United_Tem": "Shang Di Miao Ji Gong Tan(1 of 3)", "Compose": 3, "Address": "10 Marsiling Industrial Estate Road 3", "Postal_Cod": "739254" }, "geometry": { "type": "Point", "coordinates": [ 103.78294055035343, 1.439516716798729 ] } },
{ "type": "Feature", "properties": { "OBJECTID": 3, "Official_N": "Teng San Tian Hock Temple (United Temple )", "United_Tem": "Zhen Shan Tian Fo Gong (1 of 6)", "Compose": 6, "Address": "489 Serangoon North Avenue 1", "Postal_Cod": "555891" }, "geometry": { "type": "Point", "coordinates": [ 103.87253430432213, 1.368836880071749 ] } },
{ "type": "Feature", "properties": { "OBJECTID": 4, "Official_N": "Zhong Bang Lian He Gong (United Temple)", "United_Tem": "Zhong Bang Lian He Gong(1 of 5)", "Compose": 5, "Address": "561 Yishun Ring Road , #01-04", "Postal_Cod": "768682" }, "geometry": { "type": "Point", "coordinates": [ 103.832704229609419, 1.434662605280653 ] } },
{ "type": "Feature", "properties": { "OBJECTID": 5, "Official_N": "Fu Quan Si Shui Mei Gong Lian He Miao (United Temple)", "United_Tem": "Fu Quan Si Shui Mei Gong Lian He Miao(1 of 3)", "Compose": 3, "Address": "1 Bedok North Street 5", "Postal_Cod": "486115" }, "geometry": { "type": "Point", "coordinates": [ 103.949316356644331, 1.335182950760756 ] } },
{ "type": "Feature", "properties": { "OBJECTID": 6, "Official_N": "Ba Ye Li Ba Lian He Miao (United Temple)", "United_Tem": "Ba Ye Li Ba Lian He Miao (1 of 5)", "Compose": 5, "Address": "146 - 150 Paya Lebar Road", "Postal_Cod": "409018" }, "geometry": { "type": "Point", "coordinates": [ 103.890918323120687, 1.328368889822041 ] } },
{ "type": "Feature", "properties": { "OBJECTID": 7, "Official_N": "Ci Hui Tang / Hun Yuan Dao Tan (Combined)", "United_Tem": "Ci Hui Tang / Hun Yuan Dao Tan(1 of 3 )", "Compose": 3, "Address": "Blk 772 Pasir Ris Street 72, #12-368", "Postal_Cod": "510772" }, "geometry": { "type": "Point", "coordinates": [ 103.936825027916271, 1.375256262999921 ] } },
{ "type": "Feature", "properties": { "OBJECTID": 8, "Official_N": "See Thian Tao Temple", "United_Tem": "Xi Tian Dao Miao(1 of 3)", "Compose": 3, "Address": "557 Bukit Batok Street 23", "Postal_Cod": "659523" }, "geometry": { "type": "Point", "coordinates": [ 103.757110598662194, 1.340004241655846 ] } },
{ "type": "Feature", "properties": { "OBJECTID": 9, "Official_N": "San Ba Wang Cheng Bang Lian He Miao (United Temple)", "United_Tem": "San Ba Wang Cheng Bang Lian He Miao(1 of 4)", "Compose": 4, "Address": "475 Yishun Ring Road", "Postal_Cod": "768678" }, "geometry": { "type": "Point", "coordinates": [ 103.827997486192174, 1.433634100540694 ] } },
{ "type": "Feature", "properties": { "OBJECTID": 10, "Official_N": "Hong Lai Sze (Unied Temple)", "United_Tem": "Peng Lai Si (1 of 9)", "Compose": 9, "Address": "150 Hougang Avenue 1", "Postal_Cod": "538886" }, "geometry": { "type": "Point", "coordinates": [ 103.88717063191649, 1.349046782011925 ] } },
{ "type": "Feature", "properties": { "OBJECTID": 11, "Official_N": "Guang Fu Gong (United Temple)", "United_Tem": "Guang Fu Gong (1 of 4)", "Compose": 4, "Address": "101 Telok Blangah Drive", "Postal_Cod": "109260" }, "geometry": { "type": "Point", "coordinates": [ 103.807195201616281, 1.274319673622667 ] } },
{ "type": "Feature", "properties": { "OBJECTID": 12, "Official_N": "Xuan Fu Xian Miao (United Temple )", "United_Tem": "Xuan Fu Xian Miao(1 of 4)", "Compose": 4, "Address": "485 Serangoon North Avenue 1", "Postal_Cod": "555890" }, "geometry": { "type": "Point", "coordinates": [ 103.872952909470342, 1.368899346619586 ] } },
{ "type": "Feature", "properties": { "OBJECTID": 13, "Official_N": "Cheng Feng Lian He Miao  (United Temple)", "United_Tem": "Cheng Feng Lian He Miao(1 of 3)", "Compose": 3, "Address": "15 Arumugam Rd", "Postal_Cod": "409960" }, "geometry": { "type": "Point", "coordinates": [ 103.891854803389336, 1.326202108898515 ] } },
{ "type": "Feature", "properties": { "OBJECTID": 14, "Official_N": "Jin Bao Fo Si / Tian Gong Wu Lao Sheng Dian (Combined)", "United_Tem": "Jin Bao Fo Si / Tian Gong Wu Lao Sheng Dian(1 of 3)", "Compose": 3, "Address": "2 Lorong Ong Lye", "Postal_Cod": "536358" }, "geometry": { "type": "Point", "coordinates": [ 103.879643429165256, 1.348666684416861 ] } },
{ "type": "Feature", "properties": { "OBJECTID": 15, "Official_N": "Zhong Yi Tian Ming Miao (United Temple )", "United_Tem": "Zhong Yi Tian Ming Miao(1 of 6)", "Compose": 6, "Address": "25 Serangoon North Avenue 3", "Postal_Cod": "555862" }, "geometry": { "type": "Point", "coordinates": [ 103.86988944130583, 1.373036600854417 ] } },
{ "type": "Feature", "properties": { "OBJECTID": 16, "Official_N": "Long He Shan Qi Zhai Miao (Unitede Temple )", "United_Tem": "Long He Shan Qi Zhai Miao(1 of 3)", "Compose": 3, "Address": "4 Teck Whye Lane", "Postal_Cod": "688800" }, "geometry": { "type": "Point", "coordinates": [ 103.753518850433309, 1.380680379871743 ] } },
{ "type": "Feature", "properties": { "OBJECTID": 17, "Official_N": "Yu Huang Dian Lian He Gong (Unied Temple)", "United_Tem": "Yu Huang Dian Lian He Gong (1 of 4 )", "Compose": 4, "Address": "12 Jurong West Street 76", "Postal_Cod": "648349" }, "geometry": { "type": "Point", "coordinates": [ 103.703362293061929, 1.347409014172119 ] } },
{ "type": "Feature", "properties": { "OBJECTID": 18, "Official_N": "Shi Lin Jin Shan Lian He Gong  (United Temple)", "United_Tem": "Shi Lin Jin Shan Lian He Gong(1 of 4)", "Compose": 4, "Address": "7-11Bedok North Street 5, Ave 4.", "Postal_Cod": "485874" }, "geometry": { "type": "Point", "coordinates": [ 103.94883531618926, 1.335270262637607 ] } },
{ "type": "Feature", "properties": { "OBJECTID": 19, "Official_N": "Cheng Huang Miao (Yang Tao Yuan ) (Unied Temple)", "United_Tem": "Cheng Huang Miao (Yang Tao Yuan )(1 of 3)", "Compose": 3, "Address": "300 Pandan Gardens", "Postal_Cod": "609341" }, "geometry": { "type": "Point", "coordinates": [ 103.750650908004317, 1.320876633243121 ] } },
{ "type": "Feature", "properties": { "OBJECTID": 20, "Official_N": "Wu Lan Lian Sheng Miao (United Temple)", "United_Tem": "Wu Lan Lian Sheng Miao (1 of 4)", "Compose": 4, "Address": "11 Woodlands Industrial Park E8", "Postal_Cod": "757701" }, "geometry": { "type": "Point", "coordinates": [ 103.800688217740444, 1.452360471199802 ] } },
{ "type": "Feature", "properties": { "OBJECTID": 21, "Official_N": "Hong Tho Biow Temple (United Temple)", "United_Tem": "Feng Tu Miao (1 of 7)", "Compose": 7, "Address": "31 Marsiling Industrial Estate Road 3", "Postal_Cod": "739255" }, "geometry": { "type": "Point", "coordinates": [ 103.782730825008031, 1.439601879643383 ] } },
{ "type": "Feature", "properties": { "OBJECTID": 22, "Official_N": "Ya Long Lian He Gong (United Temple)", "United_Tem": "Ya Long Lian He Gong(1 of 4)", "Compose": 4, "Address": "103 Eunos Road 5", "Postal_Cod": "409352" }, "geometry": { "type": "Point", "coordinates": [ 103.896025286872344, 1.319518192978394 ] } },
{ "type": "Feature", "properties": { "OBJECTID": 23, "Official_N": "Long Feng Dong Ji Yun Nan Da Bo Gong Miao (United Temple )", "United_Tem": "Long Feng Dong Ji Yun Nan Da Bo Gong Miao(1 of 3)", "Compose": 3, "Address": "10 Bukit Batok Street 21", "Postal_Cod": "659632" }, "geometry": { "type": "Point", "coordinates": [ 103.750865868753891, 1.346005899243582 ] } },
{ "type": "Feature", "properties": { "OBJECTID": 24, "Official_N": "Dan Bin ni Lian He Gong (Unied Temple)", "United_Tem": "Dan Bin ni Lian He Gong(1 of 13)", "Compose": 13, "Address": "25 Tampines Street 21", "Postal_Cod": "529394" }, "geometry": { "type": "Point", "coordinates": [ 103.949437090906173, 1.35570669282775 ] } },
{ "type": "Feature", "properties": { "OBJECTID": 25, "Official_N": "Chang Xiu Wei Ling Dong Shan Lian He Miao (United Temple)", "United_Tem": "Chang Xiu Wei Ling Dong Shan Lian He Miao(1 of 4)", "Compose": 4, "Address": "362, Yishun Avenue 3", "Postal_Cod": "769060" }, "geometry": { "type": "Point", "coordinates": [ 103.832902359528902, 1.422407387441283 ] } },
{ "type": "Feature", "properties": { "OBJECTID": 26, "Official_N": "Ju Shan Ha Shan Gong  (United Temple)", "United_Tem": "Ju Shan Ha Shan Gong(1 of 3)", "Compose": 3, "Address": "569 Yishun Ring Road", "Postal_Cod": "768691" }, "geometry": { "type": "Point", "coordinates": [ 103.833530104981705, 1.434576720643633 ] } },
{ "type": "Feature", "properties": { "OBJECTID": 27, "Official_N": "Sheng Gang Lian He Miao (Unied Temple)", "United_Tem": "Sheng Gang Lian He Miao(1 of 3)", "Compose": 3, "Address": "80 Rivervale Crescent, #01-01", "Postal_Cod": "545087" }, "geometry": { "type": "Point", "coordinates": [ 103.906941890702171, 1.389369674366475 ] } },
{ "type": "Feature", "properties": { "OBJECTID": 28, "Official_N": "Thomson Temple  (United Temple )", "United_Tem": "Tang Shen Miao(1 of 4)", "Compose": 4, "Address": "99 Sector B Sin Ming Industrial Estate", "Postal_Cod": "575660" }, "geometry": { "type": "Point", "coordinates": [ 103.840369526720465, 1.357826129532153 ] } },
{ "type": "Feature", "properties": { "OBJECTID": 29, "Official_N": "Zhen Long Gong (United Temple)", "United_Tem": "Zhen Long Gong(1 of 5)", "Compose": 5, "Address": "98T Redhill Close", "Postal_Cod": "158900" }, "geometry": { "type": "Point", "coordinates": [ 103.81623571176813, 1.286223860877609 ] } },
{ "type": "Feature", "properties": { "OBJECTID": 30, "Official_N": "Tian De Sheng Miao (Unied Temple)", "United_Tem": "Tian De Sheng Miao (1 of 5)", "Compose": 5, "Address": "109 / a / b / c Hougang Avenue 5", "Postal_Cod": "538817" }, "geometry": { "type": "Point", "coordinates": [ 103.895715558401932, 1.365481432463337 ] } },
{ "type": "Feature", "properties": { "OBJECTID": 31, "Official_N": "Hong Mao Qiao Lian He Miao (Unied Temple)", "United_Tem": "Hong Mao Qiao Lian He Miao (1 of 4 )", "Compose": 4, "Address": "791 Ang Mo Kio Ave 1", "Postal_Cod": "569974" }, "geometry": { "type": "Point", "coordinates": [ 103.838631795076168, 1.36626839954464 ] } },
{ "type": "Feature", "properties": { "OBJECTID": 32, "Official_N": "Tai Yeong Kon Temple (United Temple)", "United_Tem": "Tai Yang Gong  (1 of 6)", "Compose": 6, "Address": "85A Silat Road", "Postal_Cod": "168851" }, "geometry": { "type": "Point", "coordinates": [ 103.828715211182498, 1.277405351493896 ] } },
{ "type": "Feature", "properties": { "OBJECTID": 33, "Official_N": "Dou Tian Gong (Combined)", "United_Tem": "Dou Tian Gong (United Temple)(1 of 3)", "Compose": 3, "Address": "2 Jurong West Street 76", "Postal_Cod": "648370" }, "geometry": { "type": "Point", "coordinates": [ 103.703687890382213, 1.346870707359383 ] } },
{ "type": "Feature", "properties": { "OBJECTID": 34, "Official_N": "Wu He Miao (United Temple)", "United_Tem": "Wu He Mia(1 of 7)", "Compose": 7, "Address": "177P Lorong 7 Toa Payoh", "Postal_Cod": "319318" }, "geometry": { "type": "Point", "coordinates": [ 103.856366428987272, 1.33850558861125 ] } },
{ "type": "Feature", "properties": { "OBJECTID": 35, "Official_N": "Cao Cuo Gang Lian Sheng Gong (Unitede Temple )", "United_Tem": "Cao Cuo Gang Lian Sheng Gong(1 of 6)", "Compose": 6, "Address": "2 Teck Whye Lane", "Postal_Cod": "688799" }, "geometry": { "type": "Point", "coordinates": [ 103.753528239396132, 1.380956780750838 ] } },
{ "type": "Feature", "properties": { "OBJECTID": 36, "Official_N": "Ju Sheng Miao (United Temple )", "United_Tem": "Ju Sheng Miao(1 of 4)", "Compose": 4, "Address": "48 Ang Mo Kio Street 61", "Postal_Cod": "569162" }, "geometry": { "type": "Point", "coordinates": [ 103.84152441670841, 1.380878057591455 ] } },
{ "type": "Feature", "properties": { "OBJECTID": 37, "Official_N": "Chi Hock Keng Temple (United Temple )", "United_Tem": "Qi Fu Gong(1 of 3)", "Compose": 3, "Address": "15 Fajar Road", "Postal_Cod": "679003" }, "geometry": { "type": "Point", "coordinates": [ 103.769468413752691, 1.383389267502122 ] } },
{ "type": "Feature", "properties": { "OBJECTID": 38, "Official_N": "De Hai Gong  (United Temple)", "United_Tem": "De Hai Gong(1 of 4)", "Compose": 4, "Address": "30 Bedok Reservoir Road\n32 Bedok Reservoir Road", "Postal_Cod": "479231" }, "geometry": { "type": "Point", "coordinates": [ 103.907918610197626, 1.331118273495191 ] } },
{ "type": "Feature", "properties": { "OBJECTID": 39, "Official_N": "Cai Cuo Gang Lian Sheng Dian (Unitede Temple )", "United_Tem": "Cai Cuo Gang Lian Sheng Dian(1 of 6)", "Compose": 6, "Address": "11  Choa Chu Kang Street 51", "Postal_Cod": "689334" }, "geometry": { "type": "Point", "coordinates": [ 103.742757051804375, 1.391556778597637 ] } },
{ "type": "Feature", "properties": { "OBJECTID": 40, "Official_N": "Hock Huat Keng Temple  (United Temple)", "United_Tem": "Fu Fa Gong(1 of 5)", "Compose": 5, "Address": "523 Yishun Industrial Park A", "Postal_Cod": "768770" }, "geometry": { "type": "Point", "coordinates": [ 103.835962140827519, 1.443228815962501 ] } },
{ "type": "Feature", "properties": { "OBJECTID": 41, "Official_N": "Gui Lin Lian He Miao (United Temple )", "United_Tem": "Gui Lin Lian He Miao(1 of 7)", "Compose": 7, "Address": "397 Bukit Batok West Ave 8", "Postal_Cod": "658964" }, "geometry": { "type": "Point", "coordinates": [ 103.739899156661835, 1.347032534145329 ] } },
{ "type": "Feature", "properties": { "OBJECTID": 42, "Official_N": "Liu Xun San He Miao (Unied Temple)", "United_Tem": "Liu Xun San He Miao(1 of 6)", "Compose": 6, "Address": "4 \\ 6 \\ 8 Ang Mo Kio St 63", "Postal_Cod": "569112" }, "geometry": { "type": "Point", "coordinates": [ 103.848600539278905, 1.385445916961525 ] } },
{ "type": "Feature", "properties": { "OBJECTID": 43, "Official_N": "Qiong Yao Jiao Di Temple (Jurong Temple)", "United_Tem": "Yu Lang Zong Gong (Lian He Gong) (1 of 4)", "Compose": 4, "Address": "741 Jurong West Street 42, #01-01", "Postal_Cod": "649369" }, "geometry": { "type": "Point", "coordinates": [ 103.724255467695585, 1.352899941993734 ] } },
{ "type": "Feature", "properties": { "OBJECTID": 44, "Official_N": "Cai Shi Lian He Gong  (United Temple)", "United_Tem": "Cai Shi Lian He Gong(1 of 4)", "Compose": 4, "Address": "6 Chai Chee Lane", "Postal_Cod": "469020" }, "geometry": { "type": "Point", "coordinates": [ 103.919158177683499, 1.328355055044738 ] } },
{ "type": "Feature", "properties": { "OBJECTID": 45, "Official_N": "Tian Jiang Fo Tang Tai Yang Gong  (United Temple)", "United_Tem": "Tian Jiang Fo Tang Tai Yang Gong(1 of 6)", "Compose": 6, "Address": "51 Bedok North Avenue 4", "Postal_Cod": "469695" }, "geometry": { "type": "Point", "coordinates": [ 103.948929755007583, 1.335821649008861 ] } },
{ "type": "Feature", "properties": { "OBJECTID": 46, "Official_N": "Qi Zhai Long Quan Miao (United Temple)", "United_Tem": "Qi Zhai Long Quan Miao(1 of 3)", "Compose": 3, "Address": "33 Kranji Loop", "Postal_Cod": "739565" }, "geometry": { "type": "Point", "coordinates": [ 103.753627050827674, 1.435793467111134 ] } },
{ "type": "Feature", "properties": { "OBJECTID": 47, "Official_N": "Ci Ling Lian He Miao  (United Temple)", "United_Tem": "Ci Ling Lian He Miao (1 of 3)", "Compose": 3, "Address": "525 Yishun Industrial Park A", "Postal_Cod": "768769" }, "geometry": { "type": "Point", "coordinates": [ 103.835934927051994, 1.443473561232912 ] } },
{ "type": "Feature", "properties": { "OBJECTID": 48, "Official_N": "Tian Xian Miao", "United_Tem": "Tian Xian Miao(1 of 3)", "Compose": 3, "Address": "19 Woodlands Industrial Park E7", "Postal_Cod": "757721" }, "geometry": { "type": "Point", "coordinates": [ 103.795692840451181, 1.450736818275269 ] } },
{ "type": "Feature", "properties": { "OBJECTID": 49, "Official_N": "Bang E Lian He Miao  (United Temple)", "United_Tem": "Bang E Lian He Miao(1 of 4)", "Compose": 4, "Address": "3 Tebing Lan485 Serangoon North Avenue 1\r\ne, Punggol East  #01-02", "Postal_Cod": "828849" }, "geometry": { "type": "Point", "coordinates": [ 103.915591547147542, 1.392499710211839 ] } },
{ "type": "Feature", "properties": { "OBJECTID": 50, "Official_N": "Shu Tou Bo Gong Ji Guang Jin Dian (Unied Temple)", "United_Tem": "Shu Tou Bo Gong Ji Guang Jin Dian(1 of 3)", "Compose": 3, "Address": "Blk 860A, Tampines Ave 5 #01-623", "Postal_Cod": "521860" }, "geometry": { "type": "Point", "coordinates": [ 103.938503691338028, 1.35540615847772 ] } },
{ "type": "Feature", "properties": { "OBJECTID": 51, "Official_N": "Shui Gou Ge An Guan (United Temple )", "United_Tem": "Shui Gou Ge An Guan (1 of 3 )", "Compose": 3, "Address": "46 Ang Mo Kio Street 61", "Postal_Cod": "569161" }, "geometry": { "type": "Point", "coordinates": [ 103.841629528713952, 1.380721717073301 ] } },
{ "type": "Feature", "properties": { "OBJECTID": 52, "Official_N": "Jin Feng Miao / San Bao Fo Guang Si  (United Temple)", "United_Tem": "Jin Feng Miao / San Bao Fo Guang Si (1 of 3)", "Compose": 3, "Address": "24 - 26 Arumugam Road", "Postal_Cod": "409963" }, "geometry": { "type": "Point", "coordinates": [ 103.891786161933595, 1.325779669379484 ] } },
{ "type": "Feature", "properties": { "OBJECTID": 53, "Official_N": "Zhong Hong Shan Tang / Cong Mao Yuan Jiu Huang Gong  (United Temple)\r\n", "United_Tem": "Zhong Hong Shan Tang / Cong Mao Yuan Jiu Huang Gong(1 of 3)\r\n", "Compose": 3, "Address": "28 Arumugam Road\r\n28 Arumugam Road\r\n", "Postal_Cod": "409966\r\n" }, "geometry": { "type": "Point", "coordinates": [ 103.892096779368714, 1.325702825394666 ] } },
{ "type": "Feature", "properties": { "OBJECTID": 54, "Official_N": "Xian Chuan Ling Guang Zong Dao Tang", "United_Tem": "Xian Chuan Ling Guang Zong Dao Tang(1 of 3)\r\n", "Compose": 3, "Address": "790 Tampines Road\r\n", "Postal_Cod": "518472" }, "geometry": { "type": "Point", "coordinates": [ 103.92949296360274, 1.367651813902226 ] } },
{ "type": "Feature", "properties": { "OBJECTID": 55, "Official_N": "Qing Yun Combined Temple\r\n", "United_Tem": "Qing Yun Lian He Miao  (1 of 4)\r\n", "Compose": 4, "Address": "16 -20 Hougang Street 11\r\n", "Postal_Cod": "538746\r\n\r\n" }, "geometry": { "type": "Point", "coordinates": [ 103.880348000197628, 1.352889706722237 ] } },
{ "type": "Feature", "properties": { "OBJECTID": 56, "Official_N": "Long Xu Yan / Tian Yang Guan / Xiang Yun Guan (Combined)\r\n", "United_Tem": "Long Xu Yan / Tian Yang Guan / Xiang Yun Guan (1 of 4 )\r\n", "Compose": 4, "Address": "87 Kovan Road\r\n", "Postal_Cod": "548176\r\n" }, "geometry": { "type": "Point", "coordinates": [ 103.878217429855525, 1.35518088149119 ] } },
{ "type": "Feature", "properties": { "OBJECTID": 57, "Official_N": "Yi Shun Zhen Lian He Miao  (United Temple) \r\n", "United_Tem": "Yi Shun Zhen Lian He Miao(1 of 3)\r\n", "Compose": 3, "Address": "475 Yishun Ring Road\r\n", "Postal_Cod": "757749\r\n" }, "geometry": { "type": "Point", "coordinates": [ 103.795461680066637, 1.451044191254266 ] } },
{ "type": "Feature", "properties": { "OBJECTID": 58, "Official_N": "Cai Shen Miao Tian Hou Gong Peng Lai Dian (United Temple) \r\n", "United_Tem": "Cai Shen Miao Tian Hou Gong Peng Lai Dian(1 of 4)\r\n", "Compose": 4, "Address": "24 Admiralty Street\r\n", "Postal_Cod": "757613" }, "geometry": { "type": "Point", "coordinates": [ 103.811242779645781, 1.460788339226272 ] } },
{ "type": "Feature", "properties": { "OBJECTID": 59, "Official_N": "Chai Cuo Gang You Chi Lian He Miao (United Temple) \r\n", "United_Tem": "Cai Cuo Gang Lian Sheng Dian(1 of  6) \r\n", "Compose": 6, "Address": "5 Choa Chu Kang Street 51\r\n", "Postal_Cod": "689339\r\n" }, "geometry": { "type": "Point", "coordinates": [ 103.742502750859344, 1.391625939864906 ] } },
{ "type": "Feature", "properties": { "OBJECTID": 60, "Official_N": "Zheng Hua Ci Sheng Gong (United Temple)\r\n", "United_Tem": "Zheng Hua Ci Sheng Gong (1 of 3)\r\n", "Compose": 3, "Address": "23 Bangkit Road \r\n", "Postal_Cod": "679972\r\n" }, "geometry": { "type": "Point", "coordinates": [ 103.773613668456662, 1.378054583435564 ] } },
{ "type": "Feature", "properties": { "OBJECTID": 61, "Official_N": "Wu Lei Gong Dong Tian Gong (United Temple )\r\n", "United_Tem": "Wu Lei Gong Dong Tian Gong(1 of 3)\r\n", "Compose": 3, "Address": "8 Bukit Batok Street 21\r\n", "Postal_Cod": "659631" }, "geometry": { "type": "Point", "coordinates": [ 103.750859139751924, 1.346237112210371 ] } },
{ "type": "Feature", "properties": { "OBJECTID": 62, "Official_N": "Fu Tong Lian He Miao (United Temple )\r\n\r\n", "United_Tem": "Fu Tong Lian He Miao(1 of 4)\r\n", "Compose": 4, "Address": "553 Bukit Batok Street 23\r\n", "Postal_Cod": "659521\r\n" }, "geometry": { "type": "Point", "coordinates": [ 103.756942306042831, 1.340171399871553 ] } },
{ "type": "Feature", "properties": { "OBJECTID": 63, "Official_N": "Yu Lang Xi Lian He Gong (Unied Temple)\r\n", "United_Tem": "Yu Lang Xi Lian He Gong(1 of 5)\r\n", "Compose": 5, "Address": "62 Jurong West Street 41\r\n", "Postal_Cod": "649408\r\n" }, "geometry": { "type": "Point", "coordinates": [ 103.720069550621645, 1.349273987296306 ] } },
{ "type": "Feature", "properties": { "OBJECTID": 64, "Official_N": "Tian Leong Keng Temple (United Temple )\r\n", "United_Tem": "Tian Long Gong (1 of 4)\r\n", "Compose": 4, "Address": "101 / a / b Sector B Sin Ming Industrial Estate, 575662 - 4\r\n", "Postal_Cod": "575592\r\n" }, "geometry": { "type": "Point", "coordinates": [ 103.840505410712765, 1.357575731436241 ] } },
{ "type": "Feature", "properties": { "OBJECTID": 65, "Official_N": "Bo Dong Ba XI Lian He Miao (Unied Temple)\r\n", "United_Tem": "Bo Dong Ba Xi Lian He Miao (1 of 6)\r\n", "Compose": 6, "Address": "8 Ang Mo Kio Avenue 10 / Street 44\r\n\r\n8 Ang Mo Kio Avenue 10 / Street 44\r\n", "Postal_Cod": "569731\r\n" }, "geometry": { "type": "Point", "coordinates": [ 103.855637538273044, 1.364355066214294 ] } },
{ "type": "Feature", "properties": { "OBJECTID": 66, "Official_N": "Buddha of Medicine Welfare Society / Da Chen jing She\r\n", "United_Tem": "Yao Shi Xing Yuan Hui / Da Chen Jing She (1 of 3)\r\n", "Compose": 3, "Address": "11 Lorong 25 Geylang \r\n", "Postal_Cod": "388293\r\n" }, "geometry": { "type": "Point", "coordinates": [ 103.88236898990273, 1.314033814871929 ] } },
{ "type": "Feature", "properties": { "OBJECTID": 67, "Official_N": "Tian De Gong (Unied Temple)\r\n", "United_Tem": "Na Du Tan Bao An Gong Tian De Gong(1 of 4)\r\n", "Compose": 4, "Address": "778 Tampines Road\r\n", "Postal_Cod": "518486\r\n" }, "geometry": { "type": "Point", "coordinates": [ 103.929160302826901, 1.367492854739196 ] } },
{ "type": "Feature", "properties": { "OBJECTID": 68, "Official_N": "Yi Shun Zhen Lian He Miao  (United Temple) \r\n", "United_Tem": "Yi Shun Zhen Lian He Miao(1 of 4)\r\n", "Compose": 4, "Address": "15 Yishun Avenue 9 \r\n", "Postal_Cod": "768889\r\n" }, "geometry": { "type": "Point", "coordinates": [ 103.841514340131923, 1.434009342467351 ] } },
{ "type": "Feature", "properties": { "OBJECTID": 69, "Official_N": "Zi Yun Kai Ji Gong (Unied Temple)\r\n", "United_Tem": "Zi Yun Kai Ji Gong (1 of 4)\r\n", "Compose": 4, "Address": "56 / 58 / 60 Hougang Avenue 3 Singapore 538841 - 3\r\n", "Postal_Cod": "538842\r\n" }, "geometry": { "type": "Point", "coordinates": [ 103.8923047589373, 1.358652456838728 ] } },
{ "type": "Feature", "properties": { "OBJECTID": 70, "Official_N": "Guag Fu Gong\r\nGuang Fu Gong\r\n\r\nGuang Fu Gong\r\n", "United_Tem": "Guang Fu Gong (2 of 4)\r\n", "Compose": 4, "Address": "101 Telok Blangah Drive \r\n", "Postal_Cod": "109260" }, "geometry": { "type": "Point", "coordinates": [ 103.807242613762753, 1.274319720228982 ] } },
{ "type": "Feature", "properties": { "OBJECTID": 71, "Official_N": "Lian Feng Si", "United_Tem": "Guang Fu Gong (3 of 4)\r\n", "Compose": 4, "Address": "101 Telok Blangah Drive \r\n", "Postal_Cod": "109260" }, "geometry": { "type": "Point", "coordinates": [ 103.807294437720657, 1.274319770496721 ] } },
{ "type": "Feature", "properties": { "OBJECTID": 72, "Official_N": "Xie He Gong\r\nXie He Gong\r\n", "United_Tem": "Guang Fu Gong (4 of 4)\r\n", "Compose": 4, "Address": "101 Telok Blangah Drive \r\n", "Postal_Cod": "109260" }, "geometry": { "type": "Point", "coordinates": [ 103.807340508353022, 1.274319816183213 ] } },
{ "type": "Feature", "properties": { "OBJECTID": 73, "Official_N": "Chee Ghee Deang", "United_Tem": "Ci Yi Tang(2 of 3)\r\n", "Compose": 3, "Address": "3302 Clementi Service Rd / \r\n3302 Commonwealth Avenue West", "Postal_Cod": "129582\r\n" }, "geometry": { "type": "Point", "coordinates": [ 103.761656533945882, 1.322247993823424 ] } },
{ "type": "Feature", "properties": { "OBJECTID": 74, "Official_N": "Chiang Chin Meow", "United_Tem": "Ci Yi Tang(3 of 3)", "Compose": 3, "Address": "3302 Clementi Service Rd / \r\n3302 Commonwealth Avenue West", "Postal_Cod": "129582\r\n" }, "geometry": { "type": "Point", "coordinates": [ 103.761688746149943, 1.322247824738695 ] } },
{ "type": "Feature", "properties": { "OBJECTID": 75, "Official_N": "Jie Gu Dian\r\n", "United_Tem": "Zhen Long Gong(2 of 5)", "Compose": 5, "Address": "98T Redhill Close\r\n", "Postal_Cod": "158900\r\n" }, "geometry": { "type": "Point", "coordinates": [ 103.816270077444941, 1.286207143020258 ] } },
{ "type": "Feature", "properties": { "OBJECTID": 76, "Official_N": "Long Shan Ting\r\n", "United_Tem": "Zhen Long Gong(3 of 5)\r\n", "Compose": 5, "Address": "98T Redhill Close\r\n", "Postal_Cod": "158900\r\n" }, "geometry": { "type": "Point", "coordinates": [ 103.816312709717067, 1.286186403507379 ] } },
{ "type": "Feature", "properties": { "OBJECTID": 77, "Official_N": "Ban Sien Temple\r\n", "United_Tem": "Zhen Long Gong(4 of 5)", "Compose": 5, "Address": "98T Redhill Close\r\n", "Postal_Cod": "158900\r\n" }, "geometry": { "type": "Point", "coordinates": [ 103.816358064573777, 1.286164339117467 ] } },
{ "type": "Feature", "properties": { "OBJECTID": 78, "Official_N": "Chin Leng Keng Chinese Temple\r\n", "United_Tem": "Zhen Long Gong(5 of 5)\r\n", "Compose": 5, "Address": "98T Redhill Close\r\n", "Postal_Cod": "158900\r\n" }, "geometry": { "type": "Point", "coordinates": [ 103.816389323087378, 1.286149132431333 ] } },
{ "type": "Feature", "properties": { "OBJECTID": 79, "Official_N": "Fu Yuan Si\r\n", "United_Tem": "Tai Yang Gong (2 of 6)\r\n", "Compose": 6, "Address": "85A Silat Road \r\n", "Postal_Cod": "168851\r\n" }, "geometry": { "type": "Point", "coordinates": [ 103.828756290468064, 1.277424118045152 ] } },
{ "type": "Feature", "properties": { "OBJECTID": 80, "Official_N": "Leng Yan Jing She", "United_Tem": "Tai Yang Gong (3 of 6)\r\n", "Compose": 6, "Address": "85A Silat Road \r\n", "Postal_Cod": "168851\r\n" }, "geometry": { "type": "Point", "coordinates": [ 103.828813056402552, 1.277450050811518 ] } },
{ "type": "Feature", "properties": { "OBJECTID": 81, "Official_N": "Nan An Si", "United_Tem": "Tai Yang Gong  (4 of 6)\r\n", "Compose": 6, "Address": "85A Silat Road \r\n", "Postal_Cod": "168851\r\n" }, "geometry": { "type": "Point", "coordinates": [ 103.828867792544415, 1.277475056598979 ] } },
{ "type": "Feature", "properties": { "OBJECTID": 82, "Official_N": "Tai Yang Gong", "United_Tem": "Tai Yang Gong  (5 of 6)\r\n", "Compose": 6, "Address": "85A Silat Road \r\n", "Postal_Cod": "168851\r\n" }, "geometry": { "type": "Point", "coordinates": [ 103.828931363097496, 1.277504098581346 ] } },
{ "type": "Feature", "properties": { "OBJECTID": 83, "Official_N": "Zheng Long Gong\r\n", "United_Tem": "Tai Yang Gong  (6 of 6)\r\n", "Compose": 6, "Address": "85A Silat Road \r\n", "Postal_Cod": "168851\r\n" }, "geometry": { "type": "Point", "coordinates": [ 103.829002376229425, 1.277536540082653 ] } },
{ "type": "Feature", "properties": { "OBJECTID": 84, "Official_N": "Hua De Shan Tang\r\n", "United_Tem": "Wu He Mia(2 of 7)\r\n", "Compose": 7, "Address": "177P Lorong 7 Toa Payoh\r\n", "Postal_Cod": "319318\r\n" }, "geometry": { "type": "Point", "coordinates": [ 103.856479222371917, 1.338505583020764 ] } },
{ "type": "Feature", "properties": { "OBJECTID": 85, "Official_N": "Chee Tian Keng Temple aka Choo Tian Keng\r\n", "United_Tem": "Wu He Mia(3 of 7)\r\n", "Compose": 7, "Address": "177P Lorong 7 Toa Payoh\r\n", "Postal_Cod": "319318\r\n" }, "geometry": { "type": "Point", "coordinates": [ 103.856585487727159, 1.338505577487385 ] } },
{ "type": "Feature", "properties": { "OBJECTID": 86, "Official_N": "Shan Zhu Yuan Fu De Ci\r\n", "United_Tem": "Wu He Mia(4 of 7)\r\n", "Compose": 7, "Address": "177P Lorong 7 Toa Payoh\r\n", "Postal_Cod": "319318\r\n" }, "geometry": { "type": "Point", "coordinates": [ 103.856585492310685, 1.338610606756695 ] } },
{ "type": "Feature", "properties": { "OBJECTID": 87, "Official_N": "Tong Xing Gang\r\n", "United_Tem": "Wu He Mia(5 of 7)\r\n", "Compose": 7, "Address": "177P Lorong 7 Toa Payoh\r\n", "Postal_Cod": "319318\r\n" }, "geometry": { "type": "Point", "coordinates": [ 103.856585497761472, 1.338712304347323 ] } },
{ "type": "Feature", "properties": { "OBJECTID": 88, "Official_N": "Wu Ji Gong\r\n", "United_Tem": "Wu He Mia(6 of 7)\r\n", "Compose": 7, "Address": "177P Lorong 7 Toa Payoh\r\n", "Postal_Cod": "319318\r\n" }, "geometry": { "type": "Point", "coordinates": [ 103.856472149058121, 1.338712310852479 ] } },
{ "type": "Feature", "properties": { "OBJECTID": 89, "Official_N": "Chow Eng Chee\r\n", "United_Tem": "Wu He Mia(7 of 7)\r\n", "Compose": 7, "Address": "177P Lorong 7 Toa Payoh\r\n", "Postal_Cod": "319318\r\n" }, "geometry": { "type": "Point", "coordinates": [ 103.856366439003253, 1.338712316375857 ] } },
{ "type": "Feature", "properties": { "OBJECTID": 90, "Official_N": "Yao Shi Xing Yuan Hui / Da Chen Jing She(2 of 3)\r\n", "United_Tem": "Yao Shi Xing Yuan Hui / Da Chen Jing She(2 of 3)\r\n", "Compose": 3, "Address": "11 Lorong 25 Geylang \r\n", "Postal_Cod": "338293\r\n" }, "geometry": { "type": "Point", "coordinates": [ 103.882386041678643, 1.31403375484698 ] } },
{ "type": "Feature", "properties": { "OBJECTID": 91, "Official_N": "Buddha of Medicine Welfare Society\r\n", "United_Tem": "Yao Shi Xing Yuan Hui / Da Chen Jing She(3 of 3)\r\n", "Compose": 3, "Address": "11 Lorong 25 Geylang \r\n", "Postal_Cod": "338293\r\n" }, "geometry": { "type": "Point", "coordinates": [ 103.882376422916849, 1.314044647201488 ] } },
{ "type": "Feature", "properties": { "OBJECTID": 92, "Official_N": "Fung Huo Yuan Temple aka\r\nDa Sheng Kong Chinese Temple\r\n", "United_Tem": "Ba Ye Li Ba Lian He Miao (2 of 5)\r\n", "Compose": 5, "Address": "148 Paya Lebar Road\r\n", "Postal_Cod": "409018\r\n" }, "geometry": { "type": "Point", "coordinates": [ 103.890970822565265, 1.328389949422326 ] } },
{ "type": "Feature", "properties": { "OBJECTID": 93, "Official_N": "Da Sheng Gong\r\n", "United_Tem": "Ba Ye Li Ba Lian He Miao (3 of 5)\r\n", "Compose": 5, "Address": "159 Paya Lebar Road\r\n", "Postal_Cod": "409019\r\n" }, "geometry": { "type": "Point", "coordinates": [ 103.89101296979527, 1.328412449012419 ] } },
{ "type": "Feature", "properties": { "OBJECTID": 94, "Official_N": "Tien Sen Tua Temple (Bao Gong Miao)\r\n", "United_Tem": "Ba Ye Li Ba Lian He Miao (4 of 5)\r\n", "Compose": 5, "Address": "146C Paya Lebar Road\r\n", "Postal_Cod": "409040\r\n" }, "geometry": { "type": "Point", "coordinates": [ 103.891011582957546, 1.328435338501239 ] } },
{ "type": "Feature", "properties": { "OBJECTID": 95, "Official_N": "Sze Hock Keng Tua Peh Kong Association\r\n", "United_Tem": "Ba Ye Li Ba Lian He Miao (5 of 5)\r\n", "Compose": 5, "Address": "146D Paya Lebar Road\r\n", "Postal_Cod": "409041\r\n" }, "geometry": { "type": "Point", "coordinates": [ 103.890976542530225, 1.328496161429675 ] } },
{ "type": "Feature", "properties": { "OBJECTID": 96, "Official_N": "Fu De Gong", "United_Tem": "Fu De Gong(2 of 4)\r\n", "Compose": 4, "Address": "103 Eunos Road 5\r\n", "Postal_Cod": "409352\r\n" }, "geometry": { "type": "Point", "coordinates": [ 103.896137920861264, 1.319540840823083 ] } },
{ "type": "Feature", "properties": { "OBJECTID": 97, "Official_N": "Long Shan Ting\r\nLong Shan Ting\r\n", "United_Tem": "Ya Long Lian He Gong(3 of 4)\r\n", "Compose": 4, "Address": "103 Eunos Road 5\r\n", "Postal_Cod": "409352\r\n" }, "geometry": { "type": "Point", "coordinates": [ 103.896130771092203, 1.319576858209952 ] } },
{ "type": "Feature", "properties": { "OBJECTID": 98, "Official_N": "Qian Kun Miao\r\nQian Kun Miao \r\n", "United_Tem": "Ya Long Lian He Gong(4 of 4)\r\n", "Compose": 4, "Address": "103 Eunos Road 5\r\n", "Postal_Cod": "409352\r\n" }, "geometry": { "type": "Point", "coordinates": [ 103.896168586820465, 1.319584461142485 ] } },
{ "type": "Feature", "properties": { "OBJECTID": 99, "Official_N": "Feng Xuan Gong\r\n", "United_Tem": "Cheng Feng Lian He Miao(2 of 3)\r\n", "Compose": 3, "Address": "15 Arumugam Rd\r\n", "Postal_Cod": "409960\r\n" }, "geometry": { "type": "Point", "coordinates": [ 103.891899302712488, 1.326212253900616 ] } },
{ "type": "Feature", "properties": { "OBJECTID": 100, "Official_N": "Lorong Koo Chye Sheng Hong Temple\r\n", "United_Tem": "Cheng Feng Lian He Miao(3 of 3)\r\n", "Compose": 3, "Address": "15 Arumugam Rd\r\n", "Postal_Cod": "409960\r\n" }, "geometry": { "type": "Point", "coordinates": [ 103.89194472845, 1.326222609596676 ] } },
{ "type": "Feature", "properties": { "OBJECTID": 101, "Official_N": "Lord Buddha Temple \r\n", "United_Tem": "Jin Feng Miao / San Bao Fo Guang Si(2 of 3)\r\n", "Compose": 3, "Address": "24 Arumugam Road\r\n", "Postal_Cod": "409963\r\n" }, "geometry": { "type": "Point", "coordinates": [ 103.891808016109039, 1.325683939202623 ] } },
{ "type": "Feature", "properties": { "OBJECTID": 102, "Official_N": "Kim Hong Temple\r\n", "United_Tem": "Jin Feng Miao / San Bao Fo Guang Si(3 of 3)\r\n", "Compose": 3, "Address": "26 Arumugam Road\r\n", "Postal_Cod": "409964\r\n" }, "geometry": { "type": "Point", "coordinates": [ 103.891837839136812, 1.325570368444712 ] } },
{ "type": "Feature", "properties": { "OBJECTID": 103, "Official_N": "Charn Mao Hern Kew Huang Keng\r\n", "United_Tem": "Zhong Hong Shan Tang / Cong Mao Yuan Jiu Huang Gong(2 of 3)\r\n", "Compose": 3, "Address": "28 Arumugam Road\r\n", "Postal_Cod": "409965\r\n\r\n409965\r\n409965\r\n" }, "geometry": { "type": "Point", "coordinates": [ 103.892166079805918, 1.325718949455599 ] } },
{ "type": "Feature", "properties": { "OBJECTID": 104, "Official_N": "Zhong Hong Shan Tang\r\n", "United_Tem": "Zhong Hong Shan Tang / Cong Mao Yuan Jiu Huang Gong(3 of 3)\r\n", "Compose": 3, "Address": "28 Arumugam Road\r\n", "Postal_Cod": "409965\r\n\r\n409965\r\n" }, "geometry": { "type": "Point", "coordinates": [ 103.892296560408042, 1.325749308549352 ] } },
{ "type": "Feature", "properties": { "OBJECTID": 105, "Official_N": "Hock Leng Keng Temple\r\n", "United_Tem": "Cai Shi Lian He Gong(2 of 4)\r\n", "Compose": 4, "Address": "6 Chai Chee Lane\r\n", "Postal_Cod": "469020\r\n" }, "geometry": { "type": "Point", "coordinates": [ 103.919320265591978, 1.328367334249269 ] } },
{ "type": "Feature", "properties": { "OBJECTID": 106, "Official_N": "Fu Shan Ting\r\n", "United_Tem": "Cai Shi Lian He Gong(3 of 4)\r\n", "Compose": 4, "Address": "6 Chai Chee Lane\r\n", "Postal_Cod": "469020\r\n" }, "geometry": { "type": "Point", "coordinates": [ 103.919365770606007, 1.328457867588158 ] } },
{ "type": "Feature", "properties": { "OBJECTID": 107, "Official_N": "Zhu Yun Gong\r\n", "United_Tem": "Cai Shi Lian He Gong(4 of 4)\r\n", "Compose": 4, "Address": "6 Chai Chee Lane\r\n", "Postal_Cod": "469020\r\n" }, "geometry": { "type": "Point", "coordinates": [ 103.919336638831481, 1.328569045639924 ] } },
{ "type": "Feature", "properties": { "OBJECTID": 108, "Official_N": "Duan Bo Gong Miao\r\n", "United_Tem": "Tian Jiang Fo Tang Tai Yang Gong (2 of 6)\r\n", "Compose": 6, "Address": "51 Bedok North Avenue 4 \r\n", "Postal_Cod": "469695\r\n" }, "geometry": { "type": "Point", "coordinates": [ 103.948983853748857, 1.335866033472482 ] } },
{ "type": "Feature", "properties": { "OBJECTID": 109, "Official_N": "Jiang Fu Gong\r\n", "United_Tem": "Tian Jiang Fo Tang Tai Yang Gong (3 of 6)\r\n", "Compose": 6, "Address": "51 Bedok North Avenue 4 \r\n", "Postal_Cod": "469695\r\n" }, "geometry": { "type": "Point", "coordinates": [ 103.949012495363888, 1.335830635360216 ] } },
{ "type": "Feature", "properties": { "OBJECTID": 110, "Official_N": "Tai Yang Gong \r\n", "United_Tem": "Tian Jiang Fo Tang Tai Yang Gong (4 of 6)\r\n", "Compose": 6, "Address": "51 Bedok North Avenue 4 \r\n", "Postal_Cod": "469695\r\n" }, "geometry": { "type": "Point", "coordinates": [ 103.949070991808881, 1.335878631637964 ] } },
{ "type": "Feature", "properties": { "OBJECTID": 111, "Official_N": "Tian Kong Buddhist Temple \r\n", "United_Tem": "Tian Jiang Fo Tang Tai Yang Gong (5 of 6)\r\n", "Compose": 6, "Address": "51 Bedok North Avenue 4 \r\n", "Postal_Cod": "469695\r\n" }, "geometry": { "type": "Point", "coordinates": [ 103.949047965844883, 1.335907090309867 ] } },
{ "type": "Feature", "properties": { "OBJECTID": 112, "Official_N": "Tian Zhao Fo Tang Xi Hua Si\r\n", "United_Tem": "Tian Jiang Fo Tang Tai Yang Gong (6 of 6)\r\n", "Compose": 6, "Address": "51 Bedok North Avenue 4 \r\n", "Postal_Cod": "469695\r\n" }, "geometry": { "type": "Point", "coordinates": [ 103.949107283604121, 1.335955758489086 ] } },
{ "type": "Feature", "properties": { "OBJECTID": 113, "Official_N": "Chong De Shan Tang\r\n", "United_Tem": "De Hai Gong (2 of 4)\r\n", "Compose": 4, "Address": "30 - 32 Bedok Reservoir Road\r\n", "Postal_Cod": "479231\r\n" }, "geometry": { "type": "Point", "coordinates": [ 103.907999834849619, 1.331109578276821 ] } },
{ "type": "Feature", "properties": { "OBJECTID": 114, "Official_N": "Lian Sheng Tan\r\n", "United_Tem": "De Hai Gong (3 of 4)\r\n", "Compose": 4, "Address": "30 - 32 Bedok Reservoir Road\r\n", "Postal_Cod": "479231\r\n" }, "geometry": { "type": "Point", "coordinates": [ 103.908079073699938, 1.331101096546258 ] } },
{ "type": "Feature", "properties": { "OBJECTID": 115, "Official_N": "Jee Hai Tung Kwan Imm Welfare Society\r\n", "United_Tem": "De Hai Gong (4 of 4)\r\n", "Compose": 4, "Address": "30 - 32 Bedok Reservoir Road\r\n", "Postal_Cod": "479231\r\n" }, "geometry": { "type": "Point", "coordinates": [ 103.908094708802523, 1.331198541268915 ] } },
{ "type": "Feature", "properties": { "OBJECTID": 116, "Official_N": "Chin Pin Tze Temple\r\n", "United_Tem": "Shi Lin Jin Shan Lian He Gong(2 of 4)\r\n", "Compose": 4, "Address": "7 Bedok North Street 5, Ave 4. \r\n", "Postal_Cod": "485874\r\n" }, "geometry": { "type": "Point", "coordinates": [ 103.948972217982032, 1.335243034844044 ] } },
{ "type": "Feature", "properties": { "OBJECTID": 117, "Official_N": "Kuah Na Keng\r\n", "United_Tem": "Shi Lin Jin Shan Lian He Gong(3 of 4)\r\n", "Compose": 4, "Address": "9  Bedok North Street 5, Ave 4.\r\n", "Postal_Cod": "485875\r\n" }, "geometry": { "type": "Point", "coordinates": [ 103.949113527146238, 1.335214930506742 ] } },
{ "type": "Feature", "properties": { "OBJECTID": 118, "Official_N": "Cheo Bu Tong Temple\r\n", "United_Tem": "Shi Lin Jin Shan Lian He Gong(4 of 4)\r\n", "Compose": 4, "Address": "11 Bedok North Street 5, Ave 4\r\n", "Postal_Cod": "485876\r\n" }, "geometry": { "type": "Point", "coordinates": [ 103.949161469012836, 1.335452151610657 ] } },
{ "type": "Feature", "properties": { "OBJECTID": 119, "Official_N": "Fu Quan Si\r\n", "United_Tem": "Fu Quan Si Shui Mei Gong Lian He Miao(2 of 3)\r\n", "Compose": 3, "Address": "1 Bedok North Street 5\r\n", "Postal_Cod": "486115\r\n" }, "geometry": { "type": "Point", "coordinates": [ 103.949325620243428, 1.335191222526438 ] } },
{ "type": "Feature", "properties": { "OBJECTID": 120, "Official_N": "Chwee Bee Temple\r\nHock Chuan Temple\r\n", "United_Tem": "Fu Quan Si Shui Mei Gong Lian He Miao(3 of 3)\r\n", "Compose": 3, "Address": "1 Bedok North Street 5\r\n", "Postal_Cod": "486115\r\nFu Quan Si\r\n" }, "geometry": { "type": "Point", "coordinates": [ 103.94933416317069, 1.335198850420031 ] } },
{ "type": "Feature", "properties": { "OBJECTID": 121, "Official_N": "Ci Hui Tang / Hun Yuan Dao Tan(2 of 3 )\r\n", "United_Tem": "Ci Hui Tang / Hun Yuan Dao Tan(2 of 3 )\r\n", "Compose": 3, "Address": "Blk 772 Pasir Ris Street 72, #12-368 \r\n", "Postal_Cod": "510772\r\n" }, "geometry": { "type": "Point", "coordinates": [ 103.936915309129006, 1.3751936400773 ] } },
{ "type": "Feature", "properties": { "OBJECTID": 122, "Official_N": "Hun Yuan Dao Tan\r\n", "United_Tem": "Ci Hui Tang / Hun Yuan Dao Tan(3 of 3 )\r\n", "Compose": 3, "Address": "Blk 772 Pasir Ris Street 72, #12-368 \r\n", "Postal_Cod": "510772\r\n" }, "geometry": { "type": "Point", "coordinates": [ 103.93700347885833, 1.375322225757304 ] } },
{ "type": "Feature", "properties": { "OBJECTID": 123, "Official_N": "Guang Jin Dian\r\n", "United_Tem": "Shu Tou Bo Gong Ji Guang Jin Dian(2 of 3)\r\n\r\n", "Compose": 3, "Address": "Blk 860A, Tampines Ave 5 #01-623\r\n\r\n", "Postal_Cod": "521860\r\n" }, "geometry": { "type": "Point", "coordinates": [ 103.938694638775004, 1.355406137464892 ] } },
{ "type": "Feature", "properties": { "OBJECTID": 124, "Official_N": "Shu Tou Bo Gong\r\n\r\n\r\n", "United_Tem": "Shu Tou Bo Gong Ji Guang Jin Dian(3 of 3)\r\n\r\n", "Compose": 3, "Address": "Blk 860A, Tampines Ave 5 #01-623\r\n\r\n", "Postal_Cod": "521860\r\n" }, "geometry": { "type": "Point", "coordinates": [ 103.938694605057137, 1.355270484846275 ] } },
{ "type": "Feature", "properties": { "OBJECTID": 125, "Official_N": "Ling Guang Dao Tang\r\n", "United_Tem": "Xian Chuan Ling Guang Zong Dao Tang(2 of 3)\r\n", "Compose": 3, "Address": "790 Tampines Road\r\n", "Postal_Cod": "518472\r\n" }, "geometry": { "type": "Point", "coordinates": [ 103.929567990522656, 1.367698512182684 ] } },
{ "type": "Feature", "properties": { "OBJECTID": 126, "Official_N": "Hean Thuan Chong Toh Tong Temple\r\n", "United_Tem": "Xian Chuan Ling Guang Zong Dao Tang(3 of 3)\r\n", "Compose": 3, "Address": "790 Tampines Road\r\n", "Postal_Cod": "518472\r\n" }, "geometry": { "type": "Point", "coordinates": [ 103.929675643473459, 1.367765519327507 ] } },
{ "type": "Feature", "properties": { "OBJECTID": 127, "Official_N": "Poh Ann Keng\r\n", "United_Tem": "Na Du Tan Bao An Gong Tian De Gong(2 of 4)\r\n", "Compose": 4, "Address": "778 Tampines Road, #01-02\r\n", "Postal_Cod": "518486\r\n" }, "geometry": { "type": "Point", "coordinates": [ 103.929196746350456, 1.367522861849063 ] } },
{ "type": "Feature", "properties": { "OBJECTID": 128, "Official_N": "Jiu Tiao Qiao Xin Ba Na Du Tan\r\n", "United_Tem": "Na Du Tan Bao An Gong Tian De Gong(3 of 4)\r\n", "Compose": 4, "Address": "778 Tampines Road, #01-01\r\n", "Postal_Cod": "518486\r\n" }, "geometry": { "type": "Point", "coordinates": [ 103.929244328890988, 1.367562040560248 ] } },
{ "type": "Feature", "properties": { "OBJECTID": 129, "Official_N": "Na Du Tan Bao An Gong Tian De Gong (Unied Temple)\r\n", "United_Tem": "Na Du Tan Bao An Gong Tian De Gong(4 of 4)\r\n", "Compose": 4, "Address": "778 Tampines Road, #01-01\r\n95 Tampines Link #01-03, S528745\r\n", "Postal_Cod": "518486\r\n" }, "geometry": { "type": "Point", "coordinates": [ 103.929282736751134, 1.367593666399467 ] } },
{ "type": "Feature", "properties": { "OBJECTID": 130, "Official_N": "Ci Ling Gong\r\n", "United_Tem": "Dan Bin ni Lian He Gong(2 of 13)\r\n", "Compose": 13, "Address": "25 Tampines Street 21\r\n", "Postal_Cod": "529394\r\n" }, "geometry": { "type": "Point", "coordinates": [ 103.949537186358029, 1.355706613838133 ] } },
{ "type": "Feature", "properties": { "OBJECTID": 131, "Official_N": "Dan Bin Ni Jiu Li Da bo Gong Miao aka\r\n    Dan Bin Ni Jiu Li Fu De Zheng Shen Miao \r\n", "United_Tem": "Dan Bin ni Lian He Gong(3 of 13)\r\n", "Compose": 13, "Address": "25 Tampines Street 21\r\n", "Postal_Cod": "529394\r\n" }, "geometry": { "type": "Point", "coordinates": [ 103.949662304099931, 1.355706515547414 ] } },
{ "type": "Feature", "properties": { "OBJECTID": 132, "Official_N": "Di Wan Da Bo Gong\r\n", "United_Tem": "Dan Bin ni Lian He Gong(4 of 13)\r\n", "Compose": 13, "Address": "25 Tampines Street 21\r\n", "Postal_Cod": "529394\r\n" }, "geometry": { "type": "Point", "coordinates": [ 103.949806721484123, 1.355712718818415 ] } },
{ "type": "Feature", "properties": { "OBJECTID": 133, "Official_N": "Fu An Dian\r\n", "United_Tem": "Dan Bin ni Lian He Gong(5 of 13)\r\n", "Compose": 13, "Address": "25 Tampines Street 21\r\n", "Postal_Cod": "529394\r\n" }, "geometry": { "type": "Point", "coordinates": [ 103.949852514199478, 1.355790710633172 ] } },
{ "type": "Feature", "properties": { "OBJECTID": 134, "Official_N": "Han Yang Da Bo Gong\r\n", "United_Tem": "Dan Bin ni Lian He Gong(6 of 13)\r\n", "Compose": 13, "Address": "25 Tampines Street 21\r\n", "Postal_Cod": "529394\r\n" }, "geometry": { "type": "Point", "coordinates": [ 103.949842652221747, 1.355841961334299 ] } },
{ "type": "Feature", "properties": { "OBJECTID": 135, "Official_N": "Hou Chi Tin aka Pu An Gu Fo \r\n", "United_Tem": "Dan Bin ni Lian He Gong(7 of 13)\r\n", "Compose": 13, "Address": "25 Tampines Street 21\r\n", "Postal_Cod": "529394\r\n" }, "geometry": { "type": "Point", "coordinates": [ 103.949852865537324, 1.355922259187146 ] } },
{ "type": "Feature", "properties": { "OBJECTID": 136, "Official_N": "Kiat Sing Ting\r\n", "United_Tem": "Dan Bin ni Lian He Gong(8 of 13)\r\n", "Compose": 13, "Address": "25 Tampines Street 21\r\n", "Postal_Cod": "529394\r\n" }, "geometry": { "type": "Point", "coordinates": [ 103.949727396721499, 1.355928105633842 ] } },
{ "type": "Feature", "properties": { "OBJECTID": 137, "Official_N": "Ji Yang Tang\r\n", "United_Tem": "Dan Bin ni Lian He Gong(9 of 13)\r\n", "Compose": 13, "Address": "25 Tampines Street 21\r\n", "Postal_Cod": "529394\r\n" }, "geometry": { "type": "Point", "coordinates": [ 103.949622279190876, 1.355928189396809 ] } },
{ "type": "Feature", "properties": { "OBJECTID": 138, "Official_N": "Luo Yang Da Bo Gong\r\n", "United_Tem": "Dan Bin ni Lian He Gong(10 of 13)\r\n", "Compose": 13, "Address": "25 Tampines Street 21\r\n", "Postal_Cod": "529394\r\n" }, "geometry": { "type": "Point", "coordinates": [ 103.94950715346161, 1.355928280873351 ] } },
{ "type": "Feature", "properties": { "OBJECTID": 139, "Official_N": "Luo Yang Tian Gong Tan\r\n", "United_Tem": "Dan Bin ni Lian He Gong(11 of 13)\r\n", "Compose": 13, "Address": "25 Tampines Street 21\r\n", "Postal_Cod": "529394\r\n" }, "geometry": { "type": "Point", "coordinates": [ 103.949437304966338, 1.355918414032687 ] } },
{ "type": "Feature", "properties": { "OBJECTID": 140, "Official_N": "Shun Xing Gu Miao\r\n", "United_Tem": "Dan Bin ni Lian He Gong(12 of 13)\r\n", "Compose": 13, "Address": "25 Tampines Street 21\r\n", "Postal_Cod": "529394\r\n" }, "geometry": { "type": "Point", "coordinates": [ 103.94935555816825, 1.355918475855637 ] } },
{ "type": "Feature", "properties": { "OBJECTID": 141, "Official_N": "Xin Ba Da Bo Gong\r\n", "United_Tem": "Dan Bin ni Lian He Gong(13 of 13)\r\n", "Compose": 13, "Address": "25 Tampines Street 21\r\n", "Postal_Cod": "529394\r\n" }, "geometry": { "type": "Point", "coordinates": [ 103.949401396626385, 1.355787368209102 ] } },
{ "type": "Feature", "properties": { "OBJECTID": 142, "Official_N": "Kancanrama Budh Temple\r\n", "United_Tem": "Jin Bao Fo Si / Tian Gong Wu Lao Sheng Dian(2 of 3)\r\n", "Compose": 3, "Address": "2 Lorong Ong Lye\r\n", "Postal_Cod": "536358\r\n" }, "geometry": { "type": "Point", "coordinates": [ 103.879730040390839, 1.348698789492941 ] } },
{ "type": "Feature", "properties": { "OBJECTID": 143, "Official_N": "Tian Gong Wu Lao Sheng Dian\r\n", "United_Tem": "Jin Bao Fo Si / Tian Gong Wu Lao Sheng Dian(3 of 3)\r\n", "Compose": 3, "Address": "2 Lorong Ong Lye\r\n", "Postal_Cod": "536358\r\n" }, "geometry": { "type": "Point", "coordinates": [ 103.879717019901207, 1.348824133709199 ] } },
{ "type": "Feature", "properties": { "OBJECTID": 144, "Official_N": "An Ren Gong \r\n", "United_Tem": "Qing Yun Lian He Miao (2 of 4)\r\n", "Compose": 4, "Address": "18 Hougang Street 11\r\n", "Postal_Cod": "538747\r\n" }, "geometry": { "type": "Point", "coordinates": [ 103.880481110111532, 1.352903636756528 ] } },
{ "type": "Feature", "properties": { "OBJECTID": 145, "Official_N": "Chin Fook Meow\r\n", "United_Tem": "Qing Yun Lian He Miao (3 of 4)", "Compose": 4, "Address": "20 Hougang Street 11\r\n", "Postal_Cod": "538748\r\n" }, "geometry": { "type": "Point", "coordinates": [ 103.880590610215222, 1.352915095619213 ] } },
{ "type": "Feature", "properties": { "OBJECTID": 146, "Official_N": "Qing Yun Temple\r\n", "United_Tem": "Qing Yun Lian He Miao (4 of 4)", "Compose": 4, "Address": "20 Hougang Street 11", "Postal_Cod": "538748\r\n" }, "geometry": { "type": "Point", "coordinates": [ 103.880571482484086, 1.353100726674535 ] } },
{ "type": "Feature", "properties": { "OBJECTID": 147, "Official_N": "Bao De Shan Tang\r\n", "United_Tem": "Tian De Sheng Miao(2 of 5)\r\n", "Compose": 5, "Address": "109 / a / b / c Hougang Avenue 5\r\n", "Postal_Cod": "538817\r\n" }, "geometry": { "type": "Point", "coordinates": [ 103.895726967217243, 1.365574141209609 ] } },
{ "type": "Feature", "properties": { "OBJECTID": 148, "Official_N": "Chang Tian Gong\r\n", "United_Tem": "Tian De Sheng Miao(3 of 5)\r\n", "Compose": 5, "Address": "109 / a / b / c Hougang Avenue 5\r\n", "Postal_Cod": "538817\r\n" }, "geometry": { "type": "Point", "coordinates": [ 103.895720771556114, 1.365712254903529 ] } },
{ "type": "Feature", "properties": { "OBJECTID": 149, "Official_N": "Hou Gang Shui Wei Sheng Niang Miao\r\n", "United_Tem": "Tian De Sheng Miao(4 of 5)\r\n", "Compose": 5, "Address": "109 / a / b / c Hougang Avenue 5\r\n", "Postal_Cod": "538817\r\n" }, "geometry": { "type": "Point", "coordinates": [ 103.895569081375342, 1.36570560997821 ] } },
{ "type": "Feature", "properties": { "OBJECTID": 150, "Official_N": "Zhong Tou Gong\r\n", "United_Tem": "Tian De Sheng Miao(5 of 5)\r\n", "Compose": 5, "Address": "109 / a / b / c Hougang Avenue 5\r\n", "Postal_Cod": "538817\r\n" }, "geometry": { "type": "Point", "coordinates": [ 103.895400656241023, 1.36569826278754 ] } },
{ "type": "Feature", "properties": { "OBJECTID": 151, "Official_N": "Chao Yun Gong\r\n", "United_Tem": "Zi Yun Kai Ji Gong(2 of 4)\r\n", "Compose": 4, "Address": "56 / 58 / 60 Hougang Avenue 3\r\n", "Postal_Cod": "538842\r\n" }, "geometry": { "type": "Point", "coordinates": [ 103.892454545762973, 1.358595407689752 ] } },
{ "type": "Feature", "properties": { "OBJECTID": 152, "Official_N": "Ji Shan Miao\r\n", "United_Tem": "Zi Yun Kai Ji Gong(3 of 4)\r\n", "Compose": 4, "Address": "56 / 58 / 60 Hougang Avenue 3\r\n", "Postal_Cod": "538842\r\n" }, "geometry": { "type": "Point", "coordinates": [ 103.892522300208512, 1.358775700004791 ] } },
{ "type": "Feature", "properties": { "OBJECTID": 153, "Official_N": "Kai Fu Tang\r\n", "United_Tem": "Zi Yun Kai Ji Gong(4 of 4)\r\n", "Compose": 4, "Address": "56 / 58 / 60 Hougang Avenue 3\r\n", "Postal_Cod": "538842\r\n" }, "geometry": { "type": "Point", "coordinates": [ 103.892594209902555, 1.35896704987185 ] } },
{ "type": "Feature", "properties": { "OBJECTID": 154, "Official_N": "Ci Ji Tang\r\n", "United_Tem": "Peng Lai Si(2 of 9)\r\n", "Compose": 9, "Address": "150 Hougang Avenue 1\r\n", "Postal_Cod": "538886\r\n" }, "geometry": { "type": "Point", "coordinates": [ 103.887251157563455, 1.349050857090802 ] } },
{ "type": "Feature", "properties": { "OBJECTID": 155, "Official_N": "Ming Shan Gong\r\n", "United_Tem": "Peng Lai Si(3 of 9)\r\n", "Compose": 9, "Address": "150 Hougang Avenue 1\r\n", "Postal_Cod": "538886\r\n" }, "geometry": { "type": "Point", "coordinates": [ 103.887332497308947, 1.349054974653927 ] } },
{ "type": "Feature", "properties": { "OBJECTID": 156, "Official_N": "Peng Lai Qing Shui Yan\r\n", "United_Tem": "Peng Lai Si(4 of 9)\r\n", "Compose": 9, "Address": "150 Hougang Avenue 1\r\n", "Postal_Cod": "538886\r\n" }, "geometry": { "type": "Point", "coordinates": [ 103.887378748281421, 1.349103616649135 ] } },
{ "type": "Feature", "properties": { "OBJECTID": 157, "Official_N": "Pu An Gong\r\n", "United_Tem": "Peng Lai Si(5 of 9)\r\n", "Compose": 9, "Address": "150 Hougang Avenue 1\r\n", "Postal_Cod": "538886\r\n" }, "geometry": { "type": "Point", "coordinates": [ 103.887374882391782, 1.349172617902927 ] } },
{ "type": "Feature", "properties": { "OBJECTID": 158, "Official_N": "Shui Kou Gong\r\n", "United_Tem": "Peng Lai Si(6 of 9)\r\n", "Compose": 9, "Address": "150 Hougang Avenue 1\r\n", "Postal_Cod": "538886\r\n" }, "geometry": { "type": "Point", "coordinates": [ 103.88737047398385, 1.34925129405527 ] } },
{ "type": "Feature", "properties": { "OBJECTID": 159, "Official_N": "Xiang Fu Ting\r\n", "United_Tem": "Peng Lai Si(7 of 9)\r\n", "Compose": 9, "Address": "150 Hougang Avenue 1\r\n", "Postal_Cod": "538886\r\n" }, "geometry": { "type": "Point", "coordinates": [ 103.887320653182783, 1.349291536654914 ] } },
{ "type": "Feature", "properties": { "OBJECTID": 160, "Official_N": "Zhong Ting Miao\r\n", "United_Tem": "Peng Lai Si(8 of 9)\r\n", "Compose": 9, "Address": "150 Hougang Avenue 1\r\n", "Postal_Cod": "538886\r\n" }, "geometry": { "type": "Point", "coordinates": [ 103.88723453666644, 1.349287171402489 ] } },
{ "type": "Feature", "properties": { "OBJECTID": 161, "Official_N": "Zhou Shan Miao\r\n", "United_Tem": "Peng Lai Si(9 of 9)\r\n", "Compose": 9, "Address": "150 Hougang Avenue 1\r\n", "Postal_Cod": "538886\r\n" }, "geometry": { "type": "Point", "coordinates": [ 103.887159091490005, 1.349283401885339 ] } },
{ "type": "Feature", "properties": { "OBJECTID": 162, "Official_N": "Kampong Tengah Thian Hou Keng\r\n", "United_Tem": "Sheng Gang Lian He Miao(2 of 3)\r\n", "Compose": 3, "Address": "80 Rivervale Crescent, #01-01\r\n", "Postal_Cod": "545087\r\n" }, "geometry": { "type": "Point", "coordinates": [ 103.907058213421209, 1.389287104148395 ] } },
{ "type": "Feature", "properties": { "OBJECTID": 163, "Official_N": "Chong Ghee Temple\r\n", "United_Tem": "Sheng Gang Lian He Miao(3 of 3)\r\n", "Compose": 3, "Address": "80 Rivervale Crescent, #01-01\r\n", "Postal_Cod": "545087\r\n" }, "geometry": { "type": "Point", "coordinates": [ 103.907207516770669, 1.389181122537055 ] } },
{ "type": "Feature", "properties": { "OBJECTID": 164, "Official_N": "Long Xu Yan \r\n", "United_Tem": "Long Xu Yan / Tian Yang Guan / Xiang Yun Guan (2 of 4 )\r\n", "Compose": 4, "Address": "87 Kovan Road\r\n", "Postal_Cod": "548176\r\n" }, "geometry": { "type": "Point", "coordinates": [ 103.878229439147589, 1.35517954642575 ] } },
{ "type": "Feature", "properties": { "OBJECTID": 165, "Official_N": "Tian Yang Guan\r\n", "United_Tem": "Long Xu Yan / Tian Yang Guan / Xiang Yun Guan (3 of 4 )\r\n", "Compose": 4, "Address": "87 Kovan Road\r\n", "Postal_Cod": "548176\r\n" }, "geometry": { "type": "Point", "coordinates": [ 103.878230023398729, 1.355189545968953 ] } },
{ "type": "Feature", "properties": { "OBJECTID": 166, "Official_N": "Xiang Yun Guan\r\n", "United_Tem": "Long Xu Yan / Tian Yang Guan / Xiang Yun Guan (4 of 4 )\r\n", "Compose": 4, "Address": "87 Kovan Road\r\n", "Postal_Cod": "548176\r\n" }, "geometry": { "type": "Point", "coordinates": [ 103.878230608537635, 1.355198957675383 ] } },
{ "type": "Feature", "properties": { "OBJECTID": 167, "Official_N": "Kong Beng Tong Temple Association\r\n", "United_Tem": "Zhong Yi Tian Ming Miao(2 of 6)\r\n", "Compose": 6, "Address": "25 Serangoon North Avenue 3\r\n", "Postal_Cod": "555862\r\n" }, "geometry": { "type": "Point", "coordinates": [ 103.869896496885744, 1.373036435247196 ] } },
{ "type": "Feature", "properties": { "OBJECTID": 168, "Official_N": "Lian Tian Tang\r\n", "United_Tem": "Zhong Yi Tian Ming Miao(3 of 6)\r\n", "Compose": 6, "Address": "25 Serangoon North Avenue 3\r\n", "Postal_Cod": "555862\r\n" }, "geometry": { "type": "Point", "coordinates": [ 103.869901599963214, 1.373042399449757 ] } },
{ "type": "Feature", "properties": { "OBJECTID": 169, "Official_N": "Long Tian Miao\r\n", "United_Tem": "Zhong Yi Tian Ming Miao(4 of 6)\r\n", "Compose": 6, "Address": "25 Serangoon North Avenue 3\r\n", "Postal_Cod": "555862\r\n" }, "geometry": { "type": "Point", "coordinates": [ 103.869901847187734, 1.373050126332627 ] } },
{ "type": "Feature", "properties": { "OBJECTID": 170, "Official_N": "Wu Feng Yan\r\n", "United_Tem": "Zhong Yi Tian Ming Miao(5 of 6)\r\n", "Compose": 6, "Address": "25 Serangoon North Avenue 3\r\n", "Postal_Cod": "555862\r\n" }, "geometry": { "type": "Point", "coordinates": [ 103.869897094734071, 1.373056072599572 ] } },
{ "type": "Feature", "properties": { "OBJECTID": 171, "Official_N": "Tiong Gee Kwan Temple\r\n", "United_Tem": "Zhong Yi Tian Ming Miao(6 of 6)\r\n", "Compose": 6, "Address": "25 Serangoon North Avenue 3\r\n", "Postal_Cod": "555862\r\n" }, "geometry": { "type": "Point", "coordinates": [ 103.869890766104163, 1.373056622550348 ] } },
{ "type": "Feature", "properties": { "OBJECTID": 172, "Official_N": "Long Shan Miao\r\n", "United_Tem": "Xuan Fu Xian Miao(2 of 4)\r\n", "Compose": 4, "Address": "485 Serangoon North Avenue 1\r\n", "Postal_Cod": "555890\r\n" }, "geometry": { "type": "Point", "coordinates": [ 103.872878787047483, 1.368881120392804 ] } },
{ "type": "Feature", "properties": { "OBJECTID": 173, "Official_N": "Qi Zhai Miao (Jing Shan Lu)\r\n", "United_Tem": "Xuan Fu Xian Miao(3 of 4)\r\n", "Compose": 4, "Address": "485 Serangoon North Avenue 1\r\n", "Postal_Cod": "555890\r\n" }, "geometry": { "type": "Point", "coordinates": [ 103.872861666717057, 1.368943311081374 ] } },
{ "type": "Feature", "properties": { "OBJECTID": 174, "Official_N": "Shun Xing Gu Miao\r\n", "United_Tem": "Xuan Fu Xian Miao(4 of 4)\r\n", "Compose": 4, "Address": "485 Serangoon North Avenue 1\r\n", "Postal_Cod": "555890\r\n" }, "geometry": { "type": "Point", "coordinates": [ 103.872935179947945, 1.368963766576186 ] } },
{ "type": "Feature", "properties": { "OBJECTID": 175, "Official_N": "An Shan Miao\r\n", "United_Tem": "Zhen Shan Tian Fo Gong (2 of 6)\r\n", "Compose": 6, "Address": "489 Serangoon North Avenue 1\r\n", "Postal_Cod": "555891\r\n" }, "geometry": { "type": "Point", "coordinates": [ 103.87262751337768, 1.368862201635312 ] } },
{ "type": "Feature", "properties": { "OBJECTID": 176, "Official_N": "Ji Long Shan Miao\r\n", "United_Tem": "Zhen Shan Tian Fo Gong (3 of 6)", "Compose": 6, "Address": "489 Serangoon North Avenue 1\r\n", "Postal_Cod": "555891\r\n" }, "geometry": { "type": "Point", "coordinates": [ 103.872718012336563, 1.368886787087586 ] } },
{ "type": "Feature", "properties": { "OBJECTID": 177, "Official_N": "Long Zhen Gong\r\n", "United_Tem": "Zhen Shan Tian Fo Gong (4 of 6)", "Compose": 6, "Address": "489 Serangoon North Avenue 1\r\n", "Postal_Cod": "555891\r\n" }, "geometry": { "type": "Point", "coordinates": [ 103.87270292716363, 1.36894291307599 ] } },
{ "type": "Feature", "properties": { "OBJECTID": 178, "Official_N": "Shi Zhu Miao\r\n", "United_Tem": "Zhen Shan Tian Fo Gong (5 of 6)", "Compose": 6, "Address": "489 Serangoon North Avenue 1\r\n", "Postal_Cod": "555891\r\n" }, "geometry": { "type": "Point", "coordinates": [ 103.872610029909325, 1.368917674711874 ] } },
{ "type": "Feature", "properties": { "OBJECTID": 179, "Official_N": "Wan Fu Gong\r\n", "United_Tem": "Zhen Shan Tian Fo Gong (6 of 6)", "Compose": 6, "Address": "489 Serangoon North Avenue 1\r\n", "Postal_Cod": "555891\r\n" }, "geometry": { "type": "Point", "coordinates": [ 103.872519220043756, 1.368893004250406 ] } },
{ "type": "Feature", "properties": { "OBJECTID": 180, "Official_N": "Feng Shan Tang\r\nFeng Shan Tang / Jin Fa Dian / Quan Sheng Gong\r\n", "United_Tem": "Liu Xun San He Miao(2 of 6)\r\n\r\n", "Compose": 6, "Address": "4 \\ 6 \\ 8 Ang Mo Kio St 63\r\n", "Postal_Cod": "569112\r\n" }, "geometry": { "type": "Point", "coordinates": [ 103.848699566737722, 1.385425867468829 ] } },
{ "type": "Feature", "properties": { "OBJECTID": 181, "Official_N": "Jin Fa Dian\r\n\r\n", "United_Tem": "Liu Xun San He Miao(3 of 6)\r\n", "Compose": 6, "Address": "4 \\ 6 \\ 8 Ang Mo Kio St 63\r\n\r\n", "Postal_Cod": "569112\r\n" }, "geometry": { "type": "Point", "coordinates": [ 103.848786984677204, 1.385419161941031 ] } },
{ "type": "Feature", "properties": { "OBJECTID": 182, "Official_N": "San An Fu\r\n", "United_Tem": "Liu Xun San He Miao(6 of 6)\r\n\r\n", "Compose": 6, "Address": "4 \\ 6 \\ 8 Ang Mo Kio St 63\r\n\r\n", "Postal_Cod": "569112\r\n555891\r\n" }, "geometry": { "type": "Point", "coordinates": [ 103.848835192162227, 1.385660572586124 ] } },
{ "type": "Feature", "properties": { "OBJECTID": 183, "Official_N": "Long Xu Yan Jin Shui Guan\r\n\r\n\r\n", "United_Tem": "Liu Xun San He Miao(4 of 6)\r\n\r\n", "Compose": 6, "Address": "4 \\ 6 \\ 8 Ang Mo Kio St 63\r\n\r\n", "Postal_Cod": "569112\r\n" }, "geometry": { "type": "Point", "coordinates": [ 103.848751347019615, 1.38567754443409 ] } },
{ "type": "Feature", "properties": { "OBJECTID": 184, "Official_N": "Quan Sheng Gong\r\n\r\n", "United_Tem": "Liu Xun San He Miao(5 of 6)\r\n\r\n", "Compose": 6, "Address": "4 \\ 6 \\ 8 Ang Mo Kio St 63\r\n", "Postal_Cod": "569112\r\n" }, "geometry": { "type": "Point", "coordinates": [ 103.848642662556685, 1.385698379884283 ] } },
{ "type": "Feature", "properties": { "OBJECTID": 185, "Official_N": "Ge An Guan\r\n", "United_Tem": "Shui Gou Ge An Guan (2 of 3 )\r\n", "Compose": 3, "Address": "46 Ang Mo Kio Street 61\r\n", "Postal_Cod": "569161\r\n" }, "geometry": { "type": "Point", "coordinates": [ 103.841770312948668, 1.380746248357873 ] } },
{ "type": "Feature", "properties": { "OBJECTID": 186, "Official_N": "Shui Gou Guan\r\n", "United_Tem": "Shui Gou Ge An Guan (3 of 3 )\r\n", "Compose": 3, "Address": "46 Ang Mo Kio Street 61\r\n", "Postal_Cod": "569161\r\n569161\r\n" }, "geometry": { "type": "Point", "coordinates": [ 103.841692586787715, 1.380897308202942 ] } },
{ "type": "Feature", "properties": { "OBJECTID": 187, "Official_N": "Hua Tang Fu \r\n", "United_Tem": "Ju Sheng Miao(2 of 4)\r\n", "Compose": 4, "Address": "48 Ang Mo Kio Street 61\r\n", "Postal_Cod": "569162\r\n" }, "geometry": { "type": "Point", "coordinates": [ 103.841631635713924, 1.380935548553384 ] } },
{ "type": "Feature", "properties": { "OBJECTID": 188, "Official_N": "Ji Fu Gong", "United_Tem": "Ju Sheng Miao(3 of 4)\r\n", "Compose": 4, "Address": "48 Ang Mo Kio Street 61\r\n", "Postal_Cod": "569162\r\n" }, "geometry": { "type": "Point", "coordinates": [ 103.841609226310723, 1.380977876493702 ] } },
{ "type": "Feature", "properties": { "OBJECTID": 189, "Official_N": "Long Quan Yan\r\n", "United_Tem": "Ju Sheng Miao(4 of 4)\r\n", "Compose": 4, "Address": "48 Ang Mo Kio Street 61\r\n", "Postal_Cod": "569162\r\n" }, "geometry": { "type": "Point", "coordinates": [ 103.841593329725413, 1.381005848533831 ] } },
{ "type": "Feature", "properties": { "OBJECTID": 190, "Official_N": "Yun Feng Gu Miao / He Xing Guang Miao\r\n", "United_Tem": "Bo Dong Ba Xi Lian He Miao (2 of 6)\r\n", "Compose": 6, "Address": "8 Ang Mo Kio Avenue 10 / Street 44\r\n", "Postal_Cod": "569731\r\n" }, "geometry": { "type": "Point", "coordinates": [ 103.855637538280121, 1.364355834019577 ] } },
{ "type": "Feature", "properties": { "OBJECTID": 191, "Official_N": "San Zun Gong\r\n", "United_Tem": "Bo Dong Ba Xi Lian He Miao (3 of 6)\r\n", "Compose": 6, "Address": "8 Ang Mo Kio Avenue 10 / Street 44\r\n", "Postal_Cod": "569731\r\n" }, "geometry": { "type": "Point", "coordinates": [ 103.855636980269253, 1.364355834024783 ] } },
{ "type": "Feature", "properties": { "OBJECTID": 192, "Official_N": "Tian Sing Sze Temple \r\n", "United_Tem": "Bo Dong Ba Xi Lian He Miao (4 of 6)\r\n", "Compose": 6, "Address": "8 Ang Mo Kio Avenue 10 / Street 44\r\n", "Postal_Cod": "569731\r\n" }, "geometry": { "type": "Point", "coordinates": [ 103.855636292864517, 1.364355834031195 ] } },
{ "type": "Feature", "properties": { "OBJECTID": 193, "Official_N": "Yun Feng Gu Miao / He Xing Guang Miao\r\n", "United_Tem": "Bo Dong Ba Xi Lian He Miao (5 of 6)\r\n", "Compose": 6, "Address": "8 Ang Mo Kio Avenue 10 / Street 44\r\n", "Postal_Cod": "569731\r\n" }, "geometry": { "type": "Point", "coordinates": [ 103.855636378221732, 1.364355098782241 ] } },
{ "type": "Feature", "properties": { "OBJECTID": 194, "Official_N": "Hoon Hong Tian Haw Boo\r\n", "United_Tem": "Bo Dong Ba Xi Lian He Miao (6 of 6)\r\n", "Compose": 6, "Address": "8 Ang Mo Kio Avenue 10 / Street 44\r\n", "Postal_Cod": "569731\r\n" }, "geometry": { "type": "Point", "coordinates": [ 103.855636937131578, 1.364355142186522 ] } },
{ "type": "Feature", "properties": { "OBJECTID": 195, "Official_N": "Kong Lim Kong Temple\r\n", "United_Tem": "Hong Mao Qiao Lian He Miao (2 of 4 )\r\n", "Compose": 4, "Address": "791 Ang Mo Kio Ave 1\r\n", "Postal_Cod": "569974\r\n" }, "geometry": { "type": "Point", "coordinates": [ 103.838790349261728, 1.366216313229441 ] } },
{ "type": "Feature", "properties": { "OBJECTID": 196, "Official_N": "Jin Ying Tang\r\n", "United_Tem": "Hong Mao Qiao Lian He Miao (3 of 4 )\r\n", "Compose": 4, "Address": "791 Ang Mo Kio Ave 1\r\n", "Postal_Cod": "569974\r\n" }, "geometry": { "type": "Point", "coordinates": [ 103.838835464931279, 1.366355420635329 ] } },
{ "type": "Feature", "properties": { "OBJECTID": 197, "Official_N": "Long Shan Yan\r\n", "United_Tem": "Hong Mao Qiao Lian He Miao (4 of 4 )\r\n", "Compose": 4, "Address": "791 Ang Mo Kio Ave 1\r\n", "Postal_Cod": "569974\r\n" }, "geometry": { "type": "Point", "coordinates": [ 103.83867690804189, 1.366407509666591 ] } },
{ "type": "Feature", "properties": { "OBJECTID": 198, "Official_N": "Thiam Hock Keng Temple\r\n\r\n", "United_Tem": "Tian Long Gong (2 of 4)\r\n", "Compose": 4, "Address": "101 Sin Min Industrial Estate, Sin Ming Rd\r\n\r\n", "Postal_Cod": "575592\r\n\r\n" }, "geometry": { "type": "Point", "coordinates": [ 103.840512380885855, 1.357575087507975 ] } },
{ "type": "Feature", "properties": { "OBJECTID": 199, "Official_N": "Tian Gong Tan Temple\r\n", "United_Tem": "Tian Long Gong (3 of 4)\r\n\r\n", "Compose": 4, "Address": "101A Sin Min Industrial Estate, Sin Ming Rd\r\n\r\n", "Postal_Cod": "575593\r\n\r\n" }, "geometry": { "type": "Point", "coordinates": [ 103.840512380903121, 1.357580938745464 ] } },
{ "type": "Feature", "properties": { "OBJECTID": 200, "Official_N": "Hoo Leong Keong Temple\r\n\r\n", "United_Tem": "Tian Long Gong (4 of 4)\r\n", "Compose": 4, "Address": "101B Sin Min Industrial Estate, \r\nSin Ming Road\r\n\r\n", "Postal_Cod": "575594\r\n\r\n" }, "geometry": { "type": "Point", "coordinates": [ 103.840506567180981, 1.35758048838936 ] } },
{ "type": "Feature", "properties": { "OBJECTID": 201, "Official_N": "Hua Guang Da Di\r\n", "United_Tem": "Tang Shen Miao(2 of 4)\r\n", "Compose": 4, "Address": "99 Sector B Sin Ming Industrial Estate\r\n", "Postal_Cod": "575660\r\n" }, "geometry": { "type": "Point", "coordinates": [ 103.840433228659066, 1.357793907746573 ] } },
{ "type": "Feature", "properties": { "OBJECTID": 202, "Official_N": "Jin Bang Shan Ting Tian Hou Gong\r\n", "United_Tem": "Tang Shen Miao(3 of 4)\r\n", "Compose": 4, "Address": "99 Sector B Sin Ming Industrial Estate\r\n", "Postal_Cod": "575660\r\n" }, "geometry": { "type": "Point", "coordinates": [ 103.840496078206456, 1.357880434429886 ] } },
{ "type": "Feature", "properties": { "OBJECTID": 203, "Official_N": "Lian Hua Tan\r\n", "United_Tem": "Tang Shen Miao(4 of 4)\r\n", "Compose": 4, "Address": "99 Sector B Sin Ming Industrial Estate\r\n", "Postal_Cod": "575660\r\n" }, "geometry": { "type": "Point", "coordinates": [ 103.840530734302362, 1.357949866900809 ] } },
{ "type": "Feature", "properties": { "OBJECTID": 204, "Official_N": "Sheng Hong Temple (Yang Tao Yuan)\r\n", "United_Tem": "Cheng Huang Miao (Yang Tao Yuan )(2 of 3)\r\n", "Compose": 3, "Address": "300 Pandan Gardens\r\n", "Postal_Cod": "609341\r\n" }, "geometry": { "type": "Point", "coordinates": [ 103.750757177763049, 1.320853399173339 ] } },
{ "type": "Feature", "properties": { "OBJECTID": 205, "Official_N": "Sheng Hong Temple Wan Shou Si  (Yang Tao Yuan)\r\n", "United_Tem": "Cheng Huang Miao (Yang Tao Yuan )(3 of 3)\r\n", "Compose": 3, "Address": "300 Pandan Gardens\r\n", "Postal_Cod": "609341\r\n" }, "geometry": { "type": "Point", "coordinates": [ 103.750770814835818, 1.320996899540467 ] } },
{ "type": "Feature", "properties": { "OBJECTID": 206, "Official_N": "Ci Shan Tan\r\nCi Shan Tan\r\n\r\nCi Shan Tan\r\n", "United_Tem": "Yu Huang Dian Lian He Gong (2 of 4 )\r\n", "Compose": 4, "Address": "12 Jurong West Street 76\r\n", "Postal_Cod": "648349\r\n" }, "geometry": { "type": "Point", "coordinates": [ 103.703477282362769, 1.347465391946657 ] } },
{ "type": "Feature", "properties": { "OBJECTID": 207, "Official_N": "Fuan Miao\r\n", "United_Tem": "Yu Huang Dian Lian He Gong (3 of 4 )\r\n", "Compose": 4, "Address": "12 Jurong West Street 76\r\n", "Postal_Cod": "648349\r\n" }, "geometry": { "type": "Point", "coordinates": [ 103.703501239688805, 1.347415888449107 ] } },
{ "type": "Feature", "properties": { "OBJECTID": 208, "Official_N": "Yu Huang Dian\r\n", "United_Tem": "Yu Huang Dian Lian He Gong (4 of 4 )\r\n", "Compose": 4, "Address": "12 Jurong West Street 76\r\n", "Postal_Cod": "648349\r\n" }, "geometry": { "type": "Point", "coordinates": [ 103.703580525646927, 1.347454761279511 ] } },
{ "type": "Feature", "properties": { "OBJECTID": 209, "Official_N": "Dou Tian Gong Temple \r\n", "United_Tem": "Dou Tian Gong (United Temple)(2 of 3)\r\n", "Compose": 3, "Address": "2 Jurong West Street 76\r\n", "Postal_Cod": "648370\r\n" }, "geometry": { "type": "Point", "coordinates": [ 103.703707657244479, 1.346830091705325 ] } },
{ "type": "Feature", "properties": { "OBJECTID": 210, "Official_N": "Shui Lang Tou Da Bo Gong Gong\r\n", "United_Tem": "Dou Tian Gong (United Temple)(3 of 3)\r\n", "Compose": 3, "Address": "2 Jurong West Street 76\r\n", "Postal_Cod": "648370\r\n" }, "geometry": { "type": "Point", "coordinates": [ 103.703804043218312, 1.346877627422755 ] } },
{ "type": "Feature", "properties": { "OBJECTID": 211, "Official_N": "Ling Jing Gong (Jurong Temple)\r\n", "United_Tem": "Yu Lang Zong Gong (Lian He Gong) (2 of 4)\r\n", "Compose": 4, "Address": "741 Jurong West Street 42, #01-01\r\n", "Postal_Cod": "649369\r\n" }, "geometry": { "type": "Point", "coordinates": [ 103.724341211514457, 1.352873231899319 ] } },
{ "type": "Feature", "properties": { "OBJECTID": 212, "Official_N": "Yu Lang Zong Gong (United Temple)\r\n", "United_Tem": "Yu Lang Zong Gong (Lian He Gong) (3 of 4)\r\n", "Compose": 4, "Address": "741 Jurong West Street 42, #01-01\r\n", "Postal_Cod": "649369\r\n" }, "geometry": { "type": "Point", "coordinates": [ 103.724421583467603, 1.353134391081433 ] } },
{ "type": "Feature", "properties": { "OBJECTID": 213, "Official_N": "Xi Shan Gong\r\n", "United_Tem": "Yu Lang Zong Gong (Lian He Gong) (4 of 4)\r\n", "Compose": 4, "Address": "741 Jurong West Street 42, #01-01\r\n", "Postal_Cod": "649369\r\n" }, "geometry": { "type": "Point", "coordinates": [ 103.724298451311483, 1.353041228915551 ] } },
{ "type": "Feature", "properties": { "OBJECTID": 214, "Official_N": "Sheng Leng Temple \r\n", "United_Tem": "Yu Lang Xi Lian He Gong(2 of 5)\r\n", "Compose": 5, "Address": "60 Jurong West Street 41\r\n", "Postal_Cod": "649407\r\n" }, "geometry": { "type": "Point", "coordinates": [ 103.720249095378747, 1.349319629841461 ] } },
{ "type": "Feature", "properties": { "OBJECTID": 215, "Official_N": "Xian Long Gong\r\n", "United_Tem": "Yu Lang Xi Lian He Gong(3 of 5)\r\n", "Compose": 5, "Address": "60 Jurong West Street 41\r\n", "Postal_Cod": "649407\r\n" }, "geometry": { "type": "Point", "coordinates": [ 103.720251571834481, 1.349396996374983 ] } },
{ "type": "Feature", "properties": { "OBJECTID": 216, "Official_N": "Xi Hai An Fu De Ci", "United_Tem": "Yu Lang Xi Lian He Gong(4 of 5)\r\n", "Compose": 5, "Address": "62 Jurong West Street 41\r\n", "Postal_Cod": "649408\r\n" }, "geometry": { "type": "Point", "coordinates": [ 103.720233086787857, 1.349452084762213 ] } },
{ "type": "Feature", "properties": { "OBJECTID": 217, "Official_N": "Tian Gong Tan Zhao Ling Gong\r\n", "United_Tem": "Yu Lang Xi Lian He Gong(5 of 5)\r\n", "Compose": 5, "Address": "62 Jurong West Street 41\r\n", "Postal_Cod": "649408\r\n" }, "geometry": { "type": "Point", "coordinates": [ 103.720211944808113, 1.34952417775609 ] } },
{ "type": "Feature", "properties": { "OBJECTID": 218, "Official_N": "Lin Jiang Dian / Dui Shan Miao / Ai Min Gong\r\n", "United_Tem": "Gui Lin Lian He Miao(2 of 7)\r\n", "Compose": 7, "Address": "397 Bukit Batok West Ave 8\r\n", "Postal_Cod": "658964\r\n" }, "geometry": { "type": "Point", "coordinates": [ 103.739954692008212, 1.347014187661416 ] } },
{ "type": "Feature", "properties": { "OBJECTID": 219, "Official_N": "Dui Shan Miao\r\n", "United_Tem": "Gui Lin Lian He Miao(3 of 7)\r\n", "Compose": 7, "Address": "397 Bukit Batok West Ave 8\r\n", "Postal_Cod": "658964\r\n" }, "geometry": { "type": "Point", "coordinates": [ 103.740010173439529, 1.34699585835698 ] } },
{ "type": "Feature", "properties": { "OBJECTID": 220, "Official_N": "Ji Sheng Gong\r\n", "United_Tem": "Gui Lin Lian He Miao(4 of 7)\r\n", "Compose": 7, "Address": "397 Bukit Batok West Ave 8\r\n", "Postal_Cod": "658964\r\n" }, "geometry": { "type": "Point", "coordinates": [ 103.740087384138363, 1.346970351052449 ] } },
{ "type": "Feature", "properties": { "OBJECTID": 221, "Official_N": "Jin Quan Fa Tan\r\n", "United_Tem": "Gui Lin Lian He Miao(5 of 7)\r\n", "Compose": 7, "Address": "397 Bukit Batok West Ave 8\r\n", "Postal_Cod": "658964\r\n" }, "geometry": { "type": "Point", "coordinates": [ 103.740109454739851, 1.347037257600083 ] } },
{ "type": "Feature", "properties": { "OBJECTID": 222, "Official_N": "Long Xian Shan Gong\r\n", "United_Tem": "Gui Lin Lian He Miao(6 of 7)\r\n", "Compose": 7, "Address": "397 Bukit Batok West Ave 8\r\n", "Postal_Cod": "658964\r\n" }, "geometry": { "type": "Point", "coordinates": [ 103.740138416509964, 1.34712505158655 ] } },
{ "type": "Feature", "properties": { "OBJECTID": 223, "Official_N": "Shi Zhu Miao\r\n", "United_Tem": "Gui Lin Lian He Miao(7 of 7)\r\n", "Compose": 7, "Address": "397 Bukit Batok West Ave 8\r\n", "Postal_Cod": "658964\r\n" }, "geometry": { "type": "Point", "coordinates": [ 103.740180426578291, 1.347252401114829 ] } },
{ "type": "Feature", "properties": { "OBJECTID": 224, "Official_N": "Poon Guan Hui Leng Sun Chong Tao Tong\r\n", "United_Tem": "Fu Tong Lian He Miao(2 of 4)\r\n", "Compose": 4, "Address": "553 Bukit Batok Street 23\r\n", "Postal_Cod": "659521\r\n" }, "geometry": { "type": "Point", "coordinates": [ 103.756988942928913, 1.340145739110331 ] } },
{ "type": "Feature", "properties": { "OBJECTID": 225, "Official_N": "Jurong Hong San See Association\r\n", "United_Tem": "Fu Tong Lian He Miao(3 of 4)\r\n", "Compose": 4, "Address": "555 Bukit Batok Street 23\r\n\r\n", "Postal_Cod": "659522\r\n" }, "geometry": { "type": "Point", "coordinates": [ 103.757029405712714, 1.340123474040384 ] } },
{ "type": "Feature", "properties": { "OBJECTID": 226, "Official_N": "Thian Ling Toh Thong\r\n", "United_Tem": "Fu Tong Lian He Miao(4 of 4)\r\n", "Compose": 4, "Address": "551 Bukit Batok Street 23\r\n", "Postal_Cod": "659522\r\n" }, "geometry": { "type": "Point", "coordinates": [ 103.757069357207229, 1.34010149201953 ] } },
{ "type": "Feature", "properties": { "OBJECTID": 227, "Official_N": "See Thian Foh Temple \r\n", "United_Tem": "Xi Tian Dao Miao 2 of 3)\r\n", "Compose": 3, "Address": "557 Bukit Batok Street 23\r\n", "Postal_Cod": "659523\r\n" }, "geometry": { "type": "Point", "coordinates": [ 103.757149284112955, 1.339981357038851 ] } },
{ "type": "Feature", "properties": { "OBJECTID": 228, "Official_N": "See Thian Foh Temple (Combined)\r\n", "United_Tem": "Xi Tian Dao Miao (3 of 3)\r\n", "Compose": 3, "Address": "557 Bukit Batok Street 23\r\n", "Postal_Cod": "659523\r\n" }, "geometry": { "type": "Point", "coordinates": [ 103.75719039301967, 1.339957039080563 ] } },
{ "type": "Feature", "properties": { "OBJECTID": 229, "Official_N": "Wu Lui Sien Sze Temple \r\n", "United_Tem": "Wu Lei Gong Dong Tian Gong(2 of 3)\r\n", "Compose": 3, "Address": "8 Bukit Batok Street 21\r\n", "Postal_Cod": "659631\r\n" }, "geometry": { "type": "Point", "coordinates": [ 103.750958575402763, 1.346236409284906 ] } },
{ "type": "Feature", "properties": { "OBJECTID": 230, "Official_N": "Tong Tien Kung Temple \r\n", "United_Tem": "Wu Lei Gong Dong Tian Gong(3 of 3)\r\n", "Compose": 3, "Address": "8 Bukit Batok Street 21\r\n", "Postal_Cod": "659631\r\n" }, "geometry": { "type": "Point", "coordinates": [ 103.751055989291714, 1.346235719852153 ] } },
{ "type": "Feature", "properties": { "OBJECTID": 231, "Official_N": "Ling Hong Tong Temple\r\n", "United_Tem": "Long Feng Dong Ji Yun Nan Da Bo Gong Miao(2 of 3)\r\n", "Compose": 3, "Address": "8 Bukit Batok Street 21\r\n", "Postal_Cod": "659632\r\n" }, "geometry": { "type": "Point", "coordinates": [ 103.75103021616529, 1.346012655904195 ] } },
{ "type": "Feature", "properties": { "OBJECTID": 232, "Official_N": "Hoon Lam Tua Peh Kong Temple\r\n", "United_Tem": "Long Feng Dong Ji Yun Nan Da Bo Gong Miao(3 of 3)\r\n", "Compose": 3, "Address": "8 Bukit Batok Street 21\r\n", "Postal_Cod": "659632\r\n" }, "geometry": { "type": "Point", "coordinates": [ 103.751027974358962, 1.346197193918856 ] } },
{ "type": "Feature", "properties": { "OBJECTID": 233, "Official_N": "Chi Hock Keng Temple\r\n", "United_Tem": "Qi Fu Gong(2 of 3)\r\n", "Compose": 3, "Address": "15 Fajar Road\r\n", "Postal_Cod": "679003\r\n" }, "geometry": { "type": "Point", "coordinates": [ 103.769495518968682, 1.383433932042128 ] } },
{ "type": "Feature", "properties": { "OBJECTID": 234, "Official_N": "Tian Wen Tan\r\n", "United_Tem": "Qi Fu Gong(3 of 3)\r\n", "Compose": 3, "Address": "15 Fajar Road\r\n", "Postal_Cod": "679003\r\n" }, "geometry": { "type": "Point", "coordinates": [ 103.769528894165362, 1.383488930010256 ] } },
{ "type": "Feature", "properties": { "OBJECTID": 235, "Official_N": "Cher Lian Tong Buddist Temple\r\n", "United_Tem": "Zheng Hua Ci Sheng Gong (2 of 3)\r\n", "Compose": 3, "Address": "23 Bangkit Road \r\n", "Postal_Cod": "679972\r\n" }, "geometry": { "type": "Point", "coordinates": [ 103.773710713400831, 1.378056005732937 ] } },
{ "type": "Feature", "properties": { "OBJECTID": 236, "Official_N": "Mu Shan Sheng Mu Gong\r\n", "United_Tem": "Zheng Hua Ci Sheng Gong (3 of 3)\r\n", "Compose": 3, "Address": "23 Bangkit Road \r\n", "Postal_Cod": "679972\r\n" }, "geometry": { "type": "Point", "coordinates": [ 103.773802510681151, 1.378057351927761 ] } },
{ "type": "Feature", "properties": { "OBJECTID": 237, "Official_N": "Choa Chu Kang Dou Mu Gong\r\n", "United_Tem": "Cao Cuo Gang Lian Sheng Gong(2 of 6)\r\n", "Compose": 6, "Address": "2 Teck Whye Lane \r\n", "Postal_Cod": "688799\r\n" }, "geometry": { "type": "Point", "coordinates": [ 103.753591631772892, 1.380935729313496 ] } },
{ "type": "Feature", "properties": { "OBJECTID": 238, "Official_N": "Chin Long Kong Temple\r\n", "United_Tem": "Cao Cuo Gang Lian Sheng Gong(3 of 6)\r\n", "Compose": 6, "Address": "2 Teck Whye Lane \r\n", "Postal_Cod": "688799\r\n" }, "geometry": { "type": "Point", "coordinates": [ 103.753655060091958, 1.380914665214547 ] } },
{ "type": "Feature", "properties": { "OBJECTID": 239, "Official_N": "San Zhong Gong\r\n", "United_Tem": "Cao Cuo Gang Lian Sheng Gong(4 of 6)\r\n", "Compose": 6, "Address": "2 Teck Whye Lane \r\n", "Postal_Cod": "688799\r\n" }, "geometry": { "type": "Point", "coordinates": [ 103.753679842033506, 1.380990258163066 ] } },
{ "type": "Feature", "properties": { "OBJECTID": 240, "Official_N": "Tian Yun Dian\r\n", "United_Tem": "Cao Cuo Gang Lian Sheng Gong(6 of 6)\r\n", "Compose": 6, "Address": "2 Teck Whye Lane \r\n", "Postal_Cod": "688799\r\n" }, "geometry": { "type": "Point", "coordinates": [ 103.75373217504405, 1.381149891810637 ] } },
{ "type": "Feature", "properties": { "OBJECTID": 241, "Official_N": "Shui Gou Guan Sheng De Tan\r\n", "United_Tem": "Cao Cuo Gang Lian Sheng Gong(5 of 6)\r\n", "Compose": 6, "Address": "2 Teck Whye Lane \r\n", "Postal_Cod": "688799\r\n" }, "geometry": { "type": "Point", "coordinates": [ 103.753704177430706, 1.381064489125188 ] } },
{ "type": "Feature", "properties": { "OBJECTID": 242, "Official_N": "Leng Hup San (Mandai Road)\r\n", "United_Tem": "Long He Shan Qi Zhai Miao(2 of 3)\r\n", "Compose": 3, "Address": "4 Teck Whye Lane\r\n", "Postal_Cod": "688800\r\n" }, "geometry": { "type": "Point", "coordinates": [ 103.753589671374186, 1.380657405104122 ] } },
{ "type": "Feature", "properties": { "OBJECTID": 243, "Official_N": "Chee Chea Temple (Lim Chu Gang Ah Ma Keng Road)\r\n", "United_Tem": "Long He Shan Qi Zhai Miao(3 of 3)\r\n", "Compose": 3, "Address": "4 Teck Whye Lane\r\n", "Postal_Cod": "688800\r\n" }, "geometry": { "type": "Point", "coordinates": [ 103.753605543024008, 1.380706984645949 ] } },
{ "type": "Feature", "properties": { "OBJECTID": 244, "Official_N": "Ba Long Yuan Shuai Dian\r\n", "United_Tem": "Cai Cuo Gang Lian Sheng Dian(2 of 6)\r\n", "Compose": 6, "Address": "11  Choa Chu Kang Street 51 \r\n", "Postal_Cod": "689334\r\n" }, "geometry": { "type": "Point", "coordinates": [ 103.742826848634508, 1.391537632311545 ] } },
{ "type": "Feature", "properties": { "OBJECTID": 245, "Official_N": "Shan Xing Tang\r\n", "United_Tem": "Cai Cuo Gang Lian Sheng Dian(3 of 6)\r\n", "Compose": 6, "Address": "13  Choa Chu Kang Street 51 \r\n", "Postal_Cod": "689335\r\n" }, "geometry": { "type": "Point", "coordinates": [ 103.742911025547627, 1.391514541746605 ] } },
{ "type": "Feature", "properties": { "OBJECTID": 246, "Official_N": "Kuan Ti Temple\r\n", "United_Tem": "Cai Cuo Gang Lian Sheng Dian(4 of 6)\r\n", "Compose": 6, "Address": "15  Choa Chu Kang Street 51\r\n", "Postal_Cod": "689336\r\n" }, "geometry": { "type": "Point", "coordinates": [ 103.742926392654624, 1.391571287499389 ] } },
{ "type": "Feature", "properties": { "OBJECTID": 247, "Official_N": "Chee Seng Temple\r\n", "United_Tem": "Cai Cuo Gang Lian Sheng Dian(5 of 6)\r\n", "Compose": 6, "Address": "17  Choa Chu Kang Street 51 \r\n", "Postal_Cod": "689337\r\n" }, "geometry": { "type": "Point", "coordinates": [ 103.742948141460587, 1.391651599389 ] } },
{ "type": "Feature", "properties": { "OBJECTID": 248, "Official_N": "Guan Yun Dian\r\n", "United_Tem": "Cai Cuo Gang Lian Sheng Dian(6 of 6)\r\n", "Compose": 6, "Address": "19  Choa Chu Kang Street 51 \r\n", "Postal_Cod": "689337\r\n" }, "geometry": { "type": "Point", "coordinates": [ 103.742980711214258, 1.391771867356762 ] } },
{ "type": "Feature", "properties": { "OBJECTID": 249, "Official_N": "Wu Fu Miao\r\n", "United_Tem": "Cai Cuo Gang Lian Sheng Dian(2 of  6) \r\n", "Compose": 6, "Address": "3 Choa Chu Kang Street 51\r\n", "Postal_Cod": "6893398" }, "geometry": { "type": "Point", "coordinates": [ 103.742566911682474, 1.391610276070276 ] } },
{ "type": "Feature", "properties": { "OBJECTID": 250, "Official_N": "Long Lian Hua Shan Gong\r\n", "United_Tem": "Cai Cuo Gang Lian Sheng Dian (3 of  6) \r\n", "Compose": 6, "Address": "5 Choa Chu Kang Street 51\r\n", "Postal_Cod": "689339\r\n" }, "geometry": { "type": "Point", "coordinates": [ 103.742632395223154, 1.391594289467402 ] } },
{ "type": "Feature", "properties": { "OBJECTID": 251, "Official_N": "Soon Leng Temple\r\n", "United_Tem": "Cai Cuo Gang Lian Sheng Dian (4 of  6) \r\n", "Compose": 6, "Address": "5A  Choa Chu Kang Street 51 \r\n", "Postal_Cod": "689339\r\n" }, "geometry": { "type": "Point", "coordinates": [ 103.74267097331051, 1.39158480057462 ] } },
{ "type": "Feature", "properties": { "OBJECTID": 252, "Official_N": "Yi Do An Chinese Temple\r\n", "United_Tem": "Cai Cuo Gang Lian Sheng Dian (5 of  6) \r\n", "Compose": 6, "Address": "7 Choa Chu Kang Street 51\r\n", "Postal_Cod": "689340\r\n" }, "geometry": { "type": "Point", "coordinates": [ 103.742704068224569, 1.391576720466729 ] } },
{ "type": "Feature", "properties": { "OBJECTID": 253, "Official_N": "Soon Leng Temple\r\n", "United_Tem": "Cai Cuo Gang Lian Sheng Dian (6 of  6) \r\n", "Compose": 6, "Address": "9 Choa Chu Kang Street 51\r\n", "Postal_Cod": "689341\r\n" }, "geometry": { "type": "Point", "coordinates": [ 103.742524477347246, 1.391678559257858 ] } },
{ "type": "Feature", "properties": { "OBJECTID": 254, "Official_N": "Chai Kong Temple \r\n", "United_Tem": "Shang Di Miao Ji Gong Tan(2 of 3)\r\n", "Compose": 3, "Address": "10 Marsiling Industrial Estate Road 3\r\n", "Postal_Cod": "739254\r\n" }, "geometry": { "type": "Point", "coordinates": [ 103.782982702458895, 1.439483227350448 ] } },
{ "type": "Feature", "properties": { "OBJECTID": 255, "Official_N": "Shang Di Miao\r\n", "United_Tem": "Shang Di Miao Ji Gong Tan(3 of 3)\r\n", "Compose": 3, "Address": "10 Marsiling Industrial Estate Road 3\r\n", "Postal_Cod": "739254\r\n" }, "geometry": { "type": "Point", "coordinates": [ 103.783058450241668, 1.439579799668578 ] } },
{ "type": "Feature", "properties": { "OBJECTID": 256, "Official_N": "Bao An Miao\r\n", "United_Tem": "Feng Tu Miao (2 of 7)\r\n", "Compose": 7, "Address": "31 Marsiling Industrial Estate Road 3\r\n", "Postal_Cod": "739255\r\n" }, "geometry": { "type": "Point", "coordinates": [ 103.782760554232667, 1.439640274150476 ] } },
{ "type": "Feature", "properties": { "OBJECTID": 257, "Official_N": "Hong Tho Biow Temple \r\n", "United_Tem": "Feng Tu Miao (3 of 7)\r\n", "Compose": 7, "Address": "31 Marsiling Industrial Estate Road 3\r\n", "Postal_Cod": "739255\r\n" }, "geometry": { "type": "Point", "coordinates": [ 103.782787195967913, 1.439674678537006 ] } },
{ "type": "Feature", "properties": { "OBJECTID": 258, "Official_N": "Guan Yin Miao\r\n", "United_Tem": "Feng Tu Miao (4 of 7)\r\n", "Compose": 7, "Address": "31 Marsiling Industrial Estate Road 3\r\n", "Postal_Cod": "739255\r\n" }, "geometry": { "type": "Point", "coordinates": [ 103.782826239375765, 1.439702782500023 ] } },
{ "type": "Feature", "properties": { "OBJECTID": 259, "Official_N": "Huang Tu Miao\r\n", "United_Tem": "Feng Tu Miao (5 of 7)\r\n", "Compose": 7, "Address": "31 Marsiling Industrial Estate Road 3\r\n", "Postal_Cod": "739255\r\n" }, "geometry": { "type": "Point", "coordinates": [ 103.782851735434406, 1.4397357091305 ] } },
{ "type": "Feature", "properties": { "OBJECTID": 260, "Official_N": "Ming De Gong\r\n", "United_Tem": "Feng Tu Miao (6 of 7)\r\n", "Compose": 7, "Address": "31 Marsiling Industrial Estate Road 3\r\n", "Postal_Cod": "739255\r\n" }, "geometry": { "type": "Point", "coordinates": [ 103.782797020732531, 1.439778622666792 ] } },
{ "type": "Feature", "properties": { "OBJECTID": 261, "Official_N": "Yi Xian Tang\r\n", "United_Tem": "Feng Tu Miao (7 of 7)\r\n", "Compose": 7, "Address": "31 Marsiling Industrial Estate Road 3\r\n", "Postal_Cod": "739255\r\n" }, "geometry": { "type": "Point", "coordinates": [ 103.78270830074203, 1.439848206927154 ] } },
{ "type": "Feature", "properties": { "OBJECTID": 262, "Official_N": "Long Chuen Temple\r\n", "United_Tem": "Qi Zhai Long Quan Miao(2 of 3)\r\n", "Compose": 3, "Address": "33 Kranji Loop\r\n", "Postal_Cod": "739565\r\n" }, "geometry": { "type": "Point", "coordinates": [ 103.753713443738903, 1.435812964586867 ] } },
{ "type": "Feature", "properties": { "OBJECTID": 263, "Official_N": "Chek Chai Temple\r\n", "United_Tem": "Qi Zhai Long Quan Miao(3 of 3)\r\n", "Compose": 3, "Address": "33 Kranji Loop\r\n", "Postal_Cod": "739565\r\n" }, "geometry": { "type": "Point", "coordinates": [ 103.753785748594353, 1.435829283634982 ] } },
{ "type": "Feature", "properties": { "OBJECTID": 264, "Official_N": "Sembawang Tian Ho Keng\r\n", "United_Tem": "Cai Shen Miao Tian Hou Gong Peng Lai Dian(2 of 4)\r\n", "Compose": 4, "Address": "24 Admiralty Street\r\n", "Postal_Cod": "747612\r\n" }, "geometry": { "type": "Point", "coordinates": [ 103.811396404483375, 1.460863127985302 ] } },
{ "type": "Feature", "properties": { "OBJECTID": 265, "Official_N": "Sembawang Tian Hoon Tien (God of Wealth Temple)\r\n", "United_Tem": "Cai Shen Miao Tian Hou Gong Peng Lai Dian(3 of 4)\r\n", "Compose": 4, "Address": "28 Admiralty Street\r\n\r\n", "Postal_Cod": "757611\r\n" }, "geometry": { "type": "Point", "coordinates": [ 103.811336016925111, 1.460994710472804 ] } },
{ "type": "Feature", "properties": { "OBJECTID": 266, "Official_N": "Peng Lai Dian\r\n", "United_Tem": "Cai Shen Miao Tian Hou Gong Peng Lai Dian (4 of 4)\r\n", "Compose": 4, "Address": "26 Admiralty Street\r\n", "Postal_Cod": "757613\r\n" }, "geometry": { "type": "Point", "coordinates": [ 103.811246376966224, 1.460951552457061 ] } },
{ "type": "Feature", "properties": { "OBJECTID": 267, "Official_N": "Chin Chwee Temple \r\n", "United_Tem": "Wu Lan Lian Sheng Miao (2 of 4)\r\n", "Compose": 4, "Address": "11 Woodlands Industrial Park E8, # 01 - 03\r\n", "Postal_Cod": "757701\r\n" }, "geometry": { "type": "Point", "coordinates": [ 103.80080837615516, 1.452418696769173 ] } },
{ "type": "Feature", "properties": { "OBJECTID": 268, "Official_N": "Tain Chor Temple \r\n", "United_Tem": "Wu Lan Lian Sheng Miao (3 of 4)\r\n", "Compose": 4, "Address": "11 Woodlands Industrial Park E8, # 01 - 03\r\n", "Postal_Cod": "757701\r\n" }, "geometry": { "type": "Point", "coordinates": [ 103.800936204989327, 1.452480637568199 ] } },
{ "type": "Feature", "properties": { "OBJECTID": 269, "Official_N": "Boo Tong San Temple\r\n", "United_Tem": "Wu Lan Lian Sheng Miao (4 of 4)\r\n", "Compose": 4, "Address": "11 Woodlands Industrial Park E8, # 01 - 03\r\n", "Postal_Cod": "757701\r\n" }, "geometry": { "type": "Point", "coordinates": [ 103.800861505575909, 1.452636778464414 ] } },
{ "type": "Feature", "properties": { "OBJECTID": 270, "Official_N": "Wan Li Lian He Dian\r\n", "United_Tem": "Tian Xian Miao(2 of 3)", "Compose": 3, "Address": "19 Woodlands Industrial Park E7\r\n", "Postal_Cod": "757721\r\n" }, "geometry": { "type": "Point", "coordinates": [ 103.795725051456643, 1.450752145061786 ] } },
{ "type": "Feature", "properties": { "OBJECTID": 271, "Official_N": "Wan Li Lian He Dian\r\n", "United_Tem": "Tian Xian Miao(3 of 3)", "Compose": 3, "Address": "21 Woodlands Industrial Park E7\r\n", "Postal_Cod": "757721\r\n" }, "geometry": { "type": "Point", "coordinates": [ 103.795759436236494, 1.450763977423753 ] } },
{ "type": "Feature", "properties": { "OBJECTID": 272, "Official_N": "Fei Long Gong \r\n", "United_Tem": "Yi Shun Zhen Lian He Miao(2 of 3)", "Compose": 3, "Address": "15 Woodlands Industrial Park E4\r\n", "Postal_Cod": "757749\r\n" }, "geometry": { "type": "Point", "coordinates": [ 103.795501159809575, 1.451062603854546 ] } },
{ "type": "Feature", "properties": { "OBJECTID": 273, "Official_N": "Hong San Tan Temple \r\n", "United_Tem": "Yi Shun Zhen Lian He Miao(3 of 3)", "Compose": 3, "Address": "17 Woodlands Industrial Park E4\r\n", "Postal_Cod": "757750\r\n" }, "geometry": { "type": "Point", "coordinates": [ 103.795638489257726, 1.451128838123428 ] } },
{ "type": "Feature", "properties": { "OBJECTID": 274, "Official_N": "Seng Pang Tua Pek Kong Keng\r\n", "United_Tem": "San Ba Wang Cheng Bang Lian He Miao(2 of 4)", "Compose": 4, "Address": "475 Yishun Ring Road\r\n", "Postal_Cod": "768678\r\n" }, "geometry": { "type": "Point", "coordinates": [ 103.82810547299016, 1.433643163420882 ] } },
{ "type": "Feature", "properties": { "OBJECTID": 275, "Official_N": "he Bi Shan Gong", "United_Tem": "San Ba Wang Cheng Bang Lian He Miao(3 of 4)", "Compose": 4, "Address": "475 Yishun Ring Road\r\n", "Postal_Cod": "768678\r\n" }, "geometry": { "type": "Point", "coordinates": [ 103.828110906580733, 1.433736501915618 ] } },
{ "type": "Feature", "properties": { "OBJECTID": 276, "Official_N": "Nam Hong Siang Theon\r\n", "United_Tem": "San Ba Wang Cheng Bang Lian He Miao(4 of 4)", "Compose": 4, "Address": "475 Yishun Ring Road\r\n", "Postal_Cod": "768678\r\n" }, "geometry": { "type": "Point", "coordinates": [ 103.828105965013421, 1.433822441786293 ] } },
{ "type": "Feature", "properties": { "OBJECTID": 277, "Official_N": "Kwang Tee Temple\r\n", "United_Tem": "Zhong Bang Lian He Gong(2 of 5)", "Compose": 5, "Address": "561 Yishun Ring Road , #01-04\r\n", "Postal_Cod": "768682\r\n" }, "geometry": { "type": "Point", "coordinates": [ 103.832693291008397, 1.434673616811048 ] } },
{ "type": "Feature", "properties": { "OBJECTID": 278, "Official_N": "Hwa Poh Siang Tng\r\n", "United_Tem": "Zhong Bang Lian He Gong(3 of 5)", "Compose": 5, "Address": "561 Yishun Ring Road,  #01-01\r\n", "Postal_Cod": "768682\r\n" }, "geometry": { "type": "Point", "coordinates": [ 103.832682349717672, 1.434662608891943 ] } },
{ "type": "Feature", "properties": { "OBJECTID": 279, "Official_N": "Hong San See Temple / Kew Ong Yah Temple aka\r\nJiazhuikang Kew Ong Yah Temple Hong San See Temple\r\n", "United_Tem": "Zhong Bang Lian He Gong(4 of 5)", "Compose": 5, "Address": "561 Yishun Ring Road , #01-02\r\n", "Postal_Cod": "768682\r\n" }, "geometry": { "type": "Point", "coordinates": [ 103.832687819468646, 1.434653073281753 ] } },
{ "type": "Feature", "properties": { "OBJECTID": 280, "Official_N": "Chin Kong Religion Fook Poon Tong\r\n", "United_Tem": "Zhong Bang Lian He Gong(5 of 5)", "Compose": 5, "Address": "561 Yishun Ring Road , #01-05\r\n", "Postal_Cod": "768682\r\n" }, "geometry": { "type": "Point", "coordinates": [ 103.832700319824511, 1.434654172087286 ] } },
{ "type": "Feature", "properties": { "OBJECTID": 281, "Official_N": "Hua Shan Gong", "United_Tem": "Ju Shan Ha Shan Gong(2 of 3)\r\n", "Compose": 3, "Address": "569 Yishun Ring Road\r\n", "Postal_Cod": "768691\r\n" }, "geometry": { "type": "Point", "coordinates": [ 103.833613141458002, 1.43460403965615 ] } },
{ "type": "Feature", "properties": { "OBJECTID": 282, "Official_N": "Chu Siang Tong\r\n", "United_Tem": "Ju Shan Ha Shan Gong(3 of 3)\r\n", "Compose": 3, "Address": "569 Yishun Ring Road\r\n", "Postal_Cod": "768691\r\n" }, "geometry": { "type": "Point", "coordinates": [ 103.833691737977773, 1.43462989902317 ] } },
{ "type": "Feature", "properties": { "OBJECTID": 283, "Official_N": "Chee Hoon Sun Kong Temple\r\n", "United_Tem": "Ci Ling Lian He Miao (2 of 3)\r\n", "Compose": 3, "Address": "525 Yishun Industrial Park A\r\n", "Postal_Cod": "768769\r\n" }, "geometry": { "type": "Point", "coordinates": [ 103.836028915121233, 1.443519676437198 ] } },
{ "type": "Feature", "properties": { "OBJECTID": 284, "Official_N": "Cheow Leng Beo (Xin Hua Temple)\r\n", "United_Tem": "Ci Ling Lian He Miao  (3 of 3)\r\n", "Compose": 3, "Address": "525 Yishun Industrial Park A\r\n", "Postal_Cod": "768769\r\n" }, "geometry": { "type": "Point", "coordinates": [ 103.835939692538503, 1.443665442789383 ] } },
{ "type": "Feature", "properties": { "OBJECTID": 285, "Official_N": "Chao Yun Dian\r\n", "United_Tem": "Fu Fa Gong(2 of 5)\r\n", "Compose": 5, "Address": "523 Yishun Industrial Park A \r\n", "Postal_Cod": "768770\r\n" }, "geometry": { "type": "Point", "coordinates": [ 103.836016658834112, 1.443262458228631 ] } },
{ "type": "Feature", "properties": { "OBJECTID": 286, "Official_N": "Fu Fa Gong\r\n", "United_Tem": "Fu Fa Gong(3 of 5)\r\n", "Compose": 5, "Address": "523 Yishun Industrial Park A \r\n", "Postal_Cod": "768770\r\n" }, "geometry": { "type": "Point", "coordinates": [ 103.836074220397535, 1.443297977948829 ] } },
{ "type": "Feature", "properties": { "OBJECTID": 287, "Official_N": "Tian Fu Dian\r\n", "United_Tem": "Fu Fa Gong(4 of 5)\r\n", "Compose": 5, "Address": "523 Yishun Industrial Park A \r\n", "Postal_Cod": "768770\r\n" }, "geometry": { "type": "Point", "coordinates": [ 103.83614363896497, 1.443329675811784 ] } },
{ "type": "Feature", "properties": { "OBJECTID": 288, "Official_N": "Yin Du Miao\r\n", "United_Tem": "Fu Fa Gong(5 of 5)\r\n", "Compose": 5, "Address": "523 Yishun Industrial Park A \r\n", "Postal_Cod": "768770\r\n" }, "geometry": { "type": "Point", "coordinates": [ 103.836052064771692, 1.443481433581141 ] } },
{ "type": "Feature", "properties": { "OBJECTID": 289, "Official_N": "Chern Nam Kong Siew Temple\r\n", "United_Tem": "Yi Shun Zhen Lian He Miao(2 of 4)\r\n", "Compose": 4, "Address": "15 Yishun Avenue 9 \r\n", "Postal_Cod": "768889\r\n" }, "geometry": { "type": "Point", "coordinates": [ 103.841562619999891, 1.434055656571143 ] } },
{ "type": "Feature", "properties": { "OBJECTID": 290, "Official_N": "Guan Loong Sheng Temple\r\n", "United_Tem": "Yi Shun Zhen Lian He Miao(3 of 4)\r\n", "Compose": 4, "Address": "17 Yishun Avenue 9\r\n", "Postal_Cod": "768890\r\n" }, "geometry": { "type": "Point", "coordinates": [ 103.841644351976313, 1.434134059187468 ] } },
{ "type": "Feature", "properties": { "OBJECTID": 291, "Official_N": "Shun Xi Gong Shui Chi Lin\r\n", "United_Tem": "Yi Shun Zhen Lian He Miao(4 of 4)\r\n", "Compose": 4, "Address": "19 Yishun Avenue 9\r\n", "Postal_Cod": "768891\r\n" }, "geometry": { "type": "Point", "coordinates": [ 103.84171773503526, 1.434191074532631 ] } },
{ "type": "Feature", "properties": { "OBJECTID": 292, "Official_N": "Dong Shan Miao\r\n", "United_Tem": "Chang Xiu Wei Ling Dong Shan Lian He Miao(2 of 4)\r\n", "Compose": 4, "Address": "358, Yishun Avenue 3\r\n", "Postal_Cod": "769058\r\n" }, "geometry": { "type": "Point", "coordinates": [ 103.833230743072605, 1.422412811854058 ] } },
{ "type": "Feature", "properties": { "OBJECTID": 293, "Official_N": "Wei Ling Gong\r\n", "United_Tem": "Chang Xiu Wei Ling Dong Shan Lian He Miao(3 of 4)\r\n", "Compose": 4, "Address": "360, Yishun Avenue 3\r\n\r\n", "Postal_Cod": "769059\r\n" }, "geometry": { "type": "Point", "coordinates": [ 103.83320905019373, 1.422595941016943 ] } },
{ "type": "Feature", "properties": { "OBJECTID": 294, "Official_N": "Chang Xiu Guang (Teong Siew Kuan Temple)\r\n", "United_Tem": "Chang Xiu Wei Ling Dong Shan Lian He Miao(4 of 4)\r\n", "Compose": 4, "Address": "362, Yishun Avenue 3\r\n\r\n", "Postal_Cod": "769060\r\n" }, "geometry": { "type": "Point", "coordinates": [ 103.832920085986643, 1.422596142656248 ] } },
{ "type": "Feature", "properties": { "OBJECTID": 295, "Official_N": "Sheng Jia Temple Association\r\n", "United_Tem": "Bang E Lian He Miao(2 of 4)\r\n", "Compose": 4, "Address": "3 Tebing Lane, Punggol East #01-01\r\n", "Postal_Cod": "828849\r\n" }, "geometry": { "type": "Point", "coordinates": [ 103.915602364742611, 1.392514528726992 ] } },
{ "type": "Feature", "properties": { "OBJECTID": 296, "Official_N": "Society of Love and Compassion\r\n", "United_Tem": "Bang E Lian He Miao(3 of 4)\r\n", "Compose": 4, "Address": "3 Tebing Lane, Punggol East #01-03\r\n\r\n", "Postal_Cod": "828849\r\n" }, "geometry": { "type": "Point", "coordinates": [ 103.915701507630857, 1.392439380802628 ] } },
{ "type": "Feature", "properties": { "OBJECTID": 297, "Official_N": "Tian Jun Temple\r\n", "United_Tem": "Bang E Lian He Miao(4 of 4)\r\n", "Compose": 4, "Address": "3 Tebing Lane, Punggol East #01-02", "Postal_Cod": "828849\r\n" }, "geometry": { "type": "Point", "coordinates": [ 103.915690368342325, 1.392424495376386 ] } }
]
}
